{"type":"FeatureCollection","features":[{"type":"Feature","properties":{"nome":"TUPI","bacia":"Santos","operador":"Petróleo Brasileiro S.A. - PETROBRAS","rodada":"Rodada 2","etapa":"Produção","area_km2":1523.0},"geometry":{"type":"Polygon","coordinates":[[[-42.89626,-25.10467],[-42.89366,-25.10467],[-42.89105,-25.10467],[-42.88845,-25.10467],[-42.88584,-25.10467],[-42.88324,-25.10467],[-42.88063,-25.10467],[-42.87803,-25.10467],[-42.87543,-25.10467],[-42.87543,-25.10728],[-42.87543,-25.10988],[-42.87543,-25.11249],[-42.87543,-25.11509],[-42.87282,-25.11509],[-42.87022,-25.11509],[-42.86761,-25.11509],[-42.86501,-25.11509],[-42.86501,-25.1177],[-42.86501,-25.1203],[-42.86501,-25.1229],[-42.86501,-25.12551],[-42.86241,-25.12551],[-42.8598,-25.12551],[-42.8572,-25.12551],[-42.85459,-25.12551],[-42.85459,-25.12811],[-42.85459,-25.13072],[-42.85459,-25.13332],[-42.85459,-25.13592],[-42.85199,-25.13592],[-42.84938,-25.13592],[-42.84678,-25.13592],[-42.84418,-25.13592],[-42.84157,-25.13592],[-42.83897,-25.13592],[-42.83636,-25.13592],[-42.83376,-25.13592],[-42.83376,-25.13853],[-42.83376,-25.14113],[-42.83376,-25.14374],[-42.83376,-25.14634],[-42.83376,-25.14895],[-42.83376,-25.15155],[-42.83376,-25.15415],[-42.83376,-25.15676],[-42.83116,-25.15676],[-42.82855,-25.15676],[-42.82595,-25.15676],[-42.82334,-25.15676],[-42.82334,-25.15936],[-42.82334,-25.16197],[-42.82334,-25.16457],[-42.82334,-25.16717],[-42.82334,-25.16978],[-42.82334,-25.17238],[-42.82334,-25.17499],[-42.82334,-25.17759],[-42.82334,-25.1802],[-42.82334,-25.1828],[-42.82334,-25.1854],[-42.82334,-25.18801],[-42.82334,-25.19061],[-42.82334,-25.19322],[-42.82334,-25.19582],[-42.82334,-25.19842],[-42.82074,-25.19842],[-42.81813,-25.19842],[-42.81553,-25.19842],[-42.81293,-25.19842],[-42.81293,-25.20103],[-42.81293,-25.20363],[-42.81293,-25.20624],[-42.81293,-25.20884],[-42.81293,-25.21145],[-42.81293,-25.21405],[-42.81293,-25.21665],[-42.81293,-25.21926],[-42.81293,-25.22186],[-42.81293,-25.22447],[-42.81293,-25.22707],[-42.81293,-25.22967],[-42.81553,-25.22967],[-42.81813,-25.22967],[-42.82074,-25.22967],[-42.82334,-25.22967],[-42.82334,-25.23228],[-42.82334,-25.23488],[-42.82334,-25.23749],[-42.82334,-25.24009],[-42.82334,-25.2427],[-42.82334,-25.2453],[-42.82334,-25.2479],[-42.82334,-25.25051],[-42.82334,-25.25311],[-42.82334,-25.25572],[-42.82334,-25.25832],[-42.82334,-25.26093],[-42.82334,-25.26353],[-42.82334,-25.26613],[-42.82334,-25.26874],[-42.82334,-25.27134],[-42.82334,-25.27395],[-42.82334,-25.27655],[-42.82334,-25.27915],[-42.82334,-25.28176],[-42.82334,-25.28436],[-42.82334,-25.28697],[-42.82334,-25.28957],[-42.82334,-25.29218],[-42.82334,-25.29478],[-42.82334,-25.29738],[-42.82334,-25.29999],[-42.82334,-25.30259],[-42.82334,-25.3052],[-42.82334,-25.3078],[-42.82334,-25.3104],[-42.82334,-25.31301],[-42.82334,-25.31561],[-42.82334,-25.31822],[-42.82334,-25.32082],[-42.82334,-25.32343],[-42.82334,-25.32603],[-42.82334,-25.32863],[-42.82334,-25.33124],[-42.82334,-25.33384],[-42.82334,-25.33645],[-42.82334,-25.33905],[-42.82334,-25.34165],[-42.82334,-25.34426],[-42.82074,-25.34426],[-42.81813,-25.34426],[-42.81553,-25.34426],[-42.81293,-25.34426],[-42.81032,-25.34426],[-42.80772,-25.34426],[-42.80511,-25.34426],[-42.80251,-25.34426],[-42.80251,-25.34165],[-42.80251,-25.33905],[-42.80251,-25.33645],[-42.80251,-25.33384],[-42.79991,-25.33384],[-42.7973,-25.33384],[-42.7947,-25.33384],[-42.79209,-25.33384],[-42.78949,-25.33384],[-42.78688,-25.33384],[-42.78428,-25.33384],[-42.78168,-25.33384],[-42.77907,-25.33384],[-42.77647,-25.33384],[-42.77386,-25.33384],[-42.77126,-25.33384],[-42.77126,-25.33124],[-42.77126,-25.32863],[-42.77126,-25.32603],[-42.77126,-25.32343],[-42.77126,-25.32082],[-42.77126,-25.31822],[-42.77126,-25.31561],[-42.77126,-25.31301],[-42.77126,-25.3104],[-42.76866,-25.3104],[-42.76605,-25.3104],[-42.76345,-25.3104],[-42.76084,-25.3104],[-42.76084,-25.3078],[-42.76084,-25.3052],[-42.76084,-25.30259],[-42.76084,-25.29999],[-42.76084,-25.29738],[-42.76084,-25.29478],[-42.76084,-25.29218],[-42.76084,-25.28957],[-42.76084,-25.28697],[-42.75824,-25.28697],[-42.75563,-25.28697],[-42.75303,-25.28697],[-42.75043,-25.28697],[-42.75043,-25.28436],[-42.75043,-25.28176],[-42.75043,-25.27915],[-42.75043,-25.27655],[-42.75043,-25.27395],[-42.75043,-25.27134],[-42.75043,-25.26874],[-42.75043,-25.26613],[-42.75043,-25.26353],[-42.75043,-25.26093],[-42.74782,-25.26093],[-42.74522,-25.26093],[-42.74261,-25.26093],[-42.74001,-25.26093],[-42.74001,-25.25832],[-42.74001,-25.25572],[-42.74001,-25.25311],[-42.74001,-25.25051],[-42.7374,-25.25051],[-42.7348,-25.25051],[-42.7322,-25.25051],[-42.72959,-25.25051],[-42.72699,-25.25051],[-42.72438,-25.25051],[-42.72178,-25.25051],[-42.71918,-25.25051],[-42.71657,-25.25051],[-42.71397,-25.25051],[-42.71136,-25.25051],[-42.70876,-25.25051],[-42.70615,-25.25051],[-42.70355,-25.25051],[-42.70095,-25.25051],[-42.69834,-25.25051],[-42.69574,-25.25051],[-42.69313,-25.25051],[-42.69053,-25.25051],[-42.68792,-25.25051],[-42.68532,-25.25051],[-42.68272,-25.25051],[-42.68011,-25.25051],[-42.67751,-25.25051],[-42.67751,-25.25311],[-42.67751,-25.25572],[-42.67751,-25.25832],[-42.67751,-25.26093],[-42.6749,-25.26093],[-42.6723,-25.26093],[-42.6697,-25.26093],[-42.66709,-25.26093],[-42.66449,-25.26093],[-42.66188,-25.26093],[-42.65928,-25.26093],[-42.65667,-25.26093],[-42.65407,-25.26093],[-42.65147,-25.26093],[-42.64886,-25.26093],[-42.64626,-25.26093],[-42.64365,-25.26093],[-42.64105,-25.26093],[-42.63845,-25.26093],[-42.63584,-25.26093],[-42.63324,-25.26093],[-42.63063,-25.26093],[-42.62803,-25.26093],[-42.62542,-25.26093],[-42.62542,-25.26353],[-42.62542,-25.26613],[-42.62542,-25.26874],[-42.62542,-25.27134],[-42.62542,-25.27395],[-42.62542,-25.27655],[-42.62542,-25.27915],[-42.62542,-25.28176],[-42.62542,-25.28436],[-42.62542,-25.28697],[-42.62542,-25.28957],[-42.62542,-25.29218],[-42.62282,-25.29218],[-42.62022,-25.29218],[-42.61761,-25.29218],[-42.61501,-25.29218],[-42.6124,-25.29218],[-42.6098,-25.29218],[-42.6072,-25.29218],[-42.60459,-25.29218],[-42.60199,-25.29218],[-42.59938,-25.29218],[-42.59678,-25.29218],[-42.59417,-25.29218],[-42.59157,-25.29218],[-42.58897,-25.29218],[-42.58636,-25.29218],[-42.58376,-25.29218],[-42.58376,-25.29478],[-42.58376,-25.29738],[-42.58376,-25.29999],[-42.58376,-25.30259],[-42.58376,-25.3052],[-42.58376,-25.3078],[-42.58376,-25.31041],[-42.58376,-25.31301],[-42.58376,-25.31561],[-42.58376,-25.31822],[-42.58376,-25.32082],[-42.58376,-25.32343],[-42.58636,-25.32343],[-42.58897,-25.32343],[-42.59157,-25.32343],[-42.59417,-25.32343],[-42.59417,-25.32603],[-42.59417,-25.32863],[-42.59417,-25.33124],[-42.59417,-25.33384],[-42.59417,-25.33645],[-42.59417,-25.33905],[-42.59417,-25.34166],[-42.59417,-25.34426],[-42.59417,-25.34686],[-42.59417,-25.34947],[-42.59417,-25.35207],[-42.59417,-25.35468],[-42.59417,-25.35728],[-42.59417,-25.35988],[-42.59417,-25.36249],[-42.59417,-25.36509],[-42.59417,-25.3677],[-42.59417,-25.3703],[-42.59417,-25.37291],[-42.59417,-25.37551],[-42.59678,-25.37551],[-42.59938,-25.37551],[-42.60199,-25.37551],[-42.60459,-25.37551],[-42.6072,-25.37551],[-42.6098,-25.37551],[-42.6124,-25.37551],[-42.61501,-25.37551],[-42.61761,-25.37551],[-42.62022,-25.37551],[-42.62282,-25.37551],[-42.62542,-25.37551],[-42.62542,-25.37811],[-42.62542,-25.38072],[-42.62542,-25.38332],[-42.62542,-25.38593],[-42.62542,-25.38853],[-42.62542,-25.39113],[-42.62542,-25.39374],[-42.62542,-25.39634],[-42.62803,-25.39634],[-42.63063,-25.39634],[-42.63324,-25.39634],[-42.63584,-25.39634],[-42.63584,-25.39895],[-42.63584,-25.40155],[-42.63584,-25.40416],[-42.63584,-25.40676],[-42.63845,-25.40676],[-42.64105,-25.40676],[-42.64365,-25.40676],[-42.64626,-25.40676],[-42.64626,-25.40936],[-42.64626,-25.41197],[-42.64626,-25.41457],[-42.64626,-25.41718],[-42.64886,-25.41718],[-42.65147,-25.41718],[-42.65407,-25.41718],[-42.65668,-25.41718],[-42.65928,-25.41718],[-42.66188,-25.41718],[-42.66449,-25.41718],[-42.66709,-25.41718],[-42.6697,-25.41718],[-42.6723,-25.41718],[-42.6749,-25.41718],[-42.67751,-25.41718],[-42.68011,-25.41718],[-42.68272,-25.41718],[-42.68532,-25.41718],[-42.68793,-25.41718],[-42.68793,-25.41978],[-42.68793,-25.42238],[-42.68793,-25.42499],[-42.68793,-25.42759],[-42.68793,-25.4302],[-42.68793,-25.4328],[-42.68793,-25.43541],[-42.68793,-25.43801],[-42.68793,-25.44061],[-42.68793,-25.44322],[-42.68793,-25.44582],[-42.68793,-25.44843],[-42.68793,-25.45103],[-42.68793,-25.45363],[-42.68793,-25.45624],[-42.68793,-25.45884],[-42.68793,-25.46145],[-42.68793,-25.46405],[-42.68793,-25.46666],[-42.68793,-25.46926],[-42.68793,-25.47186],[-42.68793,-25.47447],[-42.68793,-25.47707],[-42.68793,-25.47968],[-42.69053,-25.47968],[-42.69313,-25.47968],[-42.69574,-25.47968],[-42.69834,-25.47968],[-42.69834,-25.48228],[-42.69834,-25.48488],[-42.69834,-25.48749],[-42.69834,-25.49009],[-42.69834,-25.4927],[-42.69834,-25.4953],[-42.69834,-25.49791],[-42.69834,-25.50051],[-42.69834,-25.50311],[-42.69834,-25.50572],[-42.69834,-25.50832],[-42.69834,-25.51093],[-42.70095,-25.51093],[-42.70355,-25.51093],[-42.70616,-25.51093],[-42.70876,-25.51093],[-42.70876,-25.51353],[-42.70876,-25.51613],[-42.70876,-25.51874],[-42.70876,-25.52134],[-42.70876,-25.52395],[-42.70876,-25.52655],[-42.70876,-25.52916],[-42.70876,-25.53176],[-42.70876,-25.53436],[-42.70876,-25.53697],[-42.70876,-25.53957],[-42.70876,-25.54218],[-42.71136,-25.54218],[-42.71397,-25.54218],[-42.71657,-25.54218],[-42.71918,-25.54218],[-42.72178,-25.54218],[-42.72438,-25.54218],[-42.72699,-25.54218],[-42.72959,-25.54218],[-42.7322,-25.54218],[-42.7348,-25.54218],[-42.73741,-25.54218],[-42.74001,-25.54218],[-42.74261,-25.54218],[-42.74522,-25.54218],[-42.74782,-25.54218],[-42.75043,-25.54218],[-42.75043,-25.54478],[-42.75043,-25.54738],[-42.75043,-25.54999],[-42.75043,-25.55259],[-42.75043,-25.5552],[-42.75043,-25.5578],[-42.75043,-25.56041],[-42.75043,-25.56301],[-42.75043,-25.56561],[-42.75043,-25.56822],[-42.75043,-25.57082],[-42.75043,-25.57343],[-42.75043,-25.57603],[-42.75043,-25.57864],[-42.75043,-25.58124],[-42.75043,-25.58384],[-42.75043,-25.58645],[-42.75043,-25.58905],[-42.75043,-25.59166],[-42.75043,-25.59426],[-42.75043,-25.59686],[-42.75043,-25.59947],[-42.75043,-25.60207],[-42.75043,-25.60468],[-42.75043,-25.60728],[-42.75043,-25.60989],[-42.75043,-25.61249],[-42.75043,-25.61509],[-42.75043,-25.6177],[-42.75043,-25.6203],[-42.75043,-25.62291],[-42.75043,-25.62551],[-42.75303,-25.62551],[-42.75564,-25.62551],[-42.75824,-25.62551],[-42.76084,-25.62551],[-42.76345,-25.62551],[-42.76605,-25.62551],[-42.76866,-25.62551],[-42.77126,-25.62551],[-42.77386,-25.62551],[-42.77647,-25.62551],[-42.77907,-25.62551],[-42.78168,-25.62551],[-42.78428,-25.62551],[-42.78689,-25.62551],[-42.78949,-25.62551],[-42.79209,-25.62551],[-42.7947,-25.62551],[-42.7973,-25.62551],[-42.79991,-25.62551],[-42.80251,-25.62551],[-42.80511,-25.62551],[-42.80772,-25.62551],[-42.81032,-25.62551],[-42.81293,-25.62551],[-42.81293,-25.62811],[-42.81293,-25.63072],[-42.81293,-25.63332],[-42.81293,-25.63593],[-42.81293,-25.63853],[-42.81293,-25.64114],[-42.81293,-25.64374],[-42.81293,-25.64634],[-42.81293,-25.64895],[-42.81293,-25.65155],[-42.81293,-25.65416],[-42.81293,-25.65676],[-42.81293,-25.65936],[-42.81293,-25.66197],[-42.81293,-25.66457],[-42.81293,-25.66718],[-42.81553,-25.66718],[-42.81814,-25.66718],[-42.82074,-25.66718],[-42.82334,-25.66718],[-42.82595,-25.66718],[-42.82855,-25.66718],[-42.83116,-25.66718],[-42.83376,-25.66718],[-42.83637,-25.66718],[-42.83897,-25.66718],[-42.84157,-25.66718],[-42.84418,-25.66718],[-42.84678,-25.66718],[-42.84939,-25.66718],[-42.85199,-25.66718],[-42.85459,-25.66718],[-42.8572,-25.66718],[-42.8598,-25.66718],[-42.86241,-25.66718],[-42.86501,-25.66718],[-42.86762,-25.66718],[-42.87022,-25.66718],[-42.87282,-25.66718],[-42.87543,-25.66718],[-42.87803,-25.66718],[-42.88064,-25.66718],[-42.88324,-25.66718],[-42.88584,-25.66718],[-42.88845,-25.66718],[-42.89105,-25.66718],[-42.89366,-25.66718],[-42.89626,-25.66718],[-42.89887,-25.66718],[-42.90147,-25.66718],[-42.90407,-25.66718],[-42.90668,-25.66718],[-42.90928,-25.66718],[-42.91189,-25.66718],[-42.91449,-25.66718],[-42.9171,-25.66718],[-42.9197,-25.66718],[-42.9223,-25.66718],[-42.92491,-25.66718],[-42.92751,-25.66718],[-42.93012,-25.66718],[-42.93272,-25.66718],[-42.93532,-25.66718],[-42.93793,-25.66718],[-42.94053,-25.66718],[-42.94314,-25.66718],[-42.94574,-25.66718],[-42.94835,-25.66718],[-42.95095,-25.66718],[-42.95355,-25.66718],[-42.95616,-25.66718],[-42.95876,-25.66718],[-42.96137,-25.66718],[-42.96397,-25.66718],[-42.96657,-25.66718],[-42.96918,-25.66718],[-42.97178,-25.66718],[-42.97439,-25.66718],[-42.97699,-25.66718],[-42.9796,-25.66718],[-42.9822,-25.66718],[-42.9848,-25.66718],[-42.98741,-25.66718],[-42.99001,-25.66718],[-42.99262,-25.66718],[-42.99522,-25.66718],[-42.99783,-25.66718],[-43.00043,-25.66718],[-43.00043,-25.66457],[-43.00043,-25.66197],[-43.00043,-25.65936],[-43.00043,-25.65676],[-43.00043,-25.65416],[-43.00043,-25.65155],[-43.00043,-25.64895],[-43.00043,-25.64634],[-43.00043,-25.64374],[-43.00043,-25.64113],[-43.00043,-25.63853],[-43.00043,-25.63593],[-43.00043,-25.63332],[-43.00043,-25.63072],[-43.00043,-25.62811],[-43.00043,-25.62551],[-43.00043,-25.62291],[-43.00043,-25.6203],[-43.00043,-25.6177],[-43.00043,-25.61509],[-43.00043,-25.61249],[-43.00043,-25.60988],[-43.00043,-25.60728],[-43.00043,-25.60468],[-42.99782,-25.60468],[-42.99522,-25.60468],[-42.99262,-25.60468],[-42.99001,-25.60468],[-42.99001,-25.60207],[-42.99001,-25.59947],[-42.99001,-25.59686],[-42.99001,-25.59426],[-42.99001,-25.59166],[-42.99001,-25.58905],[-42.99001,-25.58645],[-42.99001,-25.58384],[-42.99001,-25.58124],[-42.99001,-25.57863],[-42.99001,-25.57603],[-42.99001,-25.57343],[-42.99001,-25.57082],[-42.99001,-25.56822],[-42.99001,-25.56561],[-42.99001,-25.56301],[-42.99001,-25.56041],[-42.99001,-25.5578],[-42.99001,-25.5552],[-42.99001,-25.55259],[-42.99001,-25.54999],[-42.99001,-25.54738],[-42.99001,-25.54478],[-42.99001,-25.54218],[-42.99001,-25.53957],[-42.99001,-25.53697],[-42.99001,-25.53436],[-42.99001,-25.53176],[-42.99001,-25.52915],[-42.99001,-25.52655],[-42.99001,-25.52395],[-42.99001,-25.52134],[-42.99001,-25.51874],[-42.99001,-25.51613],[-42.99001,-25.51353],[-42.99001,-25.51093],[-42.99001,-25.50832],[-42.99001,-25.50572],[-42.99001,-25.50311],[-42.99001,-25.50051],[-42.99001,-25.4979],[-42.99001,-25.4953],[-42.99001,-25.4927],[-42.99001,-25.49009],[-42.99001,-25.48749],[-42.99001,-25.48488],[-42.99001,-25.48228],[-42.99001,-25.47968],[-42.99001,-25.47707],[-42.99001,-25.47447],[-42.99001,-25.47186],[-42.99001,-25.46926],[-42.98741,-25.46926],[-42.9848,-25.46926],[-42.9822,-25.46926],[-42.9796,-25.46926],[-42.9796,-25.46665],[-42.97959,-25.46405],[-42.97959,-25.46145],[-42.97959,-25.45884],[-42.97959,-25.45624],[-42.97959,-25.45363],[-42.97959,-25.45103],[-42.97959,-25.44843],[-42.97959,-25.44582],[-42.97959,-25.44322],[-42.97959,-25.44061],[-42.97699,-25.44061],[-42.97439,-25.44061],[-42.97178,-25.44061],[-42.96918,-25.44061],[-42.96918,-25.43801],[-42.96918,-25.4354],[-42.96918,-25.4328],[-42.96918,-25.4302],[-42.96918,-25.42759],[-42.96918,-25.42499],[-42.96918,-25.42238],[-42.96918,-25.41978],[-42.96918,-25.41718],[-42.96918,-25.41457],[-42.96918,-25.41197],[-42.96918,-25.40936],[-42.96918,-25.40676],[-42.96918,-25.40415],[-42.96918,-25.40155],[-42.96918,-25.39895],[-42.96918,-25.39634],[-42.96657,-25.39634],[-42.96397,-25.39634],[-42.96137,-25.39634],[-42.95876,-25.39634],[-42.95616,-25.39634],[-42.95355,-25.39634],[-42.95095,-25.39634],[-42.94834,-25.39634],[-42.94574,-25.39634],[-42.94574,-25.39374],[-42.94574,-25.39113],[-42.94574,-25.38853],[-42.94574,-25.38593],[-42.94574,-25.38332],[-42.94574,-25.38072],[-42.94574,-25.37811],[-42.94574,-25.37551],[-42.94314,-25.37551],[-42.94053,-25.37551],[-42.93793,-25.37551],[-42.93532,-25.37551],[-42.93272,-25.37551],[-42.93012,-25.37551],[-42.92751,-25.37551],[-42.92751,-25.3729],[-42.92751,-25.3703],[-42.92751,-25.3677],[-42.92751,-25.36509],[-42.92751,-25.36249],[-42.92751,-25.35988],[-42.92751,-25.35728],[-42.92751,-25.35468],[-42.92491,-25.35468],[-42.9223,-25.35468],[-42.9197,-25.35468],[-42.91709,-25.35468],[-42.91709,-25.35207],[-42.91709,-25.34947],[-42.91709,-25.34686],[-42.91709,-25.34426],[-42.91709,-25.34165],[-42.91709,-25.33905],[-42.91709,-25.33645],[-42.91709,-25.33384],[-42.91709,-25.33124],[-42.91709,-25.32863],[-42.91709,-25.32603],[-42.91709,-25.32343],[-42.91709,-25.32082],[-42.91709,-25.31822],[-42.91709,-25.31561],[-42.91709,-25.31301],[-42.91709,-25.3104],[-42.91709,-25.3078],[-42.91709,-25.3052],[-42.91709,-25.30259],[-42.91709,-25.29999],[-42.91709,-25.29738],[-42.91709,-25.29478],[-42.91709,-25.29217],[-42.91709,-25.28957],[-42.91709,-25.28697],[-42.91709,-25.28436],[-42.91709,-25.28176],[-42.9197,-25.28176],[-42.9223,-25.28176],[-42.92491,-25.28176],[-42.92751,-25.28176],[-42.92751,-25.27915],[-42.92751,-25.27655],[-42.92751,-25.27395],[-42.92751,-25.27134],[-42.92751,-25.26874],[-42.92751,-25.26613],[-42.92751,-25.26353],[-42.92751,-25.26092],[-42.92751,-25.25832],[-42.92751,-25.25572],[-42.92751,-25.25311],[-42.92751,-25.25051],[-42.93011,-25.25051],[-42.93272,-25.25051],[-42.93532,-25.25051],[-42.93793,-25.25051],[-42.93793,-25.2479],[-42.93793,-25.2453],[-42.93793,-25.2427],[-42.93793,-25.24009],[-42.93793,-25.23749],[-42.93793,-25.23488],[-42.93793,-25.23228],[-42.93793,-25.22967],[-42.93793,-25.22707],[-42.93793,-25.22447],[-42.93793,-25.22186],[-42.93793,-25.21926],[-42.93793,-25.21665],[-42.93793,-25.21405],[-42.93793,-25.21145],[-42.93793,-25.20884],[-42.94053,-25.20884],[-42.94314,-25.20884],[-42.94574,-25.20884],[-42.94834,-25.20884],[-42.95095,-25.20884],[-42.95355,-25.20884],[-42.95616,-25.20884],[-42.95876,-25.20884],[-42.96136,-25.20884],[-42.96397,-25.20884],[-42.96657,-25.20884],[-42.96918,-25.20884],[-42.96918,-25.20624],[-42.96918,-25.20363],[-42.96918,-25.20103],[-42.96918,-25.19842],[-42.97178,-25.19842],[-42.97439,-25.19842],[-42.97699,-25.19842],[-42.97959,-25.19842],[-42.97959,-25.19582],[-42.97959,-25.19322],[-42.97959,-25.19061],[-42.97959,-25.18801],[-42.9822,-25.18801],[-42.9848,-25.18801],[-42.98741,-25.18801],[-42.99001,-25.18801],[-42.99001,-25.1854],[-42.99001,-25.1828],[-42.99001,-25.18019],[-42.99001,-25.17759],[-42.99261,-25.17759],[-42.99522,-25.17759],[-42.99782,-25.17759],[-43.00043,-25.17759],[-43.00043,-25.17499],[-43.00043,-25.17238],[-43.00043,-25.16978],[-43.00043,-25.16717],[-43.00303,-25.16717],[-43.00564,-25.16717],[-43.00824,-25.16717],[-43.01084,-25.16717],[-43.01345,-25.16717],[-43.01605,-25.16717],[-43.01866,-25.16717],[-43.02126,-25.16717],[-43.02387,-25.16717],[-43.02647,-25.16717],[-43.02907,-25.16717],[-43.03168,-25.16717],[-43.03168,-25.16457],[-43.03168,-25.16197],[-43.03168,-25.15936],[-43.03168,-25.15676],[-43.03428,-25.15676],[-43.03689,-25.15676],[-43.03949,-25.15676],[-43.04209,-25.15676],[-43.04209,-25.15415],[-43.04209,-25.15155],[-43.04209,-25.14894],[-43.04209,-25.14634],[-43.04209,-25.14374],[-43.04209,-25.14113],[-43.04209,-25.13853],[-43.04209,-25.13592],[-43.04209,-25.13332],[-43.04209,-25.13072],[-43.04209,-25.12811],[-43.04209,-25.12551],[-43.04209,-25.1229],[-43.04209,-25.1203],[-43.04209,-25.11769],[-43.04209,-25.11509],[-43.03949,-25.11509],[-43.03689,-25.11509],[-43.03428,-25.11509],[-43.03168,-25.11509],[-43.02907,-25.11509],[-43.02647,-25.11509],[-43.02387,-25.11509],[-43.02126,-25.11509],[-43.02126,-25.11249],[-43.02126,-25.10988],[-43.02126,-25.10728],[-43.02126,-25.10467],[-43.02126,-25.10207],[-43.02126,-25.09947],[-43.02126,-25.09686],[-43.02126,-25.09426],[-43.02126,-25.09165],[-43.02126,-25.08905],[-43.02126,-25.08644],[-43.02126,-25.08384],[-43.01866,-25.08384],[-43.01605,-25.08384],[-43.01345,-25.08384],[-43.01084,-25.08384],[-43.00824,-25.08384],[-43.00564,-25.08384],[-43.00303,-25.08384],[-43.00043,-25.08384],[-42.99782,-25.08384],[-42.99522,-25.08384],[-42.99261,-25.08384],[-42.99001,-25.08384],[-42.99001,-25.08644],[-42.99001,-25.08905],[-42.99001,-25.09165],[-42.99001,-25.09426],[-42.99001,-25.09686],[-42.99001,-25.09947],[-42.98741,-25.09947],[-42.9848,-25.09947],[-42.9822,-25.09947],[-42.97959,-25.09947],[-42.97959,-25.10207],[-42.97959,-25.10467],[-42.97959,-25.10728],[-42.97959,-25.10988],[-42.97959,-25.11249],[-42.97959,-25.11509],[-42.97699,-25.11509],[-42.97439,-25.11509],[-42.97178,-25.11509],[-42.96918,-25.11509],[-42.96918,-25.11249],[-42.96918,-25.10988],[-42.96918,-25.10728],[-42.96918,-25.10467],[-42.96657,-25.10467],[-42.96397,-25.10467],[-42.96136,-25.10467],[-42.95876,-25.10467],[-42.95876,-25.10207],[-42.95876,-25.09947],[-42.95876,-25.09686],[-42.95876,-25.09426],[-42.95876,-25.09165],[-42.95876,-25.08905],[-42.95876,-25.08644],[-42.95876,-25.08384],[-42.95616,-25.08384],[-42.95355,-25.08384],[-42.95095,-25.08384],[-42.94834,-25.08384],[-42.94574,-25.08384],[-42.94314,-25.08384],[-42.94053,-25.08384],[-42.93793,-25.08384],[-42.93532,-25.08384],[-42.93272,-25.08384],[-42.93011,-25.08384],[-42.92751,-25.08384],[-42.92491,-25.08384],[-42.9223,-25.08384],[-42.9197,-25.08384],[-42.91709,-25.08384],[-42.91449,-25.08384],[-42.91188,-25.08384],[-42.90928,-25.08384],[-42.90668,-25.08384],[-42.90668,-25.08644],[-42.90668,-25.08905],[-42.90668,-25.09165],[-42.90668,-25.09426],[-42.90407,-25.09426],[-42.90147,-25.09426],[-42.89886,-25.09426],[-42.89626,-25.09426],[-42.89626,-25.09686],[-42.89626,-25.09947],[-42.89626,-25.10207],[-42.89626,-25.10467],[-42.89626,-25.10467]]]}},{"type":"Feature","properties":{"nome":"WAHOO","bacia":"Campos","operador":"Prio Forte S.A.","rodada":"Rodada 6","etapa":"Desenvolvimento","area_km2":276.0},"geometry":{"type":"Polygon","coordinates":[[[-39.79167,-21.74219],[-39.79167,-21.72396],[-39.80208,-21.72396],[-39.80208,-21.70052],[-39.80729,-21.70052],[-39.80729,-21.65885],[-39.82552,-21.65885],[-39.82552,-21.64062],[-39.83333,-21.64062],[-39.83333,-21.625],[-39.85938,-21.625],[-39.85938,-21.66667],[-39.875,-21.66667],[-39.875,-21.67448],[-39.88542,-21.67448],[-39.88542,-21.73438],[-39.97396,-21.73438],[-39.97396,-21.65104],[-39.95833,-21.65104],[-39.95833,-21.64062],[-39.9349,-21.64062],[-39.9349,-21.61719],[-39.90885,-21.61719],[-39.90885,-21.60156],[-39.90104,-21.60156],[-39.90104,-21.55729],[-39.85156,-21.55729],[-39.85156,-21.56771],[-39.83333,-21.56771],[-39.83333,-21.55208],[-39.78385,-21.55208],[-39.78385,-21.625],[-39.77604,-21.625],[-39.77604,-21.63542],[-39.76823,-21.63542],[-39.76823,-21.6849],[-39.75781,-21.6849],[-39.75781,-21.71875],[-39.75039,-21.71875],[-39.75039,-21.72135],[-39.75039,-21.72396],[-39.75039,-21.72656],[-39.75039,-21.72917],[-39.75039,-21.73177],[-39.75039,-21.73438],[-39.75039,-21.73698],[-39.75039,-21.73958],[-39.75039,-21.74219],[-39.79167,-21.74219],[-39.79167,-21.74219]]]}},{"type":"Feature","properties":{"nome":"JUBARTE","bacia":"Campos","operador":"Petróleo Brasileiro S.A. - PETROBRAS","rodada":"Rodada 0","etapa":"Produção","area_km2":398.0},"geometry":{"type":"Polygon","coordinates":[[[-39.94531,-21.30469],[-39.95573,-21.30469],[-39.95573,-21.31771],[-39.97135,-21.31771],[-39.97135,-21.34635],[-39.98177,-21.34635],[-39.98177,-21.39844],[-39.98698,-21.39844],[-39.98698,-21.40885],[-39.99479,-21.40885],[-39.99479,-21.43229],[-40.00521,-21.43229],[-40.00521,-21.4349],[-40.01302,-21.4349],[-40.01302,-21.44531],[-40.01562,-21.44531],[-40.01562,-21.45052],[-40.02604,-21.45052],[-40.02604,-21.45883],[-40.02865,-21.45883],[-40.03125,-21.45883],[-40.03385,-21.45883],[-40.03685,-21.45883],[-40.03685,-21.46143],[-40.03685,-21.46404],[-40.03685,-21.46664],[-40.03685,-21.46925],[-40.03685,-21.47185],[-40.03685,-21.47445],[-40.03685,-21.47706],[-40.03685,-21.47966],[-40.03685,-21.48227],[-40.03685,-21.48487],[-40.03685,-21.48748],[-40.03685,-21.49008],[-40.03685,-21.49268],[-40.03685,-21.49529],[-40.03685,-21.49789],[-40.03685,-21.5005],[-40.03945,-21.5005],[-40.04206,-21.5005],[-40.04466,-21.5005],[-40.04726,-21.5005],[-40.04987,-21.5005],[-40.05247,-21.5005],[-40.05508,-21.5005],[-40.05768,-21.5005],[-40.06029,-21.5005],[-40.06289,-21.5005],[-40.06549,-21.5005],[-40.0681,-21.5005],[-40.0707,-21.5005],[-40.07331,-21.5005],[-40.07591,-21.5005],[-40.07851,-21.5005],[-40.08112,-21.5005],[-40.08372,-21.5005],[-40.08633,-21.5005],[-40.08893,-21.5005],[-40.09154,-21.5005],[-40.09414,-21.5005],[-40.09674,-21.5005],[-40.09935,-21.5005],[-40.10195,-21.5005],[-40.10456,-21.5005],[-40.10716,-21.5005],[-40.10977,-21.5005],[-40.11237,-21.5005],[-40.11497,-21.5005],[-40.11758,-21.5005],[-40.12018,-21.5005],[-40.12279,-21.5005],[-40.12539,-21.5005],[-40.12539,-21.49789],[-40.12539,-21.49529],[-40.12539,-21.49268],[-40.12539,-21.49008],[-40.12539,-21.48748],[-40.12539,-21.48487],[-40.12539,-21.48227],[-40.12539,-21.47966],[-40.12539,-21.47706],[-40.12539,-21.47445],[-40.12539,-21.47185],[-40.12539,-21.46925],[-40.12539,-21.46664],[-40.12539,-21.46404],[-40.12539,-21.46143],[-40.12539,-21.45883],[-40.12539,-21.45623],[-40.12539,-21.45362],[-40.12539,-21.45102],[-40.12539,-21.44792],[-40.08594,-21.44792],[-40.08594,-21.40625],[-40.08333,-21.40625],[-40.08333,-21.39844],[-40.08073,-21.39844],[-40.08073,-21.39583],[-40.07812,-21.39583],[-40.07812,-21.39323],[-40.07552,-21.39323],[-40.07552,-21.38802],[-40.07292,-21.38802],[-40.07292,-21.3781],[-40.07031,-21.3781],[-40.06771,-21.3781],[-40.0651,-21.3781],[-40.0625,-21.3781],[-40.0599,-21.3781],[-40.05729,-21.3781],[-40.05469,-21.3781],[-40.05208,-21.3781],[-40.04987,-21.3781],[-40.04987,-21.3755],[-40.04987,-21.37289],[-40.04987,-21.37029],[-40.04987,-21.36768],[-40.04987,-21.36508],[-40.04987,-21.36247],[-40.04987,-21.35987],[-40.04987,-21.35727],[-40.04987,-21.35466],[-40.04987,-21.35206],[-40.04987,-21.34945],[-40.04987,-21.34685],[-40.04987,-21.34425],[-40.04987,-21.34164],[-40.04987,-21.33904],[-40.04987,-21.33643],[-40.04987,-21.33383],[-40.04987,-21.33122],[-40.04987,-21.32862],[-40.04987,-21.32602],[-40.04987,-21.32341],[-40.04987,-21.32081],[-40.04987,-21.3182],[-40.04987,-21.3156],[-40.04987,-21.313],[-40.04987,-21.31039],[-40.04987,-21.30779],[-40.04987,-21.30518],[-40.05247,-21.30518],[-40.05508,-21.30518],[-40.05768,-21.30518],[-40.06028,-21.30518],[-40.06289,-21.30518],[-40.06549,-21.30518],[-40.0681,-21.30518],[-40.0707,-21.30518],[-40.07331,-21.30518],[-40.07591,-21.30518],[-40.07851,-21.30518],[-40.08112,-21.30518],[-40.08372,-21.30518],[-40.08633,-21.30518],[-40.08893,-21.30518],[-40.09154,-21.30518],[-40.09154,-21.30258],[-40.09154,-21.29997],[-40.09154,-21.29737],[-40.09154,-21.29477],[-40.09154,-21.29216],[-40.09154,-21.28956],[-40.09154,-21.28695],[-40.09154,-21.28435],[-40.09154,-21.28175],[-40.09154,-21.27914],[-40.09154,-21.27654],[-40.09154,-21.27393],[-40.09154,-21.27133],[-40.09154,-21.26872],[-40.09154,-21.26612],[-40.09154,-21.26352],[-40.09154,-21.26091],[-40.09154,-21.25831],[-40.09154,-21.2557],[-40.09154,-21.2531],[-40.09154,-21.25049],[-40.09154,-21.24789],[-40.09154,-21.24529],[-40.09154,-21.24268],[-40.09154,-21.24008],[-40.09154,-21.23747],[-40.09154,-21.23487],[-40.09154,-21.23227],[-40.09154,-21.22966],[-40.08893,-21.22966],[-40.08633,-21.22966],[-40.08372,-21.22966],[-40.08112,-21.22966],[-40.07851,-21.22966],[-40.07591,-21.22966],[-40.07331,-21.22966],[-40.0707,-21.22966],[-40.0681,-21.22966],[-40.06549,-21.22966],[-40.06289,-21.22966],[-40.06289,-21.22706],[-40.06289,-21.22445],[-40.06289,-21.22185],[-40.06289,-21.21924],[-40.06289,-21.21664],[-40.06289,-21.21404],[-40.06289,-21.21143],[-40.06289,-21.20883],[-40.06289,-21.20622],[-40.06289,-21.20362],[-40.06028,-21.20362],[-40.05768,-21.20362],[-40.05508,-21.20362],[-40.05247,-21.20362],[-40.04987,-21.20362],[-40.04726,-21.20362],[-40.04466,-21.20362],[-40.04206,-21.20362],[-40.03945,-21.20362],[-40.03685,-21.20362],[-40.03424,-21.20362],[-40.03164,-21.20362],[-40.02903,-21.20362],[-40.02643,-21.20362],[-40.02383,-21.20362],[-40.02383,-21.20102],[-40.02643,-21.20102],[-40.02903,-21.20102],[-40.03164,-21.20102],[-40.03164,-21.19841],[-40.03424,-21.19841],[-40.03685,-21.19841],[-40.03945,-21.19841],[-40.03945,-21.19581],[-40.03945,-21.1932],[-40.04206,-21.1932],[-40.04466,-21.1932],[-40.04466,-21.1906],[-40.04466,-21.18799],[-40.04466,-21.18539],[-40.04466,-21.18279],[-40.04206,-21.18279],[-40.03945,-21.18279],[-40.03685,-21.18279],[-40.03424,-21.18279],[-40.03164,-21.18279],[-40.02865,-21.18279],[-40.02865,-21.17448],[-40.02344,-21.17448],[-40.02344,-21.17188],[-40.02083,-21.17188],[-40.02083,-21.16927],[-39.93789,-21.16927],[-39.93789,-21.17188],[-39.93789,-21.17448],[-39.93789,-21.17708],[-39.93789,-21.17969],[-39.93789,-21.18229],[-39.93789,-21.1849],[-39.93789,-21.1875],[-39.93789,-21.1901],[-39.93789,-21.19271],[-39.93789,-21.19531],[-39.93789,-21.19792],[-39.93789,-21.20052],[-39.93789,-21.20312],[-39.93789,-21.20573],[-39.93789,-21.20833],[-39.93789,-21.21094],[-39.93789,-21.21354],[-39.93789,-21.21615],[-39.93789,-21.21875],[-39.93789,-21.22135],[-39.93789,-21.22396],[-39.93789,-21.22656],[-39.93789,-21.22917],[-39.93789,-21.23177],[-39.93789,-21.23438],[-39.93789,-21.23698],[-39.93789,-21.23958],[-39.93789,-21.24219],[-39.93789,-21.24479],[-39.93789,-21.2474],[-39.93789,-21.25],[-39.93789,-21.2526],[-39.93789,-21.25521],[-39.93789,-21.25781],[-39.93789,-21.26042],[-39.93789,-21.26302],[-39.93789,-21.26562],[-39.93789,-21.26823],[-39.93789,-21.27083],[-39.93789,-21.27344],[-39.93789,-21.27604],[-39.93789,-21.27865],[-39.93789,-21.28125],[-39.93789,-21.28385],[-39.93789,-21.28646],[-39.93789,-21.28906],[-39.93789,-21.29167],[-39.93789,-21.29427],[-39.94531,-21.29427],[-39.94531,-21.30469]]]}},{"type":"Feature","properties":{"nome":"LAPA","bacia":"Santos","operador":"TotalEnergies EP Brasil Ltda.","rodada":"Rodada 2","etapa":"Produção","area_km2":229.0},"geometry":{"type":"Polygon","coordinates":[[[-43.53689,-25.5552],[-43.53689,-25.55259],[-43.53689,-25.54999],[-43.53689,-25.54738],[-43.53689,-25.54478],[-43.53689,-25.54217],[-43.53689,-25.53957],[-43.53689,-25.53697],[-43.53429,-25.53697],[-43.53168,-25.53697],[-43.52908,-25.53697],[-43.52648,-25.53697],[-43.52387,-25.53697],[-43.52127,-25.53697],[-43.52127,-25.53436],[-43.52127,-25.53176],[-43.52127,-25.52915],[-43.52127,-25.52655],[-43.52127,-25.52395],[-43.52127,-25.52134],[-43.52127,-25.51874],[-43.52127,-25.51613],[-43.52127,-25.51353],[-43.51866,-25.51353],[-43.51606,-25.51353],[-43.51345,-25.51353],[-43.51085,-25.51353],[-43.50825,-25.51353],[-43.50825,-25.51092],[-43.50825,-25.50832],[-43.50825,-25.50572],[-43.50825,-25.50311],[-43.50825,-25.50051],[-43.50564,-25.50051],[-43.50304,-25.50051],[-43.50043,-25.50051],[-43.50043,-25.4979],[-43.50043,-25.4953],[-43.50043,-25.49269],[-43.50043,-25.49009],[-43.50043,-25.48749],[-43.50043,-25.48488],[-43.50043,-25.48228],[-43.50043,-25.47967],[-43.50043,-25.47707],[-43.50043,-25.47447],[-43.50043,-25.47186],[-43.50043,-25.46926],[-43.50043,-25.46665],[-43.50043,-25.46405],[-43.50043,-25.46144],[-43.50043,-25.45884],[-43.49783,-25.45884],[-43.49522,-25.45884],[-43.49262,-25.45884],[-43.49002,-25.45884],[-43.48741,-25.45884],[-43.48481,-25.45884],[-43.4822,-25.45884],[-43.4796,-25.45884],[-43.4796,-25.46144],[-43.4796,-25.46405],[-43.477,-25.46405],[-43.47439,-25.46405],[-43.47179,-25.46405],[-43.46918,-25.46405],[-43.46658,-25.46405],[-43.46397,-25.46405],[-43.46137,-25.46405],[-43.45877,-25.46405],[-43.45616,-25.46405],[-43.45356,-25.46405],[-43.45095,-25.46405],[-43.44835,-25.46405],[-43.44575,-25.46405],[-43.44314,-25.46405],[-43.44054,-25.46405],[-43.43793,-25.46405],[-43.43533,-25.46405],[-43.43272,-25.46405],[-43.43012,-25.46405],[-43.42752,-25.46405],[-43.42491,-25.46405],[-43.42231,-25.46405],[-43.4197,-25.46405],[-43.4171,-25.46405],[-43.41449,-25.46405],[-43.41189,-25.46405],[-43.40929,-25.46405],[-43.40668,-25.46405],[-43.40408,-25.46405],[-43.40147,-25.46405],[-43.39887,-25.46405],[-43.39887,-25.46665],[-43.39887,-25.46926],[-43.39887,-25.47186],[-43.39887,-25.47447],[-43.39887,-25.47707],[-43.39887,-25.47967],[-43.39887,-25.48228],[-43.39887,-25.48488],[-43.39887,-25.48749],[-43.39887,-25.49009],[-43.39887,-25.4927],[-43.39887,-25.4953],[-43.39887,-25.4979],[-43.39887,-25.50051],[-43.39887,-25.50311],[-43.40147,-25.50311],[-43.40408,-25.50311],[-43.40668,-25.50311],[-43.40929,-25.50311],[-43.40929,-25.50572],[-43.40929,-25.50832],[-43.40929,-25.51092],[-43.40929,-25.51353],[-43.40929,-25.51613],[-43.41189,-25.51613],[-43.41449,-25.51613],[-43.41449,-25.51874],[-43.41449,-25.52134],[-43.41449,-25.52395],[-43.41449,-25.52655],[-43.41449,-25.52915],[-43.41449,-25.53176],[-43.41449,-25.53436],[-43.41449,-25.53697],[-43.4145,-25.53957],[-43.4145,-25.54217],[-43.4171,-25.54217],[-43.4197,-25.54217],[-43.42231,-25.54217],[-43.42491,-25.54217],[-43.42491,-25.54478],[-43.42491,-25.54738],[-43.42491,-25.54999],[-43.42752,-25.54999],[-43.43012,-25.54999],[-43.43272,-25.54999],[-43.43272,-25.55259],[-43.43272,-25.5552],[-43.43272,-25.5578],[-43.43272,-25.5604],[-43.43272,-25.56301],[-43.43272,-25.56561],[-43.43533,-25.56561],[-43.43793,-25.56561],[-43.43793,-25.56822],[-43.43793,-25.57082],[-43.44054,-25.57082],[-43.44314,-25.57082],[-43.44314,-25.57342],[-43.44314,-25.57603],[-43.44314,-25.57863],[-43.44314,-25.58124],[-43.44314,-25.58384],[-43.44314,-25.58645],[-43.44314,-25.58905],[-43.44314,-25.59165],[-43.44314,-25.59426],[-43.44314,-25.59686],[-43.44314,-25.59947],[-43.44314,-25.60207],[-43.44314,-25.60467],[-43.44314,-25.60728],[-43.44314,-25.60988],[-43.44314,-25.61249],[-43.44314,-25.61509],[-43.44314,-25.6177],[-43.44314,-25.6203],[-43.44314,-25.6229],[-43.44314,-25.62551],[-43.44314,-25.62811],[-43.44314,-25.63072],[-43.44314,-25.63332],[-43.44575,-25.63332],[-43.44835,-25.63332],[-43.45095,-25.63332],[-43.45356,-25.63332],[-43.45616,-25.63332],[-43.45877,-25.63332],[-43.46137,-25.63332],[-43.46397,-25.63332],[-43.46658,-25.63332],[-43.46918,-25.63332],[-43.47179,-25.63332],[-43.47439,-25.63332],[-43.477,-25.63332],[-43.4796,-25.63332],[-43.4822,-25.63332],[-43.48481,-25.63332],[-43.48741,-25.63332],[-43.49002,-25.63332],[-43.49262,-25.63332],[-43.49262,-25.63592],[-43.49262,-25.63853],[-43.49262,-25.64113],[-43.49262,-25.64374],[-43.49262,-25.64634],[-43.49262,-25.64895],[-43.49262,-25.65155],[-43.49262,-25.65415],[-43.49262,-25.65676],[-43.49262,-25.65936],[-43.49262,-25.66197],[-43.49262,-25.66457],[-43.49262,-25.66717],[-43.49262,-25.66978],[-43.49262,-25.67238],[-43.49262,-25.67499],[-43.49523,-25.67499],[-43.49783,-25.67499],[-43.50043,-25.67499],[-43.50304,-25.67499],[-43.50564,-25.67499],[-43.50825,-25.67499],[-43.51085,-25.67499],[-43.51345,-25.67499],[-43.51606,-25.67499],[-43.51866,-25.67499],[-43.52127,-25.67499],[-43.52387,-25.67499],[-43.52648,-25.67499],[-43.52908,-25.67499],[-43.53168,-25.67499],[-43.53429,-25.67499],[-43.53429,-25.67238],[-43.53429,-25.66978],[-43.53429,-25.66717],[-43.53429,-25.66457],[-43.53689,-25.66457],[-43.5395,-25.66457],[-43.5421,-25.66457],[-43.5447,-25.66457],[-43.54731,-25.66457],[-43.54991,-25.66457],[-43.54991,-25.66197],[-43.54991,-25.65936],[-43.54991,-25.65676],[-43.54991,-25.65415],[-43.54991,-25.65155],[-43.54991,-25.64895],[-43.54991,-25.64634],[-43.54991,-25.64374],[-43.55252,-25.64374],[-43.55512,-25.64374],[-43.55773,-25.64374],[-43.56033,-25.64374],[-43.56033,-25.64113],[-43.56033,-25.63853],[-43.56033,-25.63592],[-43.56033,-25.63332],[-43.56033,-25.63072],[-43.56033,-25.62811],[-43.56033,-25.62551],[-43.56033,-25.6229],[-43.56033,-25.6203],[-43.56033,-25.6177],[-43.56033,-25.61509],[-43.55773,-25.61509],[-43.55512,-25.61509],[-43.55512,-25.61249],[-43.55512,-25.60988],[-43.55512,-25.60728],[-43.55512,-25.60467],[-43.55512,-25.60207],[-43.55512,-25.59947],[-43.55252,-25.59947],[-43.54991,-25.59947],[-43.54991,-25.59686],[-43.54991,-25.59426],[-43.54991,-25.59165],[-43.54991,-25.58905],[-43.54991,-25.58645],[-43.54991,-25.58384],[-43.54991,-25.58124],[-43.54731,-25.58124],[-43.5447,-25.58124],[-43.5421,-25.58124],[-43.5421,-25.57863],[-43.5421,-25.57603],[-43.5421,-25.57342],[-43.5421,-25.57082],[-43.5421,-25.56822],[-43.5421,-25.56561],[-43.5421,-25.56301],[-43.5421,-25.5604],[-43.5421,-25.5578],[-43.5421,-25.5552],[-43.5395,-25.5552],[-43.53689,-25.5552],[-43.53689,-25.5552]]]}},{"type":"Feature","properties":{"nome":"MERO","bacia":"Santos","operador":"Petróleo Brasileiro S.A. - PETROBRAS","rodada":"Rodada 1 (PP)","etapa":"Produção","area_km2":316.0},"geometry":{"type":"Polygon","coordinates":[[[-42.15104,-24.50781],[-42.15104,-24.51042],[-42.13542,-24.51042],[-42.13542,-24.51562],[-42.125,-24.51562],[-42.125,-24.57031],[-42.11719,-24.57031],[-42.11719,-24.63021],[-42.17969,-24.63021],[-42.17969,-24.65365],[-42.1875,-24.65365],[-42.1875,-24.66146],[-42.19271,-24.66146],[-42.19271,-24.69531],[-42.22396,-24.69531],[-42.22396,-24.73958],[-42.25042,-24.73958],[-42.25042,-24.73698],[-42.25042,-24.73438],[-42.25042,-24.73177],[-42.25042,-24.72917],[-42.25042,-24.72656],[-42.25042,-24.72396],[-42.25042,-24.72135],[-42.25042,-24.71875],[-42.25042,-24.71615],[-42.25042,-24.71354],[-42.25042,-24.71094],[-42.25042,-24.70884],[-42.25302,-24.70884],[-42.25563,-24.70884],[-42.25823,-24.70884],[-42.26084,-24.70884],[-42.26344,-24.70884],[-42.26604,-24.70884],[-42.26865,-24.70884],[-42.27125,-24.70884],[-42.27386,-24.70884],[-42.27646,-24.70884],[-42.27907,-24.70884],[-42.28167,-24.70884],[-42.28427,-24.70884],[-42.28688,-24.70884],[-42.28948,-24.70884],[-42.29209,-24.70884],[-42.29469,-24.70884],[-42.29729,-24.70884],[-42.2999,-24.70884],[-42.3025,-24.70884],[-42.30511,-24.70884],[-42.30771,-24.70884],[-42.31032,-24.70884],[-42.31292,-24.70884],[-42.31292,-24.70624],[-42.31292,-24.70363],[-42.31292,-24.70103],[-42.31292,-24.69842],[-42.31292,-24.69582],[-42.31292,-24.69322],[-42.31292,-24.69061],[-42.31292,-24.68801],[-42.31292,-24.6854],[-42.31292,-24.6828],[-42.31292,-24.68019],[-42.31292,-24.67759],[-42.31292,-24.67499],[-42.31292,-24.67238],[-42.31292,-24.66978],[-42.31292,-24.66717],[-42.3151,-24.66717],[-42.3151,-24.65625],[-42.30469,-24.65625],[-42.30469,-24.63802],[-42.32031,-24.63802],[-42.32031,-24.59635],[-42.28125,-24.59635],[-42.28125,-24.58854],[-42.27344,-24.58854],[-42.27344,-24.57812],[-42.27604,-24.57812],[-42.27604,-24.57031],[-42.28385,-24.57031],[-42.28385,-24.54167],[-42.27083,-24.54167],[-42.27083,-24.53906],[-42.23698,-24.53906],[-42.23698,-24.54427],[-42.22656,-24.54427],[-42.22656,-24.54948],[-42.21094,-24.54948],[-42.21094,-24.55469],[-42.19271,-24.55469],[-42.19271,-24.53125],[-42.20052,-24.53125],[-42.20052,-24.50781],[-42.20573,-24.50781],[-42.20573,-24.50051],[-42.20312,-24.50051],[-42.20052,-24.50051],[-42.19792,-24.50051],[-42.19531,-24.50051],[-42.19271,-24.50051],[-42.1901,-24.50051],[-42.1875,-24.50051],[-42.1849,-24.50051],[-42.18229,-24.50051],[-42.17969,-24.50051],[-42.17708,-24.50051],[-42.17448,-24.50051],[-42.17188,-24.50051],[-42.16927,-24.50051],[-42.16667,-24.50051],[-42.16406,-24.50051],[-42.16146,-24.50051],[-42.15885,-24.50051],[-42.15625,-24.50051],[-42.15365,-24.50051],[-42.15365,-24.50781],[-42.15104,-24.50781],[-42.15104,-24.50781]]]}},{"type":"Feature","properties":{"nome":"SAPINHOÁ","bacia":"Santos","operador":"Petróleo Brasileiro S.A. - PETROBRAS","rodada":"Rodada 2","etapa":"Produção","area_km2":233.0},"geometry":{"type":"Polygon","coordinates":[[[-43.12543,-25.74009],[-43.12803,-25.74009],[-43.13064,-25.74009],[-43.13324,-25.74009],[-43.13585,-25.74009],[-43.13845,-25.74009],[-43.14106,-25.74009],[-43.14366,-25.74009],[-43.14626,-25.74009],[-43.14626,-25.7427],[-43.14626,-25.7453],[-43.14626,-25.74791],[-43.14626,-25.75051],[-43.14626,-25.75311],[-43.14626,-25.75572],[-43.14626,-25.75832],[-43.14626,-25.76093],[-43.14887,-25.76093],[-43.15147,-25.76093],[-43.15408,-25.76093],[-43.15668,-25.76093],[-43.15668,-25.76353],[-43.15668,-25.76613],[-43.15668,-25.76874],[-43.15668,-25.77134],[-43.15929,-25.77134],[-43.16189,-25.77134],[-43.16449,-25.77134],[-43.1671,-25.77134],[-43.1671,-25.77395],[-43.1671,-25.77655],[-43.1671,-25.77916],[-43.1671,-25.78176],[-43.1671,-25.78436],[-43.1671,-25.78697],[-43.1671,-25.78957],[-43.1671,-25.79218],[-43.1697,-25.79218],[-43.17231,-25.79218],[-43.17491,-25.79218],[-43.17751,-25.79218],[-43.18012,-25.79218],[-43.18272,-25.79218],[-43.18533,-25.79218],[-43.18793,-25.79218],[-43.18793,-25.79478],[-43.18793,-25.79738],[-43.18793,-25.79999],[-43.18793,-25.80259],[-43.18793,-25.8052],[-43.18793,-25.8078],[-43.18793,-25.81041],[-43.18793,-25.81301],[-43.18793,-25.81561],[-43.18793,-25.81822],[-43.18793,-25.82082],[-43.18793,-25.82343],[-43.18793,-25.82603],[-43.18793,-25.82863],[-43.18793,-25.83124],[-43.18793,-25.83384],[-43.18793,-25.83645],[-43.18793,-25.83905],[-43.18793,-25.84166],[-43.18793,-25.84426],[-43.18793,-25.84686],[-43.18793,-25.84947],[-43.18793,-25.85207],[-43.18793,-25.85468],[-43.18793,-25.85728],[-43.18793,-25.85989],[-43.18793,-25.86249],[-43.18793,-25.86509],[-43.18793,-25.8677],[-43.18793,-25.8703],[-43.18793,-25.87291],[-43.18793,-25.87551],[-43.18793,-25.87811],[-43.18793,-25.88072],[-43.18793,-25.88332],[-43.18793,-25.88593],[-43.18793,-25.88853],[-43.18793,-25.89114],[-43.18793,-25.89374],[-43.18793,-25.89634],[-43.18793,-25.89895],[-43.18793,-25.90155],[-43.18793,-25.90416],[-43.18793,-25.90676],[-43.18793,-25.90936],[-43.18793,-25.91197],[-43.18793,-25.91457],[-43.18793,-25.91718],[-43.19054,-25.91718],[-43.19314,-25.91718],[-43.19574,-25.91718],[-43.19835,-25.91718],[-43.20095,-25.91718],[-43.20356,-25.91718],[-43.20616,-25.91718],[-43.20877,-25.91718],[-43.21137,-25.91718],[-43.21397,-25.91718],[-43.21658,-25.91718],[-43.21918,-25.91718],[-43.22179,-25.91718],[-43.22439,-25.91718],[-43.22699,-25.91718],[-43.2296,-25.91718],[-43.2322,-25.91718],[-43.23481,-25.91718],[-43.23741,-25.91718],[-43.24002,-25.91718],[-43.24262,-25.91718],[-43.24522,-25.91718],[-43.24783,-25.91718],[-43.25043,-25.91718],[-43.25043,-25.91457],[-43.25043,-25.91197],[-43.25043,-25.90936],[-43.25043,-25.90676],[-43.25043,-25.90416],[-43.25043,-25.90155],[-43.25043,-25.89895],[-43.25043,-25.89634],[-43.25043,-25.89374],[-43.25043,-25.89113],[-43.25043,-25.88853],[-43.25043,-25.88593],[-43.25043,-25.88332],[-43.25043,-25.88072],[-43.25043,-25.87811],[-43.25043,-25.87551],[-43.25043,-25.87291],[-43.25043,-25.8703],[-43.25043,-25.8677],[-43.25043,-25.86509],[-43.25043,-25.86249],[-43.25043,-25.85988],[-43.25043,-25.85728],[-43.25043,-25.85468],[-43.25043,-25.85207],[-43.25043,-25.84947],[-43.25043,-25.84686],[-43.25043,-25.84426],[-43.25043,-25.84166],[-43.25043,-25.83905],[-43.25043,-25.83645],[-43.25043,-25.83384],[-43.25043,-25.83124],[-43.25043,-25.82863],[-43.25043,-25.82603],[-43.25043,-25.82343],[-43.25043,-25.82082],[-43.25043,-25.81822],[-43.25043,-25.81561],[-43.25043,-25.81301],[-43.25043,-25.81041],[-43.25043,-25.8078],[-43.25043,-25.8052],[-43.25043,-25.80259],[-43.25043,-25.79999],[-43.25043,-25.79738],[-43.25043,-25.79478],[-43.25043,-25.79218],[-43.25043,-25.78957],[-43.25043,-25.78697],[-43.25043,-25.78436],[-43.25043,-25.78176],[-43.25043,-25.77916],[-43.25043,-25.77655],[-43.25043,-25.77395],[-43.25043,-25.77134],[-43.25043,-25.76874],[-43.25043,-25.76613],[-43.25043,-25.76353],[-43.25043,-25.76093],[-43.24783,-25.76093],[-43.24522,-25.76093],[-43.24262,-25.76093],[-43.24002,-25.76093],[-43.24002,-25.75832],[-43.24002,-25.75572],[-43.24002,-25.75311],[-43.24002,-25.75051],[-43.24002,-25.74791],[-43.24002,-25.7453],[-43.24002,-25.7427],[-43.24001,-25.74009],[-43.23741,-25.74009],[-43.23481,-25.74009],[-43.2322,-25.74009],[-43.2296,-25.74009],[-43.2296,-25.73749],[-43.2296,-25.73488],[-43.2296,-25.73228],[-43.2296,-25.72968],[-43.2296,-25.72707],[-43.2296,-25.72447],[-43.2296,-25.72186],[-43.2296,-25.71926],[-43.2296,-25.71666],[-43.2296,-25.71405],[-43.2296,-25.71145],[-43.2296,-25.70884],[-43.22699,-25.70884],[-43.22439,-25.70884],[-43.22179,-25.70884],[-43.21918,-25.70884],[-43.21658,-25.70884],[-43.21397,-25.70884],[-43.21137,-25.70884],[-43.20876,-25.70884],[-43.20616,-25.70884],[-43.20356,-25.70884],[-43.20095,-25.70884],[-43.19835,-25.70884],[-43.19574,-25.70884],[-43.19314,-25.70884],[-43.19054,-25.70884],[-43.18793,-25.70884],[-43.18793,-25.70624],[-43.18793,-25.70363],[-43.18793,-25.70103],[-43.18793,-25.69843],[-43.18793,-25.69582],[-43.18793,-25.69322],[-43.18793,-25.69061],[-43.18793,-25.68801],[-43.18793,-25.68541],[-43.18793,-25.6828],[-43.18793,-25.6802],[-43.18793,-25.67759],[-43.18793,-25.67499],[-43.18793,-25.67238],[-43.18793,-25.66978],[-43.18793,-25.66718],[-43.18793,-25.66457],[-43.18793,-25.66197],[-43.18793,-25.65936],[-43.18793,-25.65676],[-43.18793,-25.65415],[-43.18793,-25.65155],[-43.18793,-25.64895],[-43.18793,-25.64634],[-43.18793,-25.64374],[-43.18793,-25.64113],[-43.18793,-25.63853],[-43.18793,-25.63593],[-43.18793,-25.63332],[-43.18793,-25.63072],[-43.18793,-25.62811],[-43.18793,-25.62551],[-43.18533,-25.62551],[-43.18272,-25.62551],[-43.18012,-25.62551],[-43.17751,-25.62551],[-43.17491,-25.62551],[-43.17231,-25.62551],[-43.1697,-25.62551],[-43.1671,-25.62551],[-43.16449,-25.62551],[-43.16189,-25.62551],[-43.15928,-25.62551],[-43.15668,-25.62551],[-43.15408,-25.62551],[-43.15147,-25.62551],[-43.14887,-25.62551],[-43.14626,-25.62551],[-43.14366,-25.62551],[-43.14106,-25.62551],[-43.13845,-25.62551],[-43.13585,-25.62551],[-43.13324,-25.62551],[-43.13064,-25.62551],[-43.12803,-25.62551],[-43.12543,-25.62551],[-43.12543,-25.62811],[-43.12543,-25.63072],[-43.12543,-25.63332],[-43.12543,-25.63593],[-43.12543,-25.63853],[-43.12543,-25.64113],[-43.12543,-25.64374],[-43.12543,-25.64634],[-43.12543,-25.64895],[-43.12543,-25.65155],[-43.12543,-25.65416],[-43.12543,-25.65676],[-43.12543,-25.65936],[-43.12543,-25.66197],[-43.12543,-25.66457],[-43.12543,-25.66718],[-43.12543,-25.66978],[-43.12543,-25.67238],[-43.12543,-25.67499],[-43.12543,-25.67759],[-43.12543,-25.6802],[-43.12543,-25.6828],[-43.12543,-25.68541],[-43.12543,-25.68801],[-43.12543,-25.69061],[-43.12543,-25.69322],[-43.12543,-25.69582],[-43.12543,-25.69843],[-43.12543,-25.70103],[-43.12543,-25.70363],[-43.12543,-25.70624],[-43.12543,-25.70884],[-43.12543,-25.71145],[-43.12543,-25.71405],[-43.12543,-25.71666],[-43.12543,-25.71926],[-43.12543,-25.72186],[-43.12543,-25.72447],[-43.12543,-25.72707],[-43.12543,-25.72968],[-43.12543,-25.73228],[-43.12543,-25.73488],[-43.12543,-25.73749],[-43.12543,-25.74009],[-43.12543,-25.74009]]]}},{"type":"Feature","properties":{"nome":"RAIA","bacia":"Campos","operador":"Equinor Energy do Brasil  Ltda.","rodada":"Rodada 7","etapa":"Desenvolvimento","area_km2":609.0},"geometry":{"type":"Polygon","coordinates":[[[-40.00039,-23.4401],[-40.03385,-23.4401],[-40.03385,-23.45312],[-40.05469,-23.45312],[-40.05469,-23.46354],[-40.07031,-23.46354],[-40.07031,-23.47396],[-40.10417,-23.47396],[-40.10417,-23.46354],[-40.13802,-23.46354],[-40.13802,-23.45312],[-40.20052,-23.45312],[-40.20052,-23.50051],[-40.2504,-23.50051],[-40.2504,-23.25051],[-40.00039,-23.25051],[-40.00039,-23.4401]]]}},{"type":"Feature","properties":{"nome":"OESTE DE ATAPU","bacia":"Santos","operador":"Petróleo Brasileiro S.A. - PETROBRAS","rodada":"Rodada 2","etapa":"Produção","area_km2":31.0},"geometry":{"type":"Polygon","coordinates":[[[-42.50042,-24.91717],[-42.50042,-24.91978],[-42.50042,-24.92238],[-42.50042,-24.92499],[-42.50042,-24.92759],[-42.50042,-24.9302],[-42.50042,-24.9328],[-42.50042,-24.9354],[-42.50042,-24.93801],[-42.50042,-24.94061],[-42.50042,-24.94322],[-42.50042,-24.94582],[-42.50042,-24.94842],[-42.50042,-24.95103],[-42.50042,-24.95363],[-42.50042,-24.95624],[-42.50042,-24.95884],[-42.50042,-24.96145],[-42.50042,-24.96405],[-42.50042,-24.96665],[-42.50042,-24.96926],[-42.50042,-24.97186],[-42.50042,-24.97447],[-42.50042,-24.97707],[-42.50042,-24.97967],[-42.50042,-24.98228],[-42.50042,-24.98488],[-42.50042,-24.98749],[-42.50042,-24.99009],[-42.50042,-24.9927],[-42.50042,-24.9953],[-42.50042,-24.9979],[-42.50042,-25.00051],[-42.50042,-25.00311],[-42.50042,-25.00572],[-42.50303,-25.00572],[-42.50563,-25.00572],[-42.50823,-25.00572],[-42.51084,-25.00572],[-42.51344,-25.00572],[-42.51344,-25.00311],[-42.51344,-25.00051],[-42.51344,-24.9979],[-42.51344,-24.9953],[-42.51344,-24.9927],[-42.51344,-24.99009],[-42.51605,-24.99009],[-42.51865,-24.99009],[-42.52126,-24.99009],[-42.52126,-24.98749],[-42.52126,-24.98488],[-42.52126,-24.98228],[-42.52386,-24.98228],[-42.52646,-24.98228],[-42.52646,-24.97967],[-42.52646,-24.97707],[-42.52646,-24.97447],[-42.52907,-24.97447],[-42.53167,-24.97447],[-42.53167,-24.97186],[-42.53167,-24.96926],[-42.53167,-24.96665],[-42.53167,-24.96405],[-42.53167,-24.96145],[-42.53167,-24.95884],[-42.53167,-24.95624],[-42.53428,-24.95624],[-42.53428,-24.95363],[-42.53428,-24.95103],[-42.53688,-24.95103],[-42.53949,-24.95103],[-42.53949,-24.94842],[-42.53949,-24.94582],[-42.53949,-24.94322],[-42.53949,-24.94061],[-42.54209,-24.94061],[-42.54469,-24.94061],[-42.54469,-24.93801],[-42.54469,-24.9354],[-42.54469,-24.9328],[-42.54469,-24.9302],[-42.54469,-24.92759],[-42.54469,-24.92499],[-42.5473,-24.92499],[-42.5499,-24.92499],[-42.5499,-24.92238],[-42.5499,-24.91978],[-42.5499,-24.91717],[-42.5473,-24.91717],[-42.54469,-24.91717],[-42.54209,-24.91717],[-42.53948,-24.91717],[-42.53688,-24.91717],[-42.53428,-24.91717],[-42.53167,-24.91717],[-42.52907,-24.91717],[-42.52646,-24.91717],[-42.52386,-24.91717],[-42.52126,-24.91717],[-42.51865,-24.91717],[-42.51605,-24.91717],[-42.51344,-24.91717],[-42.51084,-24.91717],[-42.50823,-24.91717],[-42.50563,-24.91717],[-42.50303,-24.91717],[-42.50042,-24.91717],[-42.50042,-24.91717]]]}},{"type":"Feature","properties":{"nome":"SUL DE TUPI","bacia":"Santos","operador":"Petróleo Brasileiro S.A. - PETROBRAS","rodada":"Cessão Onerosa","etapa":"Produção","area_km2":99.0},"geometry":{"type":"Polygon","coordinates":[[[-42.75824,-25.65416],[-42.76084,-25.65416],[-42.76345,-25.65416],[-42.76605,-25.65416],[-42.76866,-25.65416],[-42.77126,-25.65416],[-42.77126,-25.65676],[-42.77126,-25.65936],[-42.77126,-25.66197],[-42.77126,-25.66457],[-42.77126,-25.66718],[-42.77386,-25.66718],[-42.77647,-25.66718],[-42.77907,-25.66718],[-42.77907,-25.66978],[-42.77907,-25.67239],[-42.77907,-25.67499],[-42.78168,-25.67499],[-42.78428,-25.67499],[-42.78428,-25.67759],[-42.78428,-25.6802],[-42.78428,-25.6828],[-42.78428,-25.68541],[-42.78689,-25.68541],[-42.78949,-25.68541],[-42.78949,-25.68801],[-42.78949,-25.69061],[-42.78949,-25.69322],[-42.79209,-25.69322],[-42.7947,-25.69322],[-42.7947,-25.69582],[-42.7947,-25.69843],[-42.7947,-25.70103],[-42.7973,-25.70103],[-42.79991,-25.70103],[-42.80251,-25.70103],[-42.80512,-25.70103],[-42.80772,-25.70103],[-42.80772,-25.70364],[-42.80772,-25.70624],[-42.80772,-25.70884],[-42.80772,-25.71145],[-42.80772,-25.71405],[-42.80772,-25.71666],[-42.80772,-25.71926],[-42.80772,-25.72186],[-42.80772,-25.72447],[-42.80772,-25.72707],[-42.80772,-25.72968],[-42.81032,-25.72968],[-42.81032,-25.73228],[-42.81032,-25.73489],[-42.81032,-25.73749],[-42.81293,-25.73749],[-42.81553,-25.73749],[-42.81814,-25.73749],[-42.82074,-25.73749],[-42.82334,-25.73749],[-42.82595,-25.73749],[-42.82855,-25.73749],[-42.83116,-25.73749],[-42.83376,-25.73749],[-42.83637,-25.73749],[-42.83897,-25.73749],[-42.84157,-25.73749],[-42.84418,-25.73749],[-42.84678,-25.73749],[-42.84678,-25.73489],[-42.84678,-25.73228],[-42.84678,-25.72968],[-42.84678,-25.72707],[-42.84678,-25.72447],[-42.84939,-25.72447],[-42.85199,-25.72447],[-42.85459,-25.72447],[-42.8572,-25.72447],[-42.8598,-25.72447],[-42.86241,-25.72447],[-42.86501,-25.72447],[-42.86762,-25.72447],[-42.87022,-25.72447],[-42.87282,-25.72447],[-42.87543,-25.72447],[-42.87803,-25.72447],[-42.87803,-25.72707],[-42.87803,-25.72968],[-42.88064,-25.72968],[-42.88064,-25.73228],[-42.88064,-25.73489],[-42.88064,-25.73749],[-42.88064,-25.74009],[-42.88324,-25.74009],[-42.88585,-25.74009],[-42.88845,-25.74009],[-42.89105,-25.74009],[-42.89105,-25.7427],[-42.89105,-25.7453],[-42.89105,-25.74791],[-42.89366,-25.74791],[-42.89626,-25.74791],[-42.89887,-25.74791],[-42.90147,-25.74791],[-42.90407,-25.74791],[-42.90668,-25.74791],[-42.90928,-25.74791],[-42.91189,-25.74791],[-42.91189,-25.7453],[-42.91189,-25.7427],[-42.91189,-25.74009],[-42.91189,-25.73749],[-42.91189,-25.73489],[-42.91189,-25.73228],[-42.91189,-25.72968],[-42.91189,-25.72707],[-42.91189,-25.72447],[-42.90928,-25.72447],[-42.90668,-25.72447],[-42.90407,-25.72447],[-42.90147,-25.72447],[-42.90147,-25.72186],[-42.90147,-25.71926],[-42.90147,-25.71666],[-42.90147,-25.71405],[-42.89887,-25.71405],[-42.89626,-25.71405],[-42.89366,-25.71405],[-42.89366,-25.71145],[-42.89366,-25.70884],[-42.89105,-25.70884],[-42.88845,-25.70884],[-42.88845,-25.70624],[-42.88845,-25.70364],[-42.88845,-25.70103],[-42.88845,-25.69843],[-42.88845,-25.69582],[-42.88845,-25.69322],[-42.88845,-25.69061],[-42.88845,-25.68801],[-42.88845,-25.68541],[-42.88845,-25.6828],[-42.89105,-25.6828],[-42.89366,-25.6828],[-42.89626,-25.6828],[-42.89626,-25.6802],[-42.89626,-25.67759],[-42.89626,-25.67499],[-42.89626,-25.67239],[-42.89626,-25.66978],[-42.89626,-25.66718],[-42.89366,-25.66718],[-42.89105,-25.66718],[-42.88845,-25.66718],[-42.88584,-25.66718],[-42.88324,-25.66718],[-42.88064,-25.66718],[-42.87803,-25.66718],[-42.87543,-25.66718],[-42.87282,-25.66718],[-42.87022,-25.66718],[-42.86762,-25.66718],[-42.86501,-25.66718],[-42.86241,-25.66718],[-42.8598,-25.66718],[-42.8572,-25.66718],[-42.85459,-25.66718],[-42.85199,-25.66718],[-42.84939,-25.66718],[-42.84678,-25.66718],[-42.84418,-25.66718],[-42.84157,-25.66718],[-42.83897,-25.66718],[-42.83637,-25.66718],[-42.83376,-25.66718],[-42.83116,-25.66718],[-42.82855,-25.66718],[-42.82595,-25.66718],[-42.82334,-25.66718],[-42.82074,-25.66718],[-42.81814,-25.66718],[-42.81553,-25.66718],[-42.81293,-25.66718],[-42.81293,-25.66457],[-42.81293,-25.66197],[-42.81293,-25.65936],[-42.81293,-25.65676],[-42.81293,-25.65416],[-42.81293,-25.65155],[-42.81293,-25.64895],[-42.81293,-25.64634],[-42.81293,-25.64374],[-42.81293,-25.64114],[-42.81293,-25.63853],[-42.81293,-25.63593],[-42.81293,-25.63332],[-42.81293,-25.63072],[-42.81293,-25.62811],[-42.81293,-25.62551],[-42.81032,-25.62551],[-42.80772,-25.62551],[-42.80511,-25.62551],[-42.80251,-25.62551],[-42.79991,-25.62551],[-42.7973,-25.62551],[-42.7947,-25.62551],[-42.79209,-25.62551],[-42.78949,-25.62551],[-42.78689,-25.62551],[-42.78428,-25.62551],[-42.78168,-25.62551],[-42.77907,-25.62551],[-42.77647,-25.62551],[-42.77386,-25.62551],[-42.77126,-25.62551],[-42.76866,-25.62551],[-42.76605,-25.62551],[-42.76345,-25.62551],[-42.76084,-25.62551],[-42.75824,-25.62551],[-42.75824,-25.62811],[-42.75824,-25.63072],[-42.75824,-25.63332],[-42.75824,-25.63593],[-42.75824,-25.63853],[-42.75824,-25.64114],[-42.75824,-25.64374],[-42.75824,-25.64634],[-42.75824,-25.64895],[-42.75824,-25.65155],[-42.75824,-25.65416],[-42.75824,-25.65416]]]}},{"type":"Feature","properties":{"nome":"BERBIGÃO","bacia":"Santos","operador":"Petróleo Brasileiro S.A. - PETROBRAS","rodada":"Rodada 2","etapa":"Desenvolvimento","area_km2":289.0},"geometry":{"type":"Polygon","coordinates":[[[-42.5499,-24.91717],[-42.5499,-24.91978],[-42.5499,-24.92238],[-42.5499,-24.92499],[-42.5473,-24.92499],[-42.54469,-24.92499],[-42.54469,-24.92759],[-42.54469,-24.9302],[-42.54469,-24.9328],[-42.54469,-24.9354],[-42.54469,-24.93801],[-42.54469,-24.94061],[-42.54209,-24.94061],[-42.53949,-24.94061],[-42.53949,-24.94322],[-42.53949,-24.94582],[-42.53949,-24.94842],[-42.53949,-24.95103],[-42.53688,-24.95103],[-42.53428,-24.95103],[-42.53428,-24.95363],[-42.53428,-24.95624],[-42.53167,-24.95624],[-42.53167,-24.95884],[-42.53167,-24.96145],[-42.53167,-24.96405],[-42.53167,-24.96665],[-42.53167,-24.96926],[-42.53167,-24.97186],[-42.53167,-24.97447],[-42.52907,-24.97447],[-42.52646,-24.97447],[-42.52646,-24.97707],[-42.52646,-24.97967],[-42.52646,-24.98228],[-42.52386,-24.98228],[-42.52126,-24.98228],[-42.52126,-24.98488],[-42.52126,-24.98749],[-42.52126,-24.99009],[-42.51865,-24.99009],[-42.51605,-24.99009],[-42.51344,-24.99009],[-42.51344,-24.9927],[-42.51344,-24.9953],[-42.51344,-24.9979],[-42.51344,-25.00051],[-42.51344,-25.00311],[-42.51344,-25.00572],[-42.51084,-25.00572],[-42.50823,-25.00572],[-42.50563,-25.00572],[-42.50303,-25.00572],[-42.50042,-25.00572],[-42.50042,-25.00832],[-42.50042,-25.01092],[-42.50042,-25.01353],[-42.50042,-25.01613],[-42.50042,-25.01874],[-42.50042,-25.02134],[-42.50042,-25.02395],[-42.50042,-25.02655],[-42.50042,-25.02915],[-42.50042,-25.03176],[-42.50042,-25.03436],[-42.50042,-25.03697],[-42.50042,-25.03957],[-42.50042,-25.04217],[-42.50303,-25.04217],[-42.50563,-25.04217],[-42.50824,-25.04217],[-42.51084,-25.04217],[-42.51344,-25.04217],[-42.51605,-25.04217],[-42.51865,-25.04217],[-42.52126,-25.04217],[-42.52386,-25.04217],[-42.52646,-25.04217],[-42.52907,-25.04217],[-42.53167,-25.04217],[-42.53428,-25.04217],[-42.53688,-25.04217],[-42.53949,-25.04217],[-42.54209,-25.04217],[-42.54469,-25.04217],[-42.5473,-25.04217],[-42.5499,-25.04217],[-42.55251,-25.04217],[-42.55511,-25.04217],[-42.55771,-25.04217],[-42.56032,-25.04217],[-42.56292,-25.04217],[-42.56553,-25.04217],[-42.56813,-25.04217],[-42.57074,-25.04217],[-42.57334,-25.04217],[-42.57594,-25.04217],[-42.57855,-25.04217],[-42.58115,-25.04217],[-42.58376,-25.04217],[-42.58636,-25.04217],[-42.58897,-25.04217],[-42.59157,-25.04217],[-42.59417,-25.04217],[-42.59678,-25.04217],[-42.59938,-25.04217],[-42.60199,-25.04217],[-42.60459,-25.04217],[-42.60719,-25.04217],[-42.6098,-25.04217],[-42.6124,-25.04217],[-42.61501,-25.04217],[-42.61761,-25.04217],[-42.62022,-25.04217],[-42.62282,-25.04217],[-42.62542,-25.04217],[-42.62803,-25.04217],[-42.63063,-25.04217],[-42.63324,-25.04217],[-42.63584,-25.04217],[-42.63844,-25.04217],[-42.64105,-25.04217],[-42.64365,-25.04217],[-42.64626,-25.04217],[-42.64886,-25.04217],[-42.65147,-25.04217],[-42.65407,-25.04217],[-42.65667,-25.04217],[-42.65928,-25.04217],[-42.66188,-25.04217],[-42.66449,-25.04217],[-42.66709,-25.04217],[-42.66969,-25.04217],[-42.6723,-25.04217],[-42.6749,-25.04217],[-42.67751,-25.04217],[-42.68011,-25.04217],[-42.68272,-25.04217],[-42.68532,-25.04217],[-42.68792,-25.04217],[-42.69053,-25.04217],[-42.69313,-25.04217],[-42.69574,-25.04217],[-42.69834,-25.04217],[-42.70095,-25.04217],[-42.70355,-25.04217],[-42.70615,-25.04217],[-42.70876,-25.04217],[-42.71136,-25.04217],[-42.71397,-25.04217],[-42.71657,-25.04217],[-42.71917,-25.04217],[-42.72178,-25.04217],[-42.72438,-25.04217],[-42.72699,-25.04217],[-42.72959,-25.04217],[-42.7322,-25.04217],[-42.7348,-25.04217],[-42.7374,-25.04217],[-42.74001,-25.04217],[-42.74261,-25.04217],[-42.74522,-25.04217],[-42.74782,-25.04217],[-42.75042,-25.04217],[-42.75042,-25.03957],[-42.75042,-25.03697],[-42.75042,-25.03436],[-42.75042,-25.03176],[-42.75042,-25.02915],[-42.75042,-25.02655],[-42.75042,-25.02394],[-42.75042,-25.02134],[-42.75042,-25.01874],[-42.75042,-25.01613],[-42.75042,-25.01353],[-42.75042,-25.01092],[-42.75042,-25.00832],[-42.75042,-25.00572],[-42.75042,-25.00311],[-42.75042,-25.00051],[-42.75042,-24.9979],[-42.75042,-24.9953],[-42.75042,-24.99269],[-42.75042,-24.99009],[-42.75042,-24.98749],[-42.75042,-24.98488],[-42.75042,-24.98228],[-42.75042,-24.97967],[-42.75042,-24.97707],[-42.75042,-24.97447],[-42.75042,-24.97186],[-42.75042,-24.96926],[-42.75042,-24.96665],[-42.75042,-24.96405],[-42.75042,-24.96144],[-42.75042,-24.95884],[-42.74782,-24.95884],[-42.74522,-24.95884],[-42.74261,-24.95884],[-42.74001,-24.95884],[-42.7374,-24.95884],[-42.7348,-24.95884],[-42.7322,-24.95884],[-42.72959,-24.95884],[-42.72699,-24.95884],[-42.72438,-24.95884],[-42.72178,-24.95884],[-42.71917,-24.95884],[-42.71657,-24.95884],[-42.71397,-24.95884],[-42.71136,-24.95884],[-42.70876,-24.95884],[-42.70615,-24.95884],[-42.70355,-24.95884],[-42.70094,-24.95884],[-42.69834,-24.95884],[-42.69574,-24.95884],[-42.69313,-24.95884],[-42.69053,-24.95884],[-42.68792,-24.95884],[-42.68792,-24.95624],[-42.68792,-24.95363],[-42.68792,-24.95103],[-42.68792,-24.94842],[-42.68792,-24.94582],[-42.68792,-24.94322],[-42.68792,-24.94061],[-42.68792,-24.93801],[-42.68792,-24.9354],[-42.68792,-24.9328],[-42.68792,-24.93019],[-42.68792,-24.92759],[-42.68792,-24.92499],[-42.68792,-24.92238],[-42.68792,-24.91978],[-42.68792,-24.91717],[-42.68532,-24.91717],[-42.68272,-24.91717],[-42.68011,-24.91717],[-42.67751,-24.91717],[-42.6749,-24.91717],[-42.6723,-24.91717],[-42.66969,-24.91717],[-42.66709,-24.91717],[-42.66449,-24.91717],[-42.66188,-24.91717],[-42.65928,-24.91717],[-42.65667,-24.91717],[-42.65407,-24.91717],[-42.65147,-24.91717],[-42.64886,-24.91717],[-42.64626,-24.91717],[-42.64365,-24.91717],[-42.64105,-24.91717],[-42.63844,-24.91717],[-42.63584,-24.91717],[-42.63324,-24.91717],[-42.63063,-24.91717],[-42.62803,-24.91717],[-42.62542,-24.91717],[-42.62282,-24.91717],[-42.62021,-24.91717],[-42.61761,-24.91717],[-42.61501,-24.91717],[-42.6124,-24.91717],[-42.6098,-24.91717],[-42.60719,-24.91717],[-42.60459,-24.91717],[-42.60199,-24.91717],[-42.59938,-24.91717],[-42.59678,-24.91717],[-42.59417,-24.91717],[-42.59157,-24.91717],[-42.58896,-24.91717],[-42.58636,-24.91717],[-42.58376,-24.91717],[-42.58115,-24.91717],[-42.57855,-24.91717],[-42.57594,-24.91717],[-42.57334,-24.91717],[-42.57074,-24.91717],[-42.56813,-24.91717],[-42.56553,-24.91717],[-42.56292,-24.91717],[-42.56032,-24.91717],[-42.55771,-24.91717],[-42.55511,-24.91717],[-42.55251,-24.91717],[-42.5499,-24.91717],[-42.5499,-24.91717]]]}},{"type":"Feature","properties":{"nome":"NORTE DE BERBIGÃO","bacia":"Santos","operador":"Petróleo Brasileiro S.A. - PETROBRAS","rodada":"Cessão Onerosa","etapa":"Desenvolvimento","area_km2":120.0},"geometry":{"type":"Polygon","coordinates":[[[-42.79209,-24.95884],[-42.79209,-24.95624],[-42.79209,-24.95363],[-42.79209,-24.95103],[-42.79209,-24.94842],[-42.79209,-24.94582],[-42.79209,-24.94322],[-42.79209,-24.94061],[-42.79209,-24.93801],[-42.79209,-24.9354],[-42.79209,-24.9328],[-42.79209,-24.93019],[-42.79209,-24.92759],[-42.79209,-24.92499],[-42.79209,-24.92238],[-42.79209,-24.91978],[-42.79209,-24.91717],[-42.78949,-24.91717],[-42.78688,-24.91717],[-42.78428,-24.91717],[-42.78167,-24.91717],[-42.77907,-24.91717],[-42.77647,-24.91717],[-42.77386,-24.91717],[-42.77126,-24.91717],[-42.76865,-24.91717],[-42.76605,-24.91717],[-42.76345,-24.91717],[-42.76084,-24.91717],[-42.75824,-24.91717],[-42.75563,-24.91717],[-42.75303,-24.91717],[-42.75042,-24.91717],[-42.75042,-24.91457],[-42.75042,-24.91197],[-42.75042,-24.90936],[-42.75042,-24.90676],[-42.74782,-24.90676],[-42.74522,-24.90676],[-42.74261,-24.90676],[-42.74001,-24.90676],[-42.7374,-24.90676],[-42.7348,-24.90676],[-42.73219,-24.90676],[-42.72959,-24.90676],[-42.72699,-24.90676],[-42.72438,-24.90676],[-42.72178,-24.90676],[-42.71917,-24.90676],[-42.71657,-24.90676],[-42.71657,-24.90415],[-42.71657,-24.90155],[-42.71657,-24.89894],[-42.71657,-24.89634],[-42.71657,-24.89374],[-42.71657,-24.89113],[-42.71657,-24.88853],[-42.71657,-24.88592],[-42.71657,-24.88332],[-42.71657,-24.88072],[-42.71657,-24.87811],[-42.71657,-24.87551],[-42.71397,-24.87551],[-42.71136,-24.87551],[-42.70876,-24.87551],[-42.70615,-24.87551],[-42.70355,-24.87551],[-42.70094,-24.87551],[-42.69834,-24.87551],[-42.69574,-24.87551],[-42.69313,-24.87551],[-42.69053,-24.87551],[-42.68792,-24.87551],[-42.68532,-24.87551],[-42.68272,-24.87551],[-42.68011,-24.87551],[-42.67751,-24.87551],[-42.6749,-24.87551],[-42.6723,-24.87551],[-42.66969,-24.87551],[-42.66709,-24.87551],[-42.66449,-24.87551],[-42.66188,-24.87551],[-42.65928,-24.87551],[-42.65667,-24.87551],[-42.65407,-24.87551],[-42.65146,-24.87551],[-42.64886,-24.87551],[-42.64626,-24.87551],[-42.64365,-24.87551],[-42.64105,-24.87551],[-42.63844,-24.87551],[-42.63584,-24.87551],[-42.63324,-24.87551],[-42.63063,-24.87551],[-42.62803,-24.87551],[-42.62542,-24.87551],[-42.62542,-24.8729],[-42.62542,-24.8703],[-42.62542,-24.86769],[-42.62542,-24.86509],[-42.62542,-24.86249],[-42.62542,-24.85988],[-42.62282,-24.85988],[-42.62021,-24.85988],[-42.61761,-24.85988],[-42.61501,-24.85988],[-42.6124,-24.85988],[-42.6098,-24.85988],[-42.60719,-24.85988],[-42.60459,-24.85988],[-42.60199,-24.85988],[-42.59938,-24.85988],[-42.59678,-24.85988],[-42.59678,-24.86249],[-42.59678,-24.86509],[-42.59678,-24.86769],[-42.59678,-24.8703],[-42.59678,-24.8729],[-42.59678,-24.87551],[-42.59678,-24.87811],[-42.59678,-24.88072],[-42.59678,-24.88332],[-42.59678,-24.88592],[-42.59678,-24.88853],[-42.59678,-24.89113],[-42.59678,-24.89374],[-42.59417,-24.89374],[-42.59157,-24.89374],[-42.58896,-24.89374],[-42.58636,-24.89374],[-42.58376,-24.89374],[-42.58115,-24.89374],[-42.58115,-24.89634],[-42.58115,-24.89894],[-42.58115,-24.90155],[-42.58115,-24.90415],[-42.57855,-24.90415],[-42.57594,-24.90415],[-42.57334,-24.90415],[-42.57074,-24.90415],[-42.57074,-24.90676],[-42.57074,-24.90936],[-42.56813,-24.90936],[-42.56553,-24.90936],[-42.56292,-24.90936],[-42.56032,-24.90936],[-42.55771,-24.90936],[-42.55771,-24.91197],[-42.55771,-24.91457],[-42.55771,-24.91717],[-42.56032,-24.91717],[-42.56292,-24.91717],[-42.56553,-24.91717],[-42.56813,-24.91717],[-42.57074,-24.91717],[-42.57334,-24.91717],[-42.57594,-24.91717],[-42.57855,-24.91717],[-42.58115,-24.91717],[-42.58376,-24.91717],[-42.58636,-24.91717],[-42.58896,-24.91717],[-42.59157,-24.91717],[-42.59417,-24.91717],[-42.59678,-24.91717],[-42.59938,-24.91717],[-42.60199,-24.91717],[-42.60459,-24.91717],[-42.60719,-24.91717],[-42.6098,-24.91717],[-42.6124,-24.91717],[-42.61501,-24.91717],[-42.61761,-24.91717],[-42.62021,-24.91717],[-42.62282,-24.91717],[-42.62542,-24.91717],[-42.62803,-24.91717],[-42.63063,-24.91717],[-42.63324,-24.91717],[-42.63584,-24.91717],[-42.63844,-24.91717],[-42.64105,-24.91717],[-42.64365,-24.91717],[-42.64626,-24.91717],[-42.64886,-24.91717],[-42.65147,-24.91717],[-42.65407,-24.91717],[-42.65667,-24.91717],[-42.65928,-24.91717],[-42.66188,-24.91717],[-42.66449,-24.91717],[-42.66709,-24.91717],[-42.66969,-24.91717],[-42.6723,-24.91717],[-42.6749,-24.91717],[-42.67751,-24.91717],[-42.68011,-24.91717],[-42.68272,-24.91717],[-42.68532,-24.91717],[-42.68792,-24.91717],[-42.68792,-24.91978],[-42.68792,-24.92238],[-42.68792,-24.92499],[-42.68792,-24.92759],[-42.68792,-24.93019],[-42.68792,-24.9328],[-42.68792,-24.9354],[-42.68792,-24.93801],[-42.68792,-24.94061],[-42.68792,-24.94322],[-42.68792,-24.94582],[-42.68792,-24.94842],[-42.68792,-24.95103],[-42.68792,-24.95363],[-42.68792,-24.95624],[-42.68792,-24.95884],[-42.69053,-24.95884],[-42.69313,-24.95884],[-42.69574,-24.95884],[-42.69834,-24.95884],[-42.70094,-24.95884],[-42.70355,-24.95884],[-42.70615,-24.95884],[-42.70876,-24.95884],[-42.71136,-24.95884],[-42.71397,-24.95884],[-42.71657,-24.95884],[-42.71917,-24.95884],[-42.72178,-24.95884],[-42.72438,-24.95884],[-42.72699,-24.95884],[-42.72959,-24.95884],[-42.7322,-24.95884],[-42.7348,-24.95884],[-42.7374,-24.95884],[-42.74001,-24.95884],[-42.74261,-24.95884],[-42.74522,-24.95884],[-42.74782,-24.95884],[-42.75042,-24.95884],[-42.75303,-24.95884],[-42.75563,-24.95884],[-42.75824,-24.95884],[-42.76084,-24.95884],[-42.76345,-24.95884],[-42.76605,-24.95884],[-42.76865,-24.95884],[-42.77126,-24.95884],[-42.77386,-24.95884],[-42.77647,-24.95884],[-42.77907,-24.95884],[-42.78167,-24.95884],[-42.78428,-24.95884],[-42.78688,-24.95884],[-42.78949,-24.95884],[-42.79209,-24.95884],[-42.79209,-24.95884]]]}},{"type":"Feature","properties":{"nome":"SUL DE BERBIGÃO","bacia":"Santos","operador":"Petróleo Brasileiro S.A. - PETROBRAS","rodada":"Cessão Onerosa","etapa":"Desenvolvimento","area_km2":162.0},"geometry":{"type":"Polygon","coordinates":[[[-42.7348,-25.07342],[-42.7348,-25.07082],[-42.7348,-25.06822],[-42.7348,-25.06561],[-42.7348,-25.06301],[-42.7374,-25.06301],[-42.74001,-25.06301],[-42.74261,-25.06301],[-42.74261,-25.0604],[-42.74261,-25.0578],[-42.74261,-25.0552],[-42.74261,-25.05259],[-42.74522,-25.05259],[-42.74782,-25.05259],[-42.75042,-25.05259],[-42.75042,-25.04999],[-42.75042,-25.04738],[-42.75042,-25.04478],[-42.75042,-25.04217],[-42.74782,-25.04217],[-42.74522,-25.04217],[-42.74261,-25.04217],[-42.74001,-25.04217],[-42.7374,-25.04217],[-42.7348,-25.04217],[-42.7322,-25.04217],[-42.72959,-25.04217],[-42.72699,-25.04217],[-42.72438,-25.04217],[-42.72178,-25.04217],[-42.71917,-25.04217],[-42.71657,-25.04217],[-42.71397,-25.04217],[-42.71136,-25.04217],[-42.70876,-25.04217],[-42.70615,-25.04217],[-42.70355,-25.04217],[-42.70095,-25.04217],[-42.69834,-25.04217],[-42.69574,-25.04217],[-42.69313,-25.04217],[-42.69053,-25.04217],[-42.68792,-25.04217],[-42.68532,-25.04217],[-42.68272,-25.04217],[-42.68011,-25.04217],[-42.67751,-25.04217],[-42.6749,-25.04217],[-42.6723,-25.04217],[-42.66969,-25.04217],[-42.66709,-25.04217],[-42.66449,-25.04217],[-42.66188,-25.04217],[-42.65928,-25.04217],[-42.65667,-25.04217],[-42.65407,-25.04217],[-42.65147,-25.04217],[-42.64886,-25.04217],[-42.64626,-25.04217],[-42.64365,-25.04217],[-42.64105,-25.04217],[-42.63844,-25.04217],[-42.63584,-25.04217],[-42.63324,-25.04217],[-42.63063,-25.04217],[-42.62803,-25.04217],[-42.62542,-25.04217],[-42.62282,-25.04217],[-42.62022,-25.04217],[-42.61761,-25.04217],[-42.61501,-25.04217],[-42.6124,-25.04217],[-42.6098,-25.04217],[-42.60719,-25.04217],[-42.60459,-25.04217],[-42.60199,-25.04217],[-42.59938,-25.04217],[-42.59678,-25.04217],[-42.59417,-25.04217],[-42.59157,-25.04217],[-42.58897,-25.04217],[-42.58636,-25.04217],[-42.58376,-25.04217],[-42.58115,-25.04217],[-42.57855,-25.04217],[-42.57594,-25.04217],[-42.57334,-25.04217],[-42.57074,-25.04217],[-42.56813,-25.04217],[-42.56553,-25.04217],[-42.56292,-25.04217],[-42.56032,-25.04217],[-42.55771,-25.04217],[-42.55511,-25.04217],[-42.55251,-25.04217],[-42.5499,-25.04217],[-42.5473,-25.04217],[-42.54469,-25.04217],[-42.54209,-25.04217],[-42.53949,-25.04217],[-42.53688,-25.04217],[-42.53428,-25.04217],[-42.53167,-25.04217],[-42.52907,-25.04217],[-42.52646,-25.04217],[-42.52386,-25.04217],[-42.52126,-25.04217],[-42.51865,-25.04217],[-42.51605,-25.04217],[-42.51344,-25.04217],[-42.51084,-25.04217],[-42.50824,-25.04217],[-42.50563,-25.04217],[-42.50303,-25.04217],[-42.50042,-25.04217],[-42.50042,-25.04478],[-42.50042,-25.04738],[-42.50042,-25.04999],[-42.50042,-25.05259],[-42.50042,-25.0552],[-42.50042,-25.0578],[-42.50042,-25.0604],[-42.50042,-25.06301],[-42.50303,-25.06301],[-42.50563,-25.06301],[-42.50824,-25.06301],[-42.51084,-25.06301],[-42.51344,-25.06301],[-42.51605,-25.06301],[-42.51865,-25.06301],[-42.51865,-25.06561],[-42.51865,-25.06822],[-42.51865,-25.07082],[-42.51865,-25.07343],[-42.51865,-25.07603],[-42.52126,-25.07603],[-42.52386,-25.07603],[-42.52646,-25.07603],[-42.52907,-25.07603],[-42.53167,-25.07603],[-42.53428,-25.07603],[-42.53688,-25.07603],[-42.53949,-25.07603],[-42.54209,-25.07603],[-42.54469,-25.07603],[-42.5473,-25.07603],[-42.5499,-25.07603],[-42.5499,-25.07863],[-42.5499,-25.08124],[-42.5499,-25.08384],[-42.55251,-25.08384],[-42.55511,-25.08384],[-42.55771,-25.08384],[-42.56032,-25.08384],[-42.56292,-25.08384],[-42.56292,-25.08645],[-42.56292,-25.08905],[-42.56292,-25.09165],[-42.56292,-25.09426],[-42.56292,-25.09686],[-42.56292,-25.09947],[-42.56292,-25.10207],[-42.56292,-25.10468],[-42.56292,-25.10728],[-42.56292,-25.10988],[-42.56292,-25.11249],[-42.56292,-25.11509],[-42.56292,-25.1177],[-42.56553,-25.1177],[-42.56813,-25.1177],[-42.57074,-25.1177],[-42.57334,-25.1177],[-42.57594,-25.1177],[-42.57855,-25.1177],[-42.58115,-25.1177],[-42.58376,-25.1177],[-42.58636,-25.1177],[-42.58897,-25.1177],[-42.59157,-25.1177],[-42.59417,-25.1177],[-42.59678,-25.1177],[-42.59938,-25.1177],[-42.59938,-25.11509],[-42.59938,-25.11249],[-42.59938,-25.10988],[-42.59938,-25.10728],[-42.59938,-25.10467],[-42.59938,-25.10207],[-42.59938,-25.09947],[-42.59938,-25.09686],[-42.59938,-25.09426],[-42.59938,-25.09165],[-42.59938,-25.08905],[-42.60199,-25.08905],[-42.60459,-25.08905],[-42.60719,-25.08905],[-42.60719,-25.08645],[-42.60719,-25.08384],[-42.60719,-25.08124],[-42.60719,-25.07863],[-42.60719,-25.07603],[-42.60719,-25.07342],[-42.60719,-25.07082],[-42.60719,-25.06822],[-42.60719,-25.06561],[-42.60719,-25.06301],[-42.6098,-25.06301],[-42.6124,-25.06301],[-42.61501,-25.06301],[-42.61501,-25.06561],[-42.61501,-25.06822],[-42.61501,-25.07082],[-42.61501,-25.07342],[-42.61501,-25.07603],[-42.61501,-25.07863],[-42.61501,-25.08124],[-42.61501,-25.08384],[-42.61501,-25.08645],[-42.61501,-25.08905],[-42.61501,-25.09165],[-42.61501,-25.09426],[-42.61501,-25.09686],[-42.61501,-25.09947],[-42.6124,-25.09947],[-42.6098,-25.09947],[-42.60719,-25.09947],[-42.60719,-25.10207],[-42.60719,-25.10467],[-42.60719,-25.10728],[-42.60719,-25.10988],[-42.60719,-25.11249],[-42.60719,-25.11509],[-42.60719,-25.1177],[-42.60719,-25.1203],[-42.60719,-25.1229],[-42.60719,-25.12551],[-42.6098,-25.12551],[-42.6124,-25.12551],[-42.61501,-25.12551],[-42.61761,-25.12551],[-42.62022,-25.12551],[-42.62282,-25.12551],[-42.62542,-25.12551],[-42.62542,-25.12811],[-42.62542,-25.13072],[-42.62542,-25.13332],[-42.62542,-25.13592],[-42.62542,-25.13853],[-42.62542,-25.14113],[-42.62542,-25.14374],[-42.62542,-25.14634],[-42.62542,-25.14895],[-42.62542,-25.15155],[-42.62542,-25.15415],[-42.62803,-25.15415],[-42.63063,-25.15415],[-42.63324,-25.15415],[-42.63584,-25.15415],[-42.63845,-25.15415],[-42.64105,-25.15415],[-42.64365,-25.15415],[-42.64626,-25.15415],[-42.64886,-25.15415],[-42.65147,-25.15415],[-42.65407,-25.15415],[-42.65667,-25.15415],[-42.65928,-25.15415],[-42.65928,-25.15155],[-42.65928,-25.14895],[-42.65928,-25.14634],[-42.65928,-25.14374],[-42.65928,-25.14113],[-42.65928,-25.13853],[-42.65928,-25.13592],[-42.66188,-25.13592],[-42.66449,-25.13592],[-42.66709,-25.13592],[-42.6697,-25.13592],[-42.6697,-25.13332],[-42.6697,-25.13072],[-42.6697,-25.12811],[-42.6697,-25.12551],[-42.6697,-25.1229],[-42.6697,-25.1203],[-42.6697,-25.1177],[-42.6723,-25.1177],[-42.6749,-25.1177],[-42.67751,-25.1177],[-42.68011,-25.1177],[-42.68272,-25.1177],[-42.68532,-25.1177],[-42.68792,-25.1177],[-42.68792,-25.11509],[-42.68792,-25.11249],[-42.68792,-25.10988],[-42.68792,-25.10728],[-42.68792,-25.10467],[-42.68792,-25.10207],[-42.68792,-25.09947],[-42.68792,-25.09686],[-42.68792,-25.09426],[-42.68792,-25.09165],[-42.68792,-25.08905],[-42.68792,-25.08645],[-42.68792,-25.08384],[-42.69053,-25.08384],[-42.69313,-25.08384],[-42.69574,-25.08384],[-42.69834,-25.08384],[-42.70095,-25.08384],[-42.70355,-25.08384],[-42.70615,-25.08384],[-42.70876,-25.08384],[-42.71136,-25.08384],[-42.71397,-25.08384],[-42.71397,-25.08124],[-42.71397,-25.07863],[-42.71657,-25.07863],[-42.71917,-25.07863],[-42.72178,-25.07863],[-42.72438,-25.07863],[-42.72438,-25.07603],[-42.72438,-25.07342],[-42.72699,-25.07342],[-42.72959,-25.07342],[-42.7322,-25.07342],[-42.7348,-25.07342],[-42.7348,-25.07342]]]}}]}