{"type":"FeatureCollection","features":[{"type":"Feature","properties":{"projeto":"Libra","fonte":"bloco_exploratorio","bacia":"SANTOS","operador":"Petróleo Brasileiro S.A. - PETROBRAS","rodada":"Partilha 1","assinatura":"02-12-2013","area_km2":415.0},"geometry":{"type":"Polygon","coordinates":[[[-41.9401,-24.64583],[-41.9401,-24.72917],[-41.92448,-24.72917],[-41.92448,-24.78906],[-41.96615,-24.78906],[-41.96615,-24.76302],[-42.00042,-24.76302],[-42.00042,-24.76042],[-42.00042,-24.75781],[-42.00042,-24.75521],[-42.00042,-24.7526],[-42.00042,-24.75051],[-42.00302,-24.75051],[-42.00563,-24.75051],[-42.00823,-24.75051],[-42.01083,-24.75051],[-42.01344,-24.75051],[-42.01604,-24.75051],[-42.01865,-24.75051],[-42.02125,-24.75051],[-42.02385,-24.75051],[-42.02646,-24.75051],[-42.02865,-24.75051],[-42.02865,-24.72135],[-42.07552,-24.72135],[-42.07552,-24.70052],[-42.15104,-24.70052],[-42.15104,-24.65365],[-42.17188,-24.65365],[-42.17188,-24.63021],[-42.11719,-24.63021],[-42.11719,-24.57031],[-42.04688,-24.57031],[-42.04688,-24.51302],[-41.96094,-24.51302],[-41.96094,-24.64583],[-41.9401,-24.64583]]]}},{"type":"Feature","properties":{"projeto":"Norte de Carcará","fonte":"campo_producao","bacia":"Santos","operador":"Equinor Brasil Energia Ltda.","campos":"BACALHAU NORTE","rodada":"Rodada 2","inicio_producao":"","area_km2":313.4},"geometry":{"type":"Polygon","coordinates":[[[-44.07552,-25.25],[-43.90885,-25.25],[-43.90885,-25.42188],[-43.93794,-25.42188],[-43.93794,-25.41927],[-43.93794,-25.41717],[-43.94054,-25.41717],[-43.94315,-25.41717],[-43.94575,-25.41717],[-43.94835,-25.41717],[-43.95096,-25.41717],[-43.95356,-25.41717],[-43.95617,-25.41717],[-43.95877,-25.41717],[-43.96137,-25.41717],[-43.96398,-25.41717],[-43.96658,-25.41717],[-43.96919,-25.41717],[-43.97179,-25.41717],[-43.9744,-25.41717],[-43.977,-25.41717],[-43.9796,-25.41717],[-43.98221,-25.41717],[-43.98481,-25.41717],[-43.98742,-25.41717],[-43.99002,-25.41717],[-43.99262,-25.41717],[-43.99523,-25.41717],[-43.99783,-25.41717],[-44.00044,-25.41717],[-44.00304,-25.41717],[-44.00565,-25.41717],[-44.00825,-25.41717],[-44.01085,-25.41717],[-44.01346,-25.41717],[-44.01606,-25.41717],[-44.01867,-25.41717],[-44.02127,-25.41717],[-44.02387,-25.41717],[-44.02648,-25.41717],[-44.02908,-25.41717],[-44.03169,-25.41717],[-44.03429,-25.41717],[-44.0369,-25.41717],[-44.0395,-25.41717],[-44.0421,-25.41717],[-44.04471,-25.41717],[-44.04731,-25.41717],[-44.04992,-25.41717],[-44.05252,-25.41717],[-44.05513,-25.41717],[-44.05773,-25.41717],[-44.06033,-25.41717],[-44.06294,-25.41717],[-44.06294,-25.41978],[-44.06294,-25.42188],[-44.07552,-25.42188],[-44.07552,-25.25]]]}},{"type":"Feature","properties":{"projeto":"Entorno de Sapinhoá","fonte":"campo_producao","bacia":"Santos","operador":"Petróleo Brasileiro S.A. - PETROBRAS","campos":"NORDESTE DE SAPINHOÁ, NOROESTE DE SAPINHOÁ, SUDOESTE DE SAPINHOÁ","rodada":"Rodada 2 (PP)","inicio_producao":"","area_km2":214.0},"geometry":{"type":"MultiPolygon","coordinates":[[[[-43.25043,-25.82552],[-43.25043,-25.82812],[-43.25043,-25.83073],[-43.25043,-25.83333],[-43.25043,-25.83594],[-43.25043,-25.83854],[-43.25043,-25.84115],[-43.25043,-25.84375],[-43.25043,-25.84635],[-43.25043,-25.84896],[-43.25043,-25.85156],[-43.25043,-25.85417],[-43.25043,-25.85677],[-43.25043,-25.85938],[-43.25043,-25.86198],[-43.25043,-25.86458],[-43.25043,-25.86719],[-43.25043,-25.86979],[-43.25043,-25.8724],[-43.25043,-25.875],[-43.25043,-25.8776],[-43.25043,-25.88021],[-43.25043,-25.88281],[-43.25043,-25.88542],[-43.25043,-25.88802],[-43.25043,-25.89062],[-43.25043,-25.89323],[-43.25043,-25.89583],[-43.25043,-25.89844],[-43.25043,-25.90104],[-43.25043,-25.90365],[-43.25043,-25.90625],[-43.27865,-25.90625],[-43.27865,-25.82552],[-43.25043,-25.82552],[-43.25043,-25.82552]]],[[[-43.18793,-25.66406],[-43.18793,-25.66667],[-43.18793,-25.66927],[-43.18793,-25.67188],[-43.18793,-25.67448],[-43.18793,-25.67708],[-43.18793,-25.67969],[-43.18793,-25.68229],[-43.18793,-25.6849],[-43.18793,-25.6875],[-43.18793,-25.6901],[-43.18793,-25.69271],[-43.18793,-25.69531],[-43.18793,-25.69792],[-43.18793,-25.70052],[-43.18793,-25.70312],[-43.18793,-25.70573],[-43.18793,-25.70884],[-43.19054,-25.70884],[-43.19314,-25.70884],[-43.19574,-25.70884],[-43.19835,-25.70884],[-43.20095,-25.70884],[-43.20356,-25.70884],[-43.20616,-25.70884],[-43.20833,-25.70884],[-43.20833,-25.66406],[-43.18793,-25.66406],[-43.18793,-25.66406]]],[[[-43.1671,-25.79218],[-43.1671,-25.78957],[-43.1671,-25.78697],[-43.1671,-25.78436],[-43.1671,-25.78176],[-43.1671,-25.77916],[-43.1671,-25.77655],[-43.1671,-25.77395],[-43.1671,-25.77134],[-43.16449,-25.77134],[-43.16189,-25.77134],[-43.15929,-25.77134],[-43.15668,-25.77134],[-43.15668,-25.76874],[-43.15668,-25.76613],[-43.15668,-25.76353],[-43.15668,-25.76093],[-43.15408,-25.76093],[-43.15147,-25.76093],[-43.14887,-25.76093],[-43.14626,-25.76093],[-43.14626,-25.75832],[-43.14626,-25.75572],[-43.14626,-25.75311],[-43.14626,-25.75051],[-43.14626,-25.74791],[-43.14626,-25.7453],[-43.14626,-25.7427],[-43.14626,-25.74009],[-43.14366,-25.74009],[-43.14106,-25.74009],[-43.13845,-25.74009],[-43.13585,-25.74009],[-43.13324,-25.74009],[-43.13064,-25.74009],[-43.12803,-25.74009],[-43.12543,-25.74009],[-43.12543,-25.73749],[-43.12543,-25.73488],[-43.12543,-25.73228],[-43.12543,-25.72968],[-43.12543,-25.72707],[-43.12543,-25.72447],[-43.12543,-25.72186],[-43.12543,-25.71926],[-43.12543,-25.71666],[-43.12543,-25.71405],[-43.12543,-25.71145],[-43.12543,-25.70884],[-43.12543,-25.70624],[-43.12543,-25.70363],[-43.12543,-25.70103],[-43.12543,-25.69843],[-43.12543,-25.69582],[-43.12543,-25.69322],[-43.12543,-25.69061],[-43.12543,-25.68801],[-43.12543,-25.68541],[-43.12543,-25.6828],[-43.12543,-25.6802],[-43.12543,-25.67759],[-43.12543,-25.67499],[-43.12543,-25.67238],[-43.12543,-25.66978],[-43.12543,-25.66718],[-43.12543,-25.66457],[-43.12543,-25.66197],[-43.12543,-25.65936],[-43.12543,-25.65676],[-43.12543,-25.65416],[-43.12543,-25.65155],[-43.12543,-25.64895],[-43.12543,-25.64634],[-43.12543,-25.64374],[-43.12543,-25.64113],[-43.12543,-25.63853],[-43.12543,-25.63593],[-43.12543,-25.63332],[-43.12543,-25.63072],[-43.12543,-25.62811],[-43.12543,-25.62551],[-43.12803,-25.62551],[-43.13064,-25.62551],[-43.13324,-25.62551],[-43.13585,-25.62551],[-43.13845,-25.62551],[-43.14106,-25.62551],[-43.14366,-25.62551],[-43.14626,-25.62551],[-43.14887,-25.62551],[-43.15147,-25.62551],[-43.15408,-25.62551],[-43.15668,-25.62551],[-43.15928,-25.62551],[-43.16189,-25.62551],[-43.16449,-25.62551],[-43.1671,-25.62551],[-43.1697,-25.62551],[-43.17188,-25.62551],[-43.17188,-25.60417],[-43.11458,-25.60417],[-43.11458,-25.6276],[-43.04688,-25.6276],[-43.04688,-25.79427],[-43.16927,-25.79427],[-43.16927,-25.79218],[-43.1671,-25.79218],[-43.1671,-25.79218]]]]}},{"type":"Feature","properties":{"projeto":"Alto de Cabo Frio Central","fonte":"bloco_exploratorio","bacia":"Campos","operador":"Petróleo Brasileiro S.A. - PETROBRAS","rodada":"Partilha 3","assinatura":"31-01-2018","area_km2":3674.0},"geometry":{"type":"Polygon","coordinates":[[[-41.02865,-23.89583],[-41.02865,-23.91927],[-40.89323,-23.91927],[-40.89323,-23.89062],[-40.83333,-23.89062],[-40.83333,-23.85677],[-40.67708,-23.85677],[-40.67708,-23.9375],[-40.72135,-23.9375],[-40.72135,-23.96094],[-40.7474,-23.96094],[-40.7474,-24.11979],[-40.79167,-24.11979],[-40.79167,-24.14323],[-40.82292,-24.14323],[-40.82292,-24.16406],[-40.88542,-24.16406],[-40.88542,-24.22135],[-40.9401,-24.22135],[-40.9401,-24.40625],[-41.05469,-24.40625],[-41.05469,-24.4375],[-41.0651,-24.4375],[-41.0651,-24.45573],[-41.10156,-24.45573],[-41.10156,-24.46354],[-41.14844,-24.46354],[-41.14844,-24.49219],[-41.17708,-24.49219],[-41.17708,-24.5026],[-41.2474,-24.5026],[-41.2474,-24.54427],[-41.38281,-24.54427],[-41.38281,-24.4349],[-41.33333,-24.4349],[-41.33333,-24.24479],[-41.40104,-24.24479],[-41.40104,-24.21875],[-41.46094,-24.21875],[-41.46094,-24.08854],[-41.49479,-24.08854],[-41.49479,-23.9375],[-41.15625,-23.9375],[-41.15625,-23.89583],[-41.02865,-23.89583]]]}},{"type":"Feature","properties":{"projeto":"Uirapuru","fonte":"bloco_exploratorio","bacia":"Santos","operador":"Petróleo Brasileiro S.A. - PETROBRAS","rodada":"Partilha 4","assinatura":"17-12-2018","area_km2":1285.0},"geometry":{"type":"Polygon","coordinates":[[[-43.83854,-25.20833],[-43.83854,-25.33333],[-43.90885,-25.33333],[-43.90885,-25.25],[-43.96875,-25.25],[-43.96875,-24.97656],[-44.00521,-24.97656],[-44.00521,-24.90885],[-43.9349,-24.90885],[-43.9349,-24.79688],[-43.71354,-24.79688],[-43.71354,-25.20833],[-43.83854,-25.20833]]]}},{"type":"Feature","properties":{"projeto":"Sudoeste de Tartaruga Verde","fonte":"bloco_exploratorio","bacia":"Campos","operador":"Petróleo Brasileiro S.A. - PETROBRAS","rodada":"Partilha 5","assinatura":"17-12-2018","area_km2":123.0},"geometry":{"type":"Polygon","coordinates":[[[-40.79167,-22.96875],[-40.79167,-22.95312],[-40.7504,-22.95312],[-40.7504,-22.95573],[-40.7504,-22.95833],[-40.7504,-22.96094],[-40.7504,-22.96354],[-40.7504,-22.96615],[-40.7504,-22.96875],[-40.7504,-22.97135],[-40.7504,-22.97396],[-40.7504,-22.97656],[-40.7504,-22.97917],[-40.7504,-22.98177],[-40.7504,-22.98488],[-40.753,-22.98488],[-40.753,-22.98748],[-40.75561,-22.98748],[-40.75561,-22.99009],[-40.75821,-22.99009],[-40.76082,-22.99009],[-40.76082,-22.99269],[-40.76342,-22.99269],[-40.76342,-22.99529],[-40.76603,-22.99529],[-40.76603,-22.9979],[-40.76863,-22.9979],[-40.76863,-23.0005],[-40.77123,-23.0005],[-40.77123,-23.00311],[-40.77384,-23.00311],[-40.77384,-23.00571],[-40.77384,-23.00832],[-40.77123,-23.00832],[-40.76863,-23.00832],[-40.76603,-23.00832],[-40.76603,-23.01092],[-40.76342,-23.01092],[-40.76082,-23.01092],[-40.75821,-23.01092],[-40.75561,-23.01092],[-40.75561,-23.00832],[-40.753,-23.00832],[-40.753,-23.00571],[-40.7504,-23.00571],[-40.7504,-23.00311],[-40.7478,-23.00311],[-40.74519,-23.00311],[-40.74519,-23.0005],[-40.74259,-23.0005],[-40.73998,-23.0005],[-40.73738,-23.0005],[-40.73478,-23.0005],[-40.73217,-23.0005],[-40.72957,-23.0005],[-40.72696,-23.0005],[-40.72436,-23.0005],[-40.72175,-23.0005],[-40.71915,-23.0005],[-40.71655,-23.0005],[-40.71394,-23.0005],[-40.71134,-23.0005],[-40.70873,-23.0005],[-40.70613,-23.0005],[-40.70352,-23.0005],[-40.70092,-23.0005],[-40.69832,-23.0005],[-40.69571,-23.0005],[-40.69311,-23.0005],[-40.6905,-23.0005],[-40.6875,-23.0005],[-40.6875,-23.01302],[-40.69271,-23.01302],[-40.69271,-23.02604],[-40.70052,-23.02604],[-40.70052,-23.03385],[-40.71094,-23.03385],[-40.71094,-23.03646],[-40.72135,-23.03646],[-40.72135,-23.04427],[-40.72917,-23.04427],[-40.72917,-23.05208],[-40.73698,-23.05208],[-40.73698,-23.05729],[-40.7474,-23.05729],[-40.7474,-23.06771],[-40.75781,-23.06771],[-40.75781,-23.07552],[-40.84115,-23.07552],[-40.84115,-23.02083],[-40.83073,-23.02083],[-40.83073,-23.01302],[-40.82031,-23.01302],[-40.82031,-23.00781],[-40.8099,-23.00781],[-40.8099,-22.98698],[-40.79948,-22.98698],[-40.79948,-22.96875],[-40.79167,-22.96875]]]}},{"type":"Feature","properties":{"projeto":"Aram","fonte":"bloco_exploratorio","bacia":"Santos","operador":"Petróleo Brasileiro S.A. - PETROBRAS","rodada":"Partilha 6","assinatura":"30-03-2020","area_km2":4476.0},"geometry":{"type":"Polygon","coordinates":[[[-44.50044,-25.2505],[-44.50044,-25.25],[-44.41927,-25.25],[-44.41927,-25.45833],[-44.37544,-25.45833],[-44.37544,-25.46094],[-44.37544,-25.46354],[-44.37544,-25.46615],[-44.37544,-25.46875],[-44.37544,-25.47135],[-44.37544,-25.47396],[-44.37544,-25.47656],[-44.37544,-25.47917],[-44.37544,-25.48177],[-44.37544,-25.48438],[-44.37544,-25.48698],[-44.37544,-25.48958],[-44.37544,-25.49219],[-44.37544,-25.49479],[-44.37544,-25.4974],[-44.37544,-25.5],[-44.37544,-25.5026],[-44.37544,-25.50521],[-44.37544,-25.50781],[-44.37544,-25.51042],[-44.37544,-25.51302],[-44.37544,-25.51562],[-44.37544,-25.51823],[-44.37544,-25.52083],[-44.37544,-25.52344],[-44.37544,-25.52604],[-44.37544,-25.52865],[-44.37544,-25.53125],[-44.37544,-25.53385],[-44.37544,-25.53646],[-44.37544,-25.53906],[-44.37544,-25.54167],[-44.37544,-25.54427],[-44.37544,-25.54688],[-44.37544,-25.54948],[-44.37544,-25.55208],[-44.37544,-25.55469],[-44.37544,-25.55729],[-44.37544,-25.5599],[-44.37544,-25.5625],[-44.37544,-25.5651],[-44.37544,-25.56771],[-44.37544,-25.57031],[-44.37544,-25.57292],[-44.37544,-25.57552],[-44.37544,-25.57812],[-44.37544,-25.58073],[-44.37544,-25.58333],[-44.37544,-25.58594],[-44.37544,-25.58854],[-44.37544,-25.59115],[-44.37544,-25.59375],[-44.37544,-25.59635],[-44.37544,-25.59896],[-44.37544,-25.60156],[-44.37544,-25.60417],[-44.37544,-25.60677],[-44.37544,-25.60938],[-44.37544,-25.61198],[-44.37544,-25.61458],[-44.37544,-25.61719],[-44.37544,-25.61979],[-44.37544,-25.6224],[-44.37544,-25.62551],[-44.37284,-25.62551],[-44.37023,-25.62551],[-44.36763,-25.62551],[-44.36502,-25.62551],[-44.36242,-25.62551],[-44.35982,-25.62551],[-44.35721,-25.62551],[-44.35461,-25.62551],[-44.352,-25.62551],[-44.3494,-25.62551],[-44.3468,-25.62551],[-44.34419,-25.62551],[-44.34159,-25.62551],[-44.33898,-25.62551],[-44.33638,-25.62551],[-44.33377,-25.62551],[-44.33117,-25.62551],[-44.32857,-25.62551],[-44.32596,-25.62551],[-44.32336,-25.62551],[-44.32075,-25.62551],[-44.31815,-25.62551],[-44.31555,-25.62551],[-44.31294,-25.62551],[-44.31294,-25.62811],[-44.31294,-25.63071],[-44.31294,-25.63332],[-44.31294,-25.63592],[-44.31294,-25.63853],[-44.31294,-25.64113],[-44.31294,-25.64373],[-44.31294,-25.64634],[-44.31294,-25.64894],[-44.31294,-25.65155],[-44.31294,-25.65415],[-44.31294,-25.65676],[-44.31294,-25.65936],[-44.31294,-25.66196],[-44.31294,-25.66457],[-44.31294,-25.66717],[-44.31294,-25.66978],[-44.31294,-25.67238],[-44.31294,-25.67498],[-44.31294,-25.67759],[-44.31294,-25.68019],[-44.31294,-25.6828],[-44.31294,-25.6854],[-44.31294,-25.68801],[-44.31294,-25.69061],[-44.31294,-25.69321],[-44.31294,-25.69582],[-44.31294,-25.69842],[-44.31294,-25.70103],[-44.31294,-25.70363],[-44.31294,-25.70624],[-44.31294,-25.70884],[-44.3125,-25.70884],[-44.3125,-25.78906],[-44.52604,-25.78906],[-44.52604,-25.95833],[-45.1224,-25.95833],[-45.1224,-25.58333],[-44.9974,-25.58333],[-44.9974,-25.48438],[-44.8125,-25.48438],[-44.8125,-25.3776],[-44.67708,-25.3776],[-44.67708,-25.2505],[-44.67448,-25.2505],[-44.67188,-25.2505],[-44.66927,-25.2505],[-44.66667,-25.2505],[-44.66406,-25.2505],[-44.66146,-25.2505],[-44.65885,-25.2505],[-44.65625,-25.2505],[-44.65365,-25.2505],[-44.65104,-25.2505],[-44.64844,-25.2505],[-44.64583,-25.2505],[-44.64323,-25.2505],[-44.64062,-25.2505],[-44.63802,-25.2505],[-44.63542,-25.2505],[-44.63281,-25.2505],[-44.63021,-25.2505],[-44.6276,-25.2505],[-44.625,-25.2505],[-44.6224,-25.2505],[-44.61979,-25.2505],[-44.61719,-25.2505],[-44.61458,-25.2505],[-44.61198,-25.2505],[-44.60938,-25.2505],[-44.60677,-25.2505],[-44.60417,-25.2505],[-44.60156,-25.2505],[-44.59896,-25.2505],[-44.59635,-25.2505],[-44.59375,-25.2505],[-44.59115,-25.2505],[-44.58854,-25.2505],[-44.58594,-25.2505],[-44.58333,-25.2505],[-44.58073,-25.2505],[-44.57812,-25.2505],[-44.57552,-25.2505],[-44.57292,-25.2505],[-44.57031,-25.2505],[-44.56771,-25.2505],[-44.5651,-25.2505],[-44.5625,-25.2505],[-44.5599,-25.2505],[-44.55729,-25.2505],[-44.55469,-25.2505],[-44.55208,-25.2505],[-44.54948,-25.2505],[-44.54688,-25.2505],[-44.54427,-25.2505],[-44.54167,-25.2505],[-44.53906,-25.2505],[-44.53646,-25.2505],[-44.53385,-25.2505],[-44.53125,-25.2505],[-44.52865,-25.2505],[-44.52604,-25.2505],[-44.52344,-25.2505],[-44.52083,-25.2505],[-44.51823,-25.2505],[-44.51562,-25.2505],[-44.51302,-25.2505],[-44.51042,-25.2505],[-44.50781,-25.2505],[-44.50521,-25.2505],[-44.5026,-25.2505],[-44.50044,-25.2505]]]}},{"type":"Feature","properties":{"projeto":"Búzios","fonte":"campo_producao","bacia":"Santos","operador":"Petróleo Brasileiro S.A. - PETROBRAS","campos":"BÚZIOS, BÚZIOS_ECO","rodada":"Cessão Onerosa","inicio_producao":"01/09/2021","area_km2":1704.0},"geometry":{"type":"Polygon","coordinates":[[[-42.57334,-24.50051],[-42.57073,-24.50051],[-42.56813,-24.50051],[-42.56553,-24.50051],[-42.56292,-24.50051],[-42.56032,-24.50051],[-42.55771,-24.50051],[-42.55511,-24.50051],[-42.5525,-24.50051],[-42.5499,-24.50051],[-42.5473,-24.50051],[-42.54469,-24.50051],[-42.54209,-24.50051],[-42.53948,-24.50051],[-42.53688,-24.50051],[-42.53428,-24.50051],[-42.53167,-24.50051],[-42.52907,-24.50051],[-42.52646,-24.50051],[-42.52386,-24.50051],[-42.52125,-24.50051],[-42.51865,-24.50051],[-42.51605,-24.50051],[-42.51344,-24.50051],[-42.51084,-24.50051],[-42.50823,-24.50051],[-42.50563,-24.50051],[-42.50302,-24.50051],[-42.50042,-24.50051],[-42.49782,-24.50051],[-42.49521,-24.50051],[-42.49261,-24.50051],[-42.49,-24.50051],[-42.4874,-24.50051],[-42.4848,-24.50051],[-42.48219,-24.50051],[-42.47959,-24.50051],[-42.47698,-24.50051],[-42.47438,-24.50051],[-42.47177,-24.50051],[-42.46917,-24.50051],[-42.46657,-24.50051],[-42.46396,-24.50051],[-42.46136,-24.50051],[-42.45875,-24.50051],[-42.45615,-24.50051],[-42.45355,-24.50051],[-42.45094,-24.50051],[-42.44834,-24.50051],[-42.44573,-24.50051],[-42.44313,-24.50051],[-42.44052,-24.50051],[-42.43792,-24.50051],[-42.43532,-24.50051],[-42.43271,-24.50051],[-42.43011,-24.50051],[-42.4275,-24.50051],[-42.4249,-24.50051],[-42.4223,-24.50051],[-42.41969,-24.50051],[-42.41709,-24.50051],[-42.41448,-24.50051],[-42.41188,-24.50051],[-42.40927,-24.50051],[-42.40667,-24.50051],[-42.40667,-24.50311],[-42.40667,-24.50571],[-42.40667,-24.50832],[-42.40667,-24.51092],[-42.40667,-24.51353],[-42.40667,-24.51613],[-42.40667,-24.51874],[-42.40667,-24.52134],[-42.40667,-24.52394],[-42.40667,-24.52655],[-42.40667,-24.52915],[-42.40667,-24.53176],[-42.40667,-24.53436],[-42.40667,-24.53696],[-42.40667,-24.53957],[-42.40667,-24.54217],[-42.40667,-24.54478],[-42.40667,-24.54738],[-42.40667,-24.54999],[-42.40667,-24.55259],[-42.40667,-24.55519],[-42.40667,-24.5578],[-42.40667,-24.5604],[-42.40667,-24.56301],[-42.40667,-24.56561],[-42.40667,-24.56821],[-42.40667,-24.57082],[-42.40667,-24.57342],[-42.40667,-24.57603],[-42.40667,-24.57863],[-42.40667,-24.58124],[-42.40667,-24.58384],[-42.40667,-24.58644],[-42.40667,-24.58905],[-42.40667,-24.59165],[-42.40667,-24.59426],[-42.40667,-24.59686],[-42.40667,-24.59946],[-42.40667,-24.60207],[-42.40667,-24.60467],[-42.40667,-24.60728],[-42.40667,-24.60988],[-42.40667,-24.61249],[-42.40667,-24.61509],[-42.40667,-24.61769],[-42.40667,-24.6203],[-42.40667,-24.6229],[-42.40667,-24.62551],[-42.40667,-24.62811],[-42.40667,-24.63071],[-42.40407,-24.63071],[-42.40146,-24.63071],[-42.39886,-24.63071],[-42.39625,-24.63071],[-42.39625,-24.63332],[-42.39625,-24.63592],[-42.39625,-24.63853],[-42.39625,-24.64113],[-42.39625,-24.64374],[-42.39625,-24.64634],[-42.39625,-24.64894],[-42.39365,-24.64894],[-42.39105,-24.64894],[-42.38844,-24.64894],[-42.38584,-24.64894],[-42.38584,-24.65155],[-42.38584,-24.65415],[-42.38584,-24.65676],[-42.38584,-24.65936],[-42.38584,-24.66197],[-42.38584,-24.66457],[-42.38584,-24.66717],[-42.38323,-24.66717],[-42.38063,-24.66717],[-42.37802,-24.66717],[-42.37802,-24.66978],[-42.37802,-24.67238],[-42.37802,-24.67499],[-42.37542,-24.67499],[-42.37282,-24.67499],[-42.37021,-24.67499],[-42.36761,-24.67499],[-42.365,-24.67499],[-42.3624,-24.67499],[-42.3598,-24.67499],[-42.35719,-24.67499],[-42.35459,-24.67499],[-42.35198,-24.67499],[-42.35198,-24.67759],[-42.35198,-24.68019],[-42.35198,-24.6828],[-42.35198,-24.6854],[-42.35198,-24.68801],[-42.35198,-24.69061],[-42.35198,-24.69322],[-42.35198,-24.69582],[-42.34938,-24.69582],[-42.34677,-24.69582],[-42.34417,-24.69582],[-42.34157,-24.69582],[-42.33896,-24.69582],[-42.33636,-24.69582],[-42.33375,-24.69582],[-42.33115,-24.69582],[-42.32854,-24.69582],[-42.32594,-24.69582],[-42.32334,-24.69582],[-42.32334,-24.69842],[-42.32334,-24.70103],[-42.32334,-24.70363],[-42.32334,-24.70624],[-42.32334,-24.70884],[-42.32334,-24.71144],[-42.32073,-24.71144],[-42.31813,-24.71144],[-42.31552,-24.71144],[-42.31292,-24.71144],[-42.31292,-24.71405],[-42.31292,-24.71665],[-42.31292,-24.71926],[-42.31292,-24.72186],[-42.31292,-24.72447],[-42.31292,-24.72707],[-42.31292,-24.72967],[-42.31292,-24.73228],[-42.31292,-24.73488],[-42.31292,-24.73749],[-42.31292,-24.74009],[-42.31292,-24.74269],[-42.31292,-24.7453],[-42.31292,-24.7479],[-42.31292,-24.75051],[-42.31292,-24.75311],[-42.31292,-24.75572],[-42.31292,-24.75832],[-42.31292,-24.76092],[-42.31292,-24.76353],[-42.31292,-24.76613],[-42.31292,-24.76874],[-42.31292,-24.77134],[-42.31552,-24.77134],[-42.31813,-24.77134],[-42.32073,-24.77134],[-42.32334,-24.77134],[-42.32594,-24.77134],[-42.32855,-24.77134],[-42.32855,-24.77394],[-42.32855,-24.77655],[-42.32855,-24.77915],[-42.32855,-24.78176],[-42.32855,-24.78436],[-42.32855,-24.78697],[-42.32855,-24.78957],[-42.32855,-24.79217],[-42.33115,-24.79217],[-42.33375,-24.79217],[-42.33636,-24.79217],[-42.33896,-24.79217],[-42.34157,-24.79217],[-42.34417,-24.79217],[-42.34677,-24.79217],[-42.34938,-24.79217],[-42.35198,-24.79217],[-42.35459,-24.79217],[-42.35719,-24.79217],[-42.3598,-24.79217],[-42.3624,-24.79217],[-42.365,-24.79217],[-42.36761,-24.79217],[-42.37021,-24.79217],[-42.37282,-24.79217],[-42.37282,-24.78957],[-42.37282,-24.78697],[-42.37282,-24.78436],[-42.37282,-24.78176],[-42.37282,-24.77915],[-42.37282,-24.77655],[-42.37282,-24.77394],[-42.37282,-24.77134],[-42.37282,-24.76874],[-42.37282,-24.76613],[-42.37282,-24.76353],[-42.37282,-24.76092],[-42.37282,-24.75832],[-42.37282,-24.75572],[-42.37542,-24.75572],[-42.37802,-24.75572],[-42.38063,-24.75572],[-42.38323,-24.75572],[-42.38584,-24.75572],[-42.38844,-24.75572],[-42.39105,-24.75572],[-42.39365,-24.75572],[-42.39625,-24.75572],[-42.39886,-24.75572],[-42.40146,-24.75572],[-42.40146,-24.75832],[-42.40146,-24.76092],[-42.40146,-24.76353],[-42.40146,-24.76613],[-42.40146,-24.76874],[-42.40146,-24.77134],[-42.40146,-24.77394],[-42.40407,-24.77394],[-42.40667,-24.77394],[-42.40927,-24.77394],[-42.41188,-24.77394],[-42.41188,-24.77655],[-42.41188,-24.77915],[-42.41188,-24.78176],[-42.41188,-24.78436],[-42.41188,-24.78697],[-42.41188,-24.78957],[-42.41188,-24.79217],[-42.41448,-24.79217],[-42.41709,-24.79217],[-42.41969,-24.79217],[-42.4223,-24.79217],[-42.4249,-24.79217],[-42.4275,-24.79217],[-42.43011,-24.79217],[-42.43271,-24.79217],[-42.43271,-24.79478],[-42.43271,-24.79738],[-42.43271,-24.79999],[-42.43271,-24.80259],[-42.43271,-24.80519],[-42.43271,-24.8078],[-42.43271,-24.8104],[-42.43271,-24.81301],[-42.43271,-24.81561],[-42.43271,-24.81822],[-42.43532,-24.81822],[-42.43792,-24.81822],[-42.44053,-24.81822],[-42.44313,-24.81822],[-42.44313,-24.82082],[-42.44313,-24.82342],[-42.44313,-24.82603],[-42.44313,-24.82863],[-42.44313,-24.83124],[-42.44313,-24.83384],[-42.44313,-24.83644],[-42.44313,-24.83905],[-42.44313,-24.84165],[-42.44313,-24.84426],[-42.44313,-24.84686],[-42.44313,-24.84947],[-42.44313,-24.85207],[-42.44573,-24.85207],[-42.44834,-24.85207],[-42.45094,-24.85207],[-42.45355,-24.85207],[-42.45615,-24.85207],[-42.45875,-24.85207],[-42.46136,-24.85207],[-42.46396,-24.85207],[-42.46657,-24.85207],[-42.46917,-24.85207],[-42.47178,-24.85207],[-42.47438,-24.85207],[-42.47698,-24.85207],[-42.47959,-24.85207],[-42.48219,-24.85207],[-42.4848,-24.85207],[-42.4874,-24.85207],[-42.49001,-24.85207],[-42.49261,-24.85207],[-42.49521,-24.85207],[-42.49782,-24.85207],[-42.49782,-24.85467],[-42.49782,-24.85728],[-42.49782,-24.85988],[-42.49782,-24.86249],[-42.50042,-24.86249],[-42.50303,-24.86249],[-42.50563,-24.86249],[-42.50823,-24.86249],[-42.51084,-24.86249],[-42.51344,-24.86249],[-42.51605,-24.86249],[-42.51865,-24.86249],[-42.52126,-24.86249],[-42.52386,-24.86249],[-42.52646,-24.86249],[-42.52907,-24.86249],[-42.53167,-24.86249],[-42.53167,-24.85988],[-42.53428,-24.85988],[-42.53688,-24.85988],[-42.53948,-24.85988],[-42.53948,-24.85728],[-42.53948,-24.85467],[-42.53948,-24.85207],[-42.53948,-24.84947],[-42.53948,-24.84686],[-42.53948,-24.84426],[-42.53948,-24.84165],[-42.53948,-24.83905],[-42.53948,-24.83644],[-42.53948,-24.83384],[-42.53948,-24.83124],[-42.53948,-24.82863],[-42.53948,-24.82603],[-42.53948,-24.82342],[-42.53948,-24.82082],[-42.53948,-24.81822],[-42.53948,-24.81561],[-42.53948,-24.81301],[-42.53948,-24.8104],[-42.53948,-24.8078],[-42.53948,-24.80519],[-42.53948,-24.80259],[-42.53948,-24.79999],[-42.53948,-24.79738],[-42.53948,-24.79478],[-42.53948,-24.79217],[-42.53948,-24.78957],[-42.53948,-24.78697],[-42.53948,-24.78436],[-42.53948,-24.78176],[-42.53948,-24.77915],[-42.53948,-24.77655],[-42.53948,-24.77394],[-42.53948,-24.77134],[-42.53948,-24.76874],[-42.53948,-24.76613],[-42.53948,-24.76353],[-42.53948,-24.76092],[-42.53948,-24.75832],[-42.53948,-24.75572],[-42.53948,-24.75311],[-42.53948,-24.75051],[-42.53948,-24.7479],[-42.53948,-24.7453],[-42.53948,-24.74269],[-42.53948,-24.74009],[-42.53948,-24.73749],[-42.53948,-24.73488],[-42.53948,-24.73228],[-42.53948,-24.72967],[-42.53948,-24.72707],[-42.54209,-24.72707],[-42.54469,-24.72707],[-42.5473,-24.72707],[-42.5473,-24.72446],[-42.5473,-24.72186],[-42.5473,-24.71926],[-42.5473,-24.71665],[-42.5473,-24.71405],[-42.5473,-24.71144],[-42.5473,-24.70884],[-42.5473,-24.70624],[-42.5499,-24.70624],[-42.55251,-24.70624],[-42.55511,-24.70624],[-42.55771,-24.70624],[-42.55771,-24.70363],[-42.55771,-24.70103],[-42.55771,-24.69842],[-42.55771,-24.69582],[-42.55771,-24.69321],[-42.55771,-24.69061],[-42.55771,-24.68801],[-42.55771,-24.6854],[-42.56032,-24.6854],[-42.56292,-24.6854],[-42.56553,-24.6854],[-42.56813,-24.6854],[-42.57073,-24.6854],[-42.57334,-24.6854],[-42.57594,-24.6854],[-42.57855,-24.6854],[-42.58115,-24.6854],[-42.58376,-24.6854],[-42.58636,-24.6854],[-42.58896,-24.6854],[-42.59157,-24.6854],[-42.59417,-24.6854],[-42.59678,-24.6854],[-42.59938,-24.6854],[-42.60198,-24.6854],[-42.60459,-24.6854],[-42.60719,-24.6854],[-42.6098,-24.6854],[-42.6124,-24.6854],[-42.61501,-24.6854],[-42.61761,-24.6854],[-42.62021,-24.6854],[-42.62282,-24.6854],[-42.62542,-24.6854],[-42.62542,-24.6828],[-42.62542,-24.68019],[-42.62542,-24.67759],[-42.62542,-24.67499],[-42.62542,-24.67238],[-42.62542,-24.66978],[-42.62542,-24.66717],[-42.62803,-24.66717],[-42.63063,-24.66717],[-42.63323,-24.66717],[-42.63584,-24.66717],[-42.63844,-24.66717],[-42.64105,-24.66717],[-42.64365,-24.66717],[-42.64626,-24.66717],[-42.64886,-24.66717],[-42.64886,-24.66457],[-42.64886,-24.66196],[-42.64886,-24.65936],[-42.64886,-24.65676],[-42.64886,-24.65415],[-42.64886,-24.65155],[-42.64886,-24.64894],[-42.65146,-24.64894],[-42.65407,-24.64894],[-42.65667,-24.64894],[-42.65928,-24.64894],[-42.66188,-24.64894],[-42.66188,-24.64634],[-42.66188,-24.64374],[-42.66188,-24.64113],[-42.66188,-24.63853],[-42.66188,-24.63592],[-42.66188,-24.63332],[-42.66188,-24.63071],[-42.66188,-24.62811],[-42.66188,-24.62551],[-42.66188,-24.6229],[-42.66188,-24.6203],[-42.66188,-24.61769],[-42.66188,-24.61509],[-42.66188,-24.61248],[-42.66449,-24.61248],[-42.66709,-24.61248],[-42.66969,-24.61248],[-42.6723,-24.61248],[-42.6723,-24.60988],[-42.6723,-24.60728],[-42.6723,-24.60467],[-42.6723,-24.60207],[-42.6723,-24.59946],[-42.6723,-24.59686],[-42.6749,-24.59686],[-42.67751,-24.59686],[-42.68011,-24.59686],[-42.68271,-24.59686],[-42.68532,-24.59686],[-42.68792,-24.59686],[-42.68792,-24.59426],[-42.68792,-24.59165],[-42.68792,-24.58905],[-42.68792,-24.58644],[-42.68792,-24.58384],[-42.68792,-24.58123],[-42.68792,-24.57863],[-42.68792,-24.57603],[-42.68792,-24.57342],[-42.68792,-24.57082],[-42.68792,-24.56821],[-42.69053,-24.56821],[-42.69313,-24.56821],[-42.69574,-24.56821],[-42.69834,-24.56821],[-42.70094,-24.56821],[-42.70094,-24.56561],[-42.70094,-24.56301],[-42.70094,-24.5604],[-42.70094,-24.5578],[-42.70094,-24.55519],[-42.70094,-24.55259],[-42.70094,-24.54998],[-42.70094,-24.54738],[-42.70094,-24.54478],[-42.70094,-24.54217],[-42.70094,-24.53957],[-42.70094,-24.53696],[-42.70094,-24.53436],[-42.69834,-24.53436],[-42.69574,-24.53436],[-42.69313,-24.53436],[-42.69053,-24.53436],[-42.68792,-24.53436],[-42.68532,-24.53436],[-42.68271,-24.53436],[-42.68011,-24.53436],[-42.67751,-24.53436],[-42.6749,-24.53436],[-42.6723,-24.53436],[-42.66969,-24.53436],[-42.66709,-24.53436],[-42.66448,-24.53436],[-42.66448,-24.53696],[-42.66448,-24.53957],[-42.66448,-24.54217],[-42.66448,-24.54478],[-42.66448,-24.54738],[-42.66448,-24.54998],[-42.66448,-24.55259],[-42.66188,-24.55259],[-42.65928,-24.55259],[-42.65667,-24.55259],[-42.65407,-24.55259],[-42.65407,-24.55519],[-42.65407,-24.5578],[-42.65407,-24.5604],[-42.65146,-24.5604],[-42.64886,-24.5604],[-42.64626,-24.5604],[-42.64365,-24.5604],[-42.64105,-24.5604],[-42.64105,-24.56301],[-42.64105,-24.56561],[-42.64105,-24.56821],[-42.64105,-24.57082],[-42.63844,-24.57082],[-42.63584,-24.57082],[-42.63323,-24.57082],[-42.63063,-24.57082],[-42.62803,-24.57082],[-42.62542,-24.57082],[-42.62282,-24.57082],[-42.62021,-24.57082],[-42.61761,-24.57082],[-42.61761,-24.56821],[-42.61761,-24.56561],[-42.61761,-24.56301],[-42.61761,-24.5604],[-42.61761,-24.5578],[-42.61761,-24.55519],[-42.61761,-24.55259],[-42.61761,-24.54998],[-42.61761,-24.54738],[-42.61761,-24.54478],[-42.61761,-24.54217],[-42.62021,-24.54217],[-42.62282,-24.54217],[-42.62542,-24.54217],[-42.62803,-24.54217],[-42.63063,-24.54217],[-42.63323,-24.54217],[-42.63584,-24.54217],[-42.63584,-24.53957],[-42.63584,-24.53696],[-42.63584,-24.53436],[-42.63584,-24.53176],[-42.63584,-24.52915],[-42.63584,-24.52655],[-42.63584,-24.52394],[-42.63584,-24.52134],[-42.63584,-24.51873],[-42.63584,-24.51613],[-42.63584,-24.51353],[-42.63323,-24.51353],[-42.63063,-24.51353],[-42.62803,-24.51353],[-42.62542,-24.51353],[-42.62282,-24.51353],[-42.62021,-24.51353],[-42.61761,-24.51353],[-42.61501,-24.51353],[-42.6124,-24.51353],[-42.6098,-24.51353],[-42.60719,-24.51353],[-42.60459,-24.51353],[-42.60198,-24.51353],[-42.59938,-24.51353],[-42.59678,-24.51353],[-42.59417,-24.51353],[-42.59157,-24.51353],[-42.58896,-24.51353],[-42.58636,-24.51353],[-42.58375,-24.51353],[-42.58115,-24.51353],[-42.57855,-24.51353],[-42.57594,-24.51353],[-42.57334,-24.51353],[-42.57334,-24.51092],[-42.57334,-24.50832],[-42.57334,-24.50571],[-42.57334,-24.50311],[-42.57334,-24.50051],[-42.57334,-24.50051]]]}},{"type":"Feature","properties":{"projeto":"Itapu","fonte":"campo_producao","bacia":"Santos","operador":"Petróleo Brasileiro S.A. - PETROBRAS","campos":"ITAPU, ITAPU_ECO","rodada":"Cessão Onerosa","inicio_producao":"","area_km2":294.0},"geometry":{"type":"Polygon","coordinates":[[[-42.66969,-24.83644],[-42.6723,-24.83644],[-42.6749,-24.83644],[-42.6749,-24.83905],[-42.6749,-24.84165],[-42.6749,-24.84426],[-42.6749,-24.84686],[-42.6749,-24.84947],[-42.6749,-24.85207],[-42.6749,-24.85467],[-42.67751,-24.85467],[-42.68011,-24.85467],[-42.68272,-24.85467],[-42.68532,-24.85467],[-42.68792,-24.85467],[-42.68792,-24.85728],[-42.68792,-24.85988],[-42.68792,-24.86249],[-42.68792,-24.86509],[-42.69053,-24.86509],[-42.69313,-24.86509],[-42.69574,-24.86509],[-42.69834,-24.86509],[-42.70094,-24.86509],[-42.70355,-24.86509],[-42.70615,-24.86509],[-42.70876,-24.86509],[-42.71136,-24.86509],[-42.71397,-24.86509],[-42.71657,-24.86509],[-42.71917,-24.86509],[-42.72178,-24.86509],[-42.72438,-24.86509],[-42.72699,-24.86509],[-42.72959,-24.86509],[-42.72959,-24.86249],[-42.72959,-24.85988],[-42.72959,-24.85728],[-42.72959,-24.85467],[-42.72959,-24.85207],[-42.72959,-24.84947],[-42.72959,-24.84686],[-42.72959,-24.84426],[-42.73219,-24.84426],[-42.7348,-24.84426],[-42.7374,-24.84426],[-42.74001,-24.84426],[-42.74261,-24.84426],[-42.74261,-24.84165],[-42.74261,-24.83905],[-42.74261,-24.83644],[-42.74261,-24.83384],[-42.74261,-24.83124],[-42.74261,-24.82863],[-42.74261,-24.82603],[-42.74261,-24.82342],[-42.74261,-24.82082],[-42.74261,-24.81821],[-42.74261,-24.81561],[-42.74261,-24.81301],[-42.74261,-24.8104],[-42.74261,-24.8078],[-42.74261,-24.80519],[-42.74261,-24.80259],[-42.74261,-24.79999],[-42.74261,-24.79738],[-42.74261,-24.79478],[-42.74261,-24.79217],[-42.74261,-24.78957],[-42.74261,-24.78696],[-42.74261,-24.78436],[-42.74261,-24.78176],[-42.74261,-24.77915],[-42.74261,-24.77655],[-42.74261,-24.77394],[-42.74261,-24.77134],[-42.74261,-24.76874],[-42.74261,-24.76613],[-42.74261,-24.76353],[-42.74261,-24.76092],[-42.74261,-24.75832],[-42.74261,-24.75571],[-42.74261,-24.75311],[-42.74261,-24.75051],[-42.74261,-24.7479],[-42.74261,-24.7453],[-42.74261,-24.74269],[-42.74261,-24.74009],[-42.74261,-24.73749],[-42.74261,-24.73488],[-42.74261,-24.73228],[-42.74261,-24.72967],[-42.74261,-24.72707],[-42.74261,-24.72446],[-42.74261,-24.72186],[-42.74261,-24.71926],[-42.74261,-24.71665],[-42.74261,-24.71405],[-42.74261,-24.71144],[-42.74261,-24.70884],[-42.74261,-24.70624],[-42.74261,-24.70363],[-42.74261,-24.70103],[-42.74261,-24.69842],[-42.74261,-24.69582],[-42.74261,-24.69321],[-42.74261,-24.69061],[-42.74261,-24.68801],[-42.74261,-24.6854],[-42.74261,-24.6828],[-42.74261,-24.68019],[-42.74261,-24.67759],[-42.74261,-24.67498],[-42.74261,-24.67238],[-42.74261,-24.66978],[-42.74261,-24.66717],[-42.74001,-24.66717],[-42.7374,-24.66717],[-42.7348,-24.66717],[-42.7348,-24.66457],[-42.7348,-24.66196],[-42.7348,-24.65936],[-42.7348,-24.65676],[-42.73219,-24.65676],[-42.72959,-24.65676],[-42.72699,-24.65676],[-42.72438,-24.65676],[-42.72178,-24.65676],[-42.71917,-24.65676],[-42.71657,-24.65676],[-42.71396,-24.65676],[-42.71136,-24.65676],[-42.70876,-24.65676],[-42.70615,-24.65676],[-42.70355,-24.65676],[-42.70094,-24.65676],[-42.70094,-24.65936],[-42.70094,-24.66196],[-42.70094,-24.66457],[-42.70094,-24.66717],[-42.70094,-24.66978],[-42.70094,-24.67238],[-42.70094,-24.67499],[-42.70094,-24.67759],[-42.70094,-24.68019],[-42.70094,-24.6828],[-42.70094,-24.6854],[-42.70094,-24.68801],[-42.70094,-24.69061],[-42.70094,-24.69321],[-42.70094,-24.69582],[-42.69834,-24.69582],[-42.69574,-24.69582],[-42.69313,-24.69582],[-42.69053,-24.69582],[-42.68792,-24.69582],[-42.68792,-24.69842],[-42.68792,-24.70103],[-42.68792,-24.70363],[-42.68792,-24.70624],[-42.68792,-24.70884],[-42.68532,-24.70884],[-42.68271,-24.70884],[-42.68011,-24.70884],[-42.67751,-24.70884],[-42.6749,-24.70884],[-42.6723,-24.70884],[-42.66969,-24.70884],[-42.66969,-24.71144],[-42.66969,-24.71405],[-42.66969,-24.71665],[-42.66969,-24.71926],[-42.66969,-24.72186],[-42.66969,-24.72446],[-42.66969,-24.72707],[-42.66969,-24.72967],[-42.66969,-24.73228],[-42.66969,-24.73488],[-42.66969,-24.73749],[-42.66969,-24.74009],[-42.66969,-24.74269],[-42.66969,-24.7453],[-42.66969,-24.7479],[-42.66969,-24.75051],[-42.66969,-24.75311],[-42.66969,-24.75571],[-42.66969,-24.75832],[-42.66969,-24.76092],[-42.66969,-24.76353],[-42.66969,-24.76613],[-42.66969,-24.76874],[-42.66969,-24.77134],[-42.66969,-24.77394],[-42.66969,-24.77655],[-42.66969,-24.77915],[-42.66969,-24.78176],[-42.66969,-24.78436],[-42.66969,-24.78696],[-42.66969,-24.78957],[-42.66969,-24.79217],[-42.66969,-24.79478],[-42.66969,-24.79738],[-42.66969,-24.79999],[-42.66969,-24.80259],[-42.66969,-24.80519],[-42.66969,-24.8078],[-42.66969,-24.8104],[-42.66969,-24.81301],[-42.66969,-24.81561],[-42.66969,-24.81822],[-42.66969,-24.82082],[-42.66969,-24.82342],[-42.66969,-24.82603],[-42.66969,-24.82863],[-42.66969,-24.83124],[-42.66969,-24.83384],[-42.66969,-24.83644],[-42.66969,-24.83644]]]}},{"type":"Feature","properties":{"projeto":"Sépia","fonte":"campo_producao","bacia":"Santos","operador":"Petróleo Brasileiro S.A. - PETROBRAS","campos":"SÉPIA, SÉPIA LESTE, SÉPIA_ECO","rodada":"Cessão Onerosa","inicio_producao":"12-11-2015","area_km2":347.0},"geometry":{"type":"MultiPolygon","coordinates":[[[[-42.50042,-25.26042],[-42.50042,-25.25781],[-42.50042,-25.25521],[-42.50042,-25.2526],[-42.50042,-25.25],[-42.50042,-25.2474],[-42.50042,-25.24479],[-42.50042,-25.24219],[-42.50042,-25.23958],[-42.50042,-25.23698],[-42.50042,-25.23438],[-42.50042,-25.23177],[-42.50042,-25.22917],[-42.50042,-25.22656],[-42.50042,-25.22396],[-42.50042,-25.22135],[-42.50042,-25.21875],[-42.50042,-25.21615],[-42.50042,-25.21354],[-42.50042,-25.21094],[-42.50042,-25.20833],[-42.50042,-25.20573],[-42.50042,-25.20312],[-42.50042,-25.20052],[-42.50042,-25.19792],[-42.50042,-25.19531],[-42.50042,-25.19271],[-42.50042,-25.1901],[-42.50042,-25.1875],[-42.50042,-25.1849],[-42.50042,-25.18229],[-42.50042,-25.17969],[-42.50042,-25.17708],[-42.50042,-25.17448],[-42.50042,-25.17188],[-42.50042,-25.16927],[-42.50042,-25.16718],[-42.49782,-25.16718],[-42.49521,-25.16718],[-42.49261,-25.16718],[-42.49001,-25.16718],[-42.4874,-25.16718],[-42.4848,-25.16718],[-42.48219,-25.16718],[-42.47959,-25.16718],[-42.47699,-25.16718],[-42.47438,-25.16718],[-42.47178,-25.16718],[-42.46917,-25.16718],[-42.46657,-25.16718],[-42.46354,-25.16718],[-42.46354,-25.21615],[-42.46875,-25.21615],[-42.46875,-25.23438],[-42.47917,-25.23438],[-42.47917,-25.26042],[-42.50042,-25.26042],[-42.50042,-25.26042]]],[[[-42.46396,-25.15676],[-42.46657,-25.15676],[-42.46917,-25.15676],[-42.46917,-25.15936],[-42.46917,-25.16197],[-42.46917,-25.16457],[-42.46917,-25.16718],[-42.47178,-25.16718],[-42.47438,-25.16718],[-42.47699,-25.16718],[-42.47959,-25.16718],[-42.48219,-25.16718],[-42.4848,-25.16718],[-42.4874,-25.16718],[-42.49001,-25.16718],[-42.49261,-25.16718],[-42.49521,-25.16718],[-42.49782,-25.16718],[-42.50042,-25.16718],[-42.50042,-25.16978],[-42.50042,-25.17238],[-42.50042,-25.17499],[-42.50042,-25.17759],[-42.50042,-25.1802],[-42.50042,-25.1828],[-42.50042,-25.1854],[-42.50042,-25.18801],[-42.50042,-25.19061],[-42.50042,-25.19322],[-42.50042,-25.19582],[-42.50042,-25.19843],[-42.50042,-25.20103],[-42.50042,-25.20363],[-42.50042,-25.20624],[-42.50042,-25.20884],[-42.50042,-25.21145],[-42.50042,-25.21405],[-42.50042,-25.21665],[-42.50042,-25.21926],[-42.50042,-25.22186],[-42.50042,-25.22447],[-42.50042,-25.22707],[-42.50042,-25.22968],[-42.50042,-25.23228],[-42.50042,-25.23488],[-42.50042,-25.23749],[-42.50042,-25.24009],[-42.50042,-25.2427],[-42.50042,-25.2453],[-42.50042,-25.24791],[-42.50042,-25.25051],[-42.50042,-25.25311],[-42.50042,-25.25572],[-42.50042,-25.25832],[-42.50042,-25.26093],[-42.50042,-25.26353],[-42.50042,-25.26613],[-42.50303,-25.26613],[-42.50563,-25.26613],[-42.50563,-25.26874],[-42.50563,-25.27134],[-42.50563,-25.27395],[-42.50563,-25.27655],[-42.50563,-25.27916],[-42.50824,-25.27916],[-42.51084,-25.27916],[-42.51344,-25.27916],[-42.51344,-25.28176],[-42.51344,-25.28436],[-42.51344,-25.28697],[-42.51605,-25.28697],[-42.51865,-25.28697],[-42.52126,-25.28697],[-42.52386,-25.28697],[-42.52647,-25.28697],[-42.52647,-25.28957],[-42.52647,-25.29218],[-42.52647,-25.29478],[-42.52907,-25.29478],[-42.53167,-25.29478],[-42.53428,-25.29478],[-42.53688,-25.29478],[-42.53949,-25.29478],[-42.54209,-25.29478],[-42.54469,-25.29478],[-42.5473,-25.29478],[-42.5499,-25.29478],[-42.55251,-25.29478],[-42.55511,-25.29478],[-42.55511,-25.29218],[-42.55511,-25.28957],[-42.55772,-25.28957],[-42.56032,-25.28957],[-42.56292,-25.28957],[-42.56553,-25.28957],[-42.56813,-25.28957],[-42.57074,-25.28957],[-42.57334,-25.28957],[-42.57334,-25.28697],[-42.57334,-25.28436],[-42.57334,-25.28176],[-42.57334,-25.27915],[-42.57594,-25.27915],[-42.57855,-25.27915],[-42.58115,-25.27915],[-42.58376,-25.27915],[-42.58636,-25.27915],[-42.58897,-25.27915],[-42.59157,-25.27915],[-42.59417,-25.27915],[-42.59678,-25.27915],[-42.59938,-25.27915],[-42.60199,-25.27915],[-42.60199,-25.27655],[-42.60199,-25.27395],[-42.60199,-25.27134],[-42.60199,-25.26874],[-42.60199,-25.26613],[-42.60199,-25.26353],[-42.60199,-25.26093],[-42.60199,-25.25832],[-42.60199,-25.25572],[-42.59938,-25.25572],[-42.59678,-25.25572],[-42.59417,-25.25572],[-42.59157,-25.25572],[-42.59157,-25.25311],[-42.58897,-25.25311],[-42.58636,-25.25311],[-42.58636,-25.25051],[-42.58636,-25.2479],[-42.58376,-25.2479],[-42.58115,-25.2479],[-42.57855,-25.2479],[-42.57855,-25.2453],[-42.57855,-25.2427],[-42.57855,-25.24009],[-42.57855,-25.23749],[-42.57855,-25.23488],[-42.57855,-25.23228],[-42.57855,-25.22968],[-42.57855,-25.22707],[-42.57855,-25.22447],[-42.57855,-25.22186],[-42.57594,-25.22186],[-42.57334,-25.22186],[-42.57334,-25.21926],[-42.57074,-25.21926],[-42.56813,-25.21926],[-42.56813,-25.21665],[-42.56813,-25.21405],[-42.56813,-25.21145],[-42.57074,-25.21145],[-42.57334,-25.21145],[-42.57334,-25.20884],[-42.57334,-25.20624],[-42.57334,-25.20363],[-42.57594,-25.20363],[-42.57855,-25.20363],[-42.58115,-25.20363],[-42.58376,-25.20363],[-42.58636,-25.20363],[-42.58897,-25.20363],[-42.58897,-25.20103],[-42.58897,-25.19843],[-42.59157,-25.19843],[-42.59417,-25.19843],[-42.59678,-25.19843],[-42.59678,-25.19582],[-42.59678,-25.19322],[-42.59678,-25.19061],[-42.59678,-25.18801],[-42.59938,-25.18801],[-42.60199,-25.18801],[-42.60459,-25.18801],[-42.60459,-25.1854],[-42.60459,-25.1828],[-42.60459,-25.1802],[-42.60459,-25.17759],[-42.60459,-25.17499],[-42.60459,-25.17238],[-42.60459,-25.16978],[-42.60459,-25.16718],[-42.60459,-25.16457],[-42.60459,-25.16197],[-42.60459,-25.15936],[-42.60459,-25.15676],[-42.60459,-25.15415],[-42.60459,-25.15155],[-42.60199,-25.15155],[-42.59938,-25.15155],[-42.59678,-25.15155],[-42.59678,-25.14895],[-42.59678,-25.14634],[-42.59417,-25.14634],[-42.59417,-25.14374],[-42.59417,-25.14113],[-42.59417,-25.13853],[-42.59417,-25.13593],[-42.59417,-25.13332],[-42.59417,-25.13072],[-42.59157,-25.13072],[-42.58897,-25.13072],[-42.58636,-25.13072],[-42.58636,-25.12811],[-42.58636,-25.12551],[-42.58376,-25.12551],[-42.58115,-25.12551],[-42.57855,-25.12551],[-42.57594,-25.12551],[-42.57334,-25.12551],[-42.57074,-25.12551],[-42.56813,-25.12551],[-42.56553,-25.12551],[-42.56292,-25.12551],[-42.56032,-25.12551],[-42.55772,-25.12551],[-42.55511,-25.12551],[-42.55251,-25.12551],[-42.5499,-25.12551],[-42.5473,-25.12551],[-42.54469,-25.12551],[-42.54209,-25.12551],[-42.53949,-25.12551],[-42.53949,-25.12811],[-42.53949,-25.13072],[-42.53949,-25.13332],[-42.53949,-25.13593],[-42.53949,-25.13853],[-42.53949,-25.14113],[-42.53949,-25.14374],[-42.53949,-25.14634],[-42.53949,-25.14895],[-42.53949,-25.15155],[-42.53949,-25.15415],[-42.53949,-25.15676],[-42.53949,-25.15936],[-42.53949,-25.16197],[-42.53949,-25.16457],[-42.54209,-25.16457],[-42.54209,-25.16718],[-42.54209,-25.16978],[-42.54209,-25.17238],[-42.54209,-25.17499],[-42.54209,-25.17759],[-42.53949,-25.17759],[-42.53688,-25.17759],[-42.53428,-25.17759],[-42.53167,-25.17759],[-42.52907,-25.17759],[-42.52646,-25.17759],[-42.52386,-25.17759],[-42.52126,-25.17759],[-42.52126,-25.17499],[-42.52126,-25.17238],[-42.52126,-25.16978],[-42.51865,-25.16978],[-42.51605,-25.16978],[-42.51344,-25.16978],[-42.51344,-25.16718],[-42.51344,-25.16457],[-42.51344,-25.16197],[-42.51344,-25.15936],[-42.51344,-25.15676],[-42.51344,-25.15415],[-42.51084,-25.15415],[-42.50824,-25.15415],[-42.50563,-25.15415],[-42.50303,-25.15415],[-42.50303,-25.15155],[-42.50303,-25.14895],[-42.50303,-25.14634],[-42.50303,-25.14374],[-42.50042,-25.14374],[-42.49782,-25.14374],[-42.49521,-25.14374],[-42.49261,-25.14374],[-42.49261,-25.14113],[-42.49261,-25.13853],[-42.49261,-25.13593],[-42.49001,-25.13593],[-42.4874,-25.13593],[-42.4848,-25.13593],[-42.48219,-25.13593],[-42.47959,-25.13593],[-42.47699,-25.13593],[-42.47438,-25.13593],[-42.47178,-25.13593],[-42.46917,-25.13593],[-42.46657,-25.13593],[-42.46396,-25.13593],[-42.46396,-25.13853],[-42.46396,-25.14113],[-42.46396,-25.14374],[-42.46396,-25.14634],[-42.46396,-25.14895],[-42.46396,-25.15155],[-42.46396,-25.15415],[-42.46396,-25.15676],[-42.46396,-25.15676]]]]}},{"type":"Feature","properties":{"projeto":"Atapu","fonte":"campo_producao","bacia":"Santos","operador":"Petróleo Brasileiro S.A. - PETROBRAS","campos":"ATAPU, ATAPU_ECO","rodada":"Cessão Onerosa","inicio_producao":"01/05/2022","area_km2":458.0},"geometry":{"type":"Polygon","coordinates":[[[-42.57855,-24.83384],[-42.57594,-24.83384],[-42.57334,-24.83384],[-42.57073,-24.83384],[-42.56813,-24.83384],[-42.56553,-24.83384],[-42.56292,-24.83384],[-42.56292,-24.83644],[-42.56292,-24.83905],[-42.56292,-24.84165],[-42.56292,-24.84426],[-42.56292,-24.84686],[-42.56292,-24.84947],[-42.56292,-24.85207],[-42.56292,-24.85467],[-42.56292,-24.85728],[-42.56292,-24.85988],[-42.56292,-24.86249],[-42.56292,-24.86509],[-42.56292,-24.86769],[-42.56292,-24.8703],[-42.56292,-24.8729],[-42.56292,-24.87551],[-42.56032,-24.87551],[-42.55771,-24.87551],[-42.55511,-24.87551],[-42.55251,-24.87551],[-42.5499,-24.87551],[-42.5473,-24.87551],[-42.54469,-24.87551],[-42.54209,-24.87551],[-42.53948,-24.87551],[-42.53688,-24.87551],[-42.53428,-24.87551],[-42.53167,-24.87551],[-42.52907,-24.87551],[-42.52646,-24.87551],[-42.52386,-24.87551],[-42.52126,-24.87551],[-42.51865,-24.87551],[-42.51605,-24.87551],[-42.51344,-24.87551],[-42.51084,-24.87551],[-42.50823,-24.87551],[-42.50563,-24.87551],[-42.50303,-24.87551],[-42.50042,-24.87551],[-42.49782,-24.87551],[-42.49521,-24.87551],[-42.49261,-24.87551],[-42.49001,-24.87551],[-42.4874,-24.87551],[-42.4848,-24.87551],[-42.48219,-24.87551],[-42.47959,-24.87551],[-42.47698,-24.87551],[-42.47438,-24.87551],[-42.47178,-24.87551],[-42.46917,-24.87551],[-42.46657,-24.87551],[-42.46396,-24.87551],[-42.46136,-24.87551],[-42.46136,-24.87811],[-42.46136,-24.88072],[-42.46136,-24.88332],[-42.46136,-24.88592],[-42.46136,-24.88853],[-42.45875,-24.88853],[-42.45615,-24.88853],[-42.45355,-24.88853],[-42.45094,-24.88853],[-42.44834,-24.88853],[-42.44573,-24.88853],[-42.44313,-24.88853],[-42.44313,-24.89113],[-42.44313,-24.89374],[-42.44313,-24.89634],[-42.44313,-24.89895],[-42.44313,-24.90155],[-42.44313,-24.90415],[-42.44313,-24.90676],[-42.44313,-24.90936],[-42.44313,-24.91197],[-42.44313,-24.91457],[-42.44313,-24.91717],[-42.44313,-24.91978],[-42.44053,-24.91978],[-42.43792,-24.91978],[-42.43532,-24.91978],[-42.43271,-24.91978],[-42.43011,-24.91978],[-42.4275,-24.91978],[-42.4249,-24.91978],[-42.4223,-24.91978],[-42.41969,-24.91978],[-42.41969,-24.92238],[-42.41969,-24.92499],[-42.41969,-24.92759],[-42.41709,-24.92759],[-42.41448,-24.92759],[-42.41188,-24.92759],[-42.40928,-24.92759],[-42.40928,-24.9302],[-42.40928,-24.9328],[-42.40928,-24.9354],[-42.40928,-24.93801],[-42.40667,-24.93801],[-42.40407,-24.93801],[-42.40407,-24.94061],[-42.40407,-24.94322],[-42.40407,-24.94582],[-42.40146,-24.94582],[-42.39886,-24.94582],[-42.39625,-24.94582],[-42.39365,-24.94582],[-42.39105,-24.94582],[-42.39105,-24.94842],[-42.39105,-24.95103],[-42.39105,-24.95363],[-42.38844,-24.95363],[-42.38584,-24.95363],[-42.38323,-24.95363],[-42.38063,-24.95363],[-42.37803,-24.95363],[-42.37542,-24.95363],[-42.37542,-24.95624],[-42.37542,-24.95884],[-42.37542,-24.96145],[-42.37542,-24.96405],[-42.37542,-24.96665],[-42.37542,-24.96926],[-42.37542,-24.97186],[-42.37542,-24.97447],[-42.37542,-24.97707],[-42.37542,-24.97967],[-42.37542,-24.98228],[-42.37542,-24.98488],[-42.37542,-24.98749],[-42.37542,-24.99009],[-42.37542,-24.9927],[-42.37542,-24.9953],[-42.37542,-24.9979],[-42.37542,-25.00051],[-42.37542,-25.00311],[-42.37542,-25.00572],[-42.37542,-25.00832],[-42.37542,-25.01093],[-42.37542,-25.01353],[-42.37542,-25.01613],[-42.37542,-25.01874],[-42.37542,-25.02134],[-42.37542,-25.02395],[-42.37542,-25.02655],[-42.37542,-25.02915],[-42.37542,-25.03176],[-42.37542,-25.03436],[-42.37542,-25.03697],[-42.37542,-25.03957],[-42.37542,-25.04218],[-42.37803,-25.04218],[-42.38063,-25.04218],[-42.38323,-25.04218],[-42.38584,-25.04218],[-42.38844,-25.04218],[-42.39105,-25.04218],[-42.39365,-25.04218],[-42.39625,-25.04218],[-42.39886,-25.04218],[-42.40146,-25.04218],[-42.40407,-25.04218],[-42.40667,-25.04218],[-42.40928,-25.04218],[-42.41188,-25.04218],[-42.41448,-25.04218],[-42.41709,-25.04218],[-42.41969,-25.04218],[-42.4223,-25.04218],[-42.4249,-25.04218],[-42.4249,-25.03957],[-42.4249,-25.03697],[-42.4249,-25.03436],[-42.4249,-25.03176],[-42.42751,-25.03176],[-42.43011,-25.03176],[-42.43271,-25.03176],[-42.43532,-25.03176],[-42.43792,-25.03176],[-42.44053,-25.03176],[-42.44053,-25.02915],[-42.44053,-25.02655],[-42.44053,-25.02395],[-42.44053,-25.02134],[-42.44313,-25.02134],[-42.44573,-25.02134],[-42.44573,-25.01874],[-42.44573,-25.01613],[-42.44834,-25.01613],[-42.45094,-25.01613],[-42.45355,-25.01613],[-42.45615,-25.01613],[-42.45876,-25.01613],[-42.46136,-25.01613],[-42.46136,-25.01874],[-42.46136,-25.02134],[-42.46136,-25.02395],[-42.45876,-25.02395],[-42.45615,-25.02395],[-42.45615,-25.02655],[-42.45615,-25.02915],[-42.45615,-25.03176],[-42.45615,-25.03436],[-42.45615,-25.03697],[-42.45615,-25.03957],[-42.45615,-25.04218],[-42.45876,-25.04218],[-42.46136,-25.04218],[-42.46396,-25.04218],[-42.46657,-25.04218],[-42.46917,-25.04217],[-42.47178,-25.04217],[-42.47438,-25.04217],[-42.47698,-25.04217],[-42.47959,-25.04217],[-42.48219,-25.04217],[-42.4848,-25.04217],[-42.4874,-25.04217],[-42.49001,-25.04217],[-42.49261,-25.04217],[-42.49521,-25.04217],[-42.49782,-25.04217],[-42.50042,-25.04217],[-42.50042,-25.03957],[-42.50042,-25.03697],[-42.50042,-25.03436],[-42.50042,-25.03176],[-42.50042,-25.02915],[-42.50042,-25.02655],[-42.50042,-25.02395],[-42.50042,-25.02134],[-42.50042,-25.01874],[-42.50042,-25.01613],[-42.50042,-25.01353],[-42.50042,-25.01092],[-42.50042,-25.00832],[-42.50042,-25.00572],[-42.50042,-25.00311],[-42.50042,-25.00051],[-42.50042,-24.9979],[-42.50042,-24.9953],[-42.50042,-24.9927],[-42.50042,-24.99009],[-42.50042,-24.98749],[-42.50042,-24.98488],[-42.50042,-24.98228],[-42.50042,-24.97967],[-42.50042,-24.97707],[-42.50042,-24.97447],[-42.50042,-24.97186],[-42.50042,-24.96926],[-42.50042,-24.96665],[-42.50042,-24.96405],[-42.50042,-24.96145],[-42.50042,-24.95884],[-42.50042,-24.95624],[-42.50042,-24.95363],[-42.50042,-24.95103],[-42.50042,-24.94842],[-42.50042,-24.94582],[-42.50042,-24.94322],[-42.50042,-24.94061],[-42.50042,-24.93801],[-42.50042,-24.9354],[-42.50042,-24.9328],[-42.50042,-24.9302],[-42.50042,-24.92759],[-42.50042,-24.92499],[-42.50042,-24.92238],[-42.50042,-24.91978],[-42.50042,-24.91717],[-42.50303,-24.91717],[-42.50563,-24.91717],[-42.50823,-24.91717],[-42.51084,-24.91717],[-42.51344,-24.91717],[-42.51605,-24.91717],[-42.51865,-24.91717],[-42.52126,-24.91717],[-42.52386,-24.91717],[-42.52646,-24.91717],[-42.52907,-24.91717],[-42.53167,-24.91717],[-42.53428,-24.91717],[-42.53688,-24.91717],[-42.53948,-24.91717],[-42.54209,-24.91717],[-42.54469,-24.91717],[-42.5473,-24.91717],[-42.5499,-24.91717],[-42.55251,-24.91717],[-42.55511,-24.91717],[-42.55771,-24.91717],[-42.55771,-24.91457],[-42.55771,-24.91197],[-42.55771,-24.90936],[-42.56032,-24.90936],[-42.56292,-24.90936],[-42.56553,-24.90936],[-42.56813,-24.90936],[-42.57074,-24.90936],[-42.57074,-24.90676],[-42.57074,-24.90415],[-42.57334,-24.90415],[-42.57594,-24.90415],[-42.57855,-24.90415],[-42.58115,-24.90415],[-42.58115,-24.90155],[-42.58115,-24.89894],[-42.58115,-24.89634],[-42.58115,-24.89374],[-42.58376,-24.89374],[-42.58636,-24.89374],[-42.58896,-24.89374],[-42.59157,-24.89374],[-42.59417,-24.89374],[-42.59678,-24.89374],[-42.59678,-24.89113],[-42.59678,-24.88853],[-42.59678,-24.88592],[-42.59678,-24.88332],[-42.59678,-24.88072],[-42.59678,-24.87811],[-42.59678,-24.87551],[-42.59678,-24.8729],[-42.59678,-24.8703],[-42.59678,-24.86769],[-42.59678,-24.86509],[-42.59678,-24.86249],[-42.59678,-24.85988],[-42.59678,-24.85728],[-42.59678,-24.85467],[-42.59678,-24.85207],[-42.59417,-24.85207],[-42.59157,-24.85207],[-42.58896,-24.85207],[-42.58636,-24.85207],[-42.58376,-24.85207],[-42.58115,-24.85207],[-42.57855,-24.85207],[-42.57855,-24.84947],[-42.57855,-24.84686],[-42.57855,-24.84426],[-42.57855,-24.84165],[-42.57855,-24.83905],[-42.57855,-24.83644],[-42.57855,-24.83384],[-42.57855,-24.83384]]]}},{"type":"Feature","properties":{"projeto":"Água Marinha","fonte":"bloco_exploratorio","bacia":"Campos","operador":"Petróleo Brasileiro S.A. - PETROBRAS","rodada":"OPP1","assinatura":"31-05-2023","area_km2":1300.0},"geometry":{"type":"Polygon","coordinates":[[[-40.18529,-22.75311],[-40.18269,-22.75311],[-40.18008,-22.75311],[-40.17748,-22.75311],[-40.17487,-22.75311],[-40.17227,-22.75311],[-40.16966,-22.75311],[-40.16706,-22.75311],[-40.16446,-22.75311],[-40.16185,-22.75311],[-40.15925,-22.75311],[-40.15664,-22.75311],[-40.15404,-22.75311],[-40.15144,-22.75311],[-40.14883,-22.75311],[-40.14623,-22.75311],[-40.14362,-22.75311],[-40.14102,-22.75311],[-40.13841,-22.75311],[-40.13581,-22.75311],[-40.13321,-22.75311],[-40.1306,-22.75311],[-40.128,-22.75311],[-40.12539,-22.75311],[-40.12279,-22.75311],[-40.12019,-22.75311],[-40.11758,-22.75311],[-40.11498,-22.75311],[-40.11237,-22.75311],[-40.10977,-22.75311],[-40.10716,-22.75311],[-40.10456,-22.75311],[-40.10196,-22.75311],[-40.09935,-22.75311],[-40.09675,-22.75311],[-40.09414,-22.75311],[-40.09154,-22.75311],[-40.08894,-22.75311],[-40.08633,-22.75311],[-40.08373,-22.75311],[-40.08112,-22.75311],[-40.07852,-22.75311],[-40.07591,-22.75311],[-40.07331,-22.75311],[-40.07071,-22.75311],[-40.0681,-22.75311],[-40.0655,-22.75311],[-40.06289,-22.75311],[-40.06029,-22.75311],[-40.05768,-22.75311],[-40.05508,-22.75311],[-40.05248,-22.75311],[-40.04987,-22.75311],[-40.04727,-22.75311],[-40.04466,-22.75311],[-40.04206,-22.75311],[-40.03946,-22.75311],[-40.03685,-22.75311],[-40.03425,-22.75311],[-40.03164,-22.75311],[-40.02904,-22.75311],[-40.02643,-22.75311],[-40.02383,-22.75311],[-40.02123,-22.75311],[-40.01862,-22.75311],[-40.01602,-22.75311],[-40.01341,-22.75311],[-40.01081,-22.75311],[-40.00821,-22.75311],[-40.0056,-22.75311],[-40.003,-22.75311],[-40.00039,-22.75311],[-39.99779,-22.75311],[-39.99518,-22.75311],[-39.99258,-22.75311],[-39.98998,-22.75311],[-39.98737,-22.75311],[-39.98477,-22.75311],[-39.98216,-22.75311],[-39.97956,-22.75311],[-39.97695,-22.75311],[-39.97435,-22.75311],[-39.97175,-22.75311],[-39.96914,-22.75311],[-39.96654,-22.75311],[-39.96393,-22.75311],[-39.96133,-22.75311],[-39.95873,-22.75311],[-39.95612,-22.75311],[-39.95352,-22.75311],[-39.95091,-22.75311],[-39.94831,-22.75311],[-39.9457,-22.75311],[-39.9431,-22.75311],[-39.9405,-22.75311],[-39.93789,-22.75311],[-39.93529,-22.75311],[-39.93268,-22.75311],[-39.93008,-22.75311],[-39.92748,-22.75311],[-39.92487,-22.75311],[-39.92227,-22.75311],[-39.91966,-22.75311],[-39.91706,-22.75311],[-39.91445,-22.75311],[-39.91185,-22.75311],[-39.90925,-22.75311],[-39.90664,-22.75311],[-39.90404,-22.75311],[-39.90143,-22.75311],[-39.89883,-22.75311],[-39.89622,-22.75311],[-39.89362,-22.75311],[-39.89102,-22.75311],[-39.88841,-22.75311],[-39.88581,-22.75311],[-39.8832,-22.75311],[-39.8806,-22.75311],[-39.878,-22.75311],[-39.87539,-22.75311],[-39.87279,-22.75311],[-39.87018,-22.75311],[-39.86758,-22.75311],[-39.86497,-22.75311],[-39.86237,-22.75311],[-39.85977,-22.75311],[-39.85716,-22.75311],[-39.85456,-22.75311],[-39.85195,-22.75311],[-39.84935,-22.75311],[-39.84675,-22.75311],[-39.84414,-22.75311],[-39.84154,-22.75311],[-39.83893,-22.75311],[-39.83633,-22.75311],[-39.83372,-22.75311],[-39.83112,-22.75311],[-39.82852,-22.75311],[-39.82591,-22.75311],[-39.82331,-22.75311],[-39.8207,-22.75311],[-39.8181,-22.75311],[-39.8155,-22.75311],[-39.81289,-22.75311],[-39.81029,-22.75311],[-39.81029,-22.7526],[-39.8099,-22.7526],[-39.8099,-22.97135],[-40.3099,-22.97135],[-40.3099,-22.91977],[-40.31029,-22.91977],[-40.31029,-22.91717],[-40.31029,-22.91457],[-40.31029,-22.91196],[-40.31029,-22.90936],[-40.31029,-22.90675],[-40.31029,-22.90415],[-40.31029,-22.90155],[-40.31029,-22.89894],[-40.31029,-22.89634],[-40.31029,-22.89373],[-40.31029,-22.89113],[-40.31029,-22.88852],[-40.31029,-22.88592],[-40.31029,-22.88332],[-40.31029,-22.88071],[-40.31029,-22.87811],[-40.31029,-22.8755],[-40.31029,-22.8729],[-40.31029,-22.87029],[-40.31029,-22.86769],[-40.31029,-22.86509],[-40.31029,-22.86248],[-40.31029,-22.85988],[-40.31029,-22.85727],[-40.31029,-22.85467],[-40.31029,-22.85207],[-40.31029,-22.84946],[-40.31029,-22.84686],[-40.31029,-22.84425],[-40.31029,-22.84165],[-40.31029,-22.83904],[-40.31029,-22.83644],[-40.31029,-22.83384],[-40.31029,-22.83123],[-40.31029,-22.82863],[-40.31029,-22.82602],[-40.31029,-22.82342],[-40.31029,-22.82082],[-40.31029,-22.81821],[-40.31029,-22.81561],[-40.31029,-22.813],[-40.31029,-22.8104],[-40.31029,-22.80779],[-40.31029,-22.80519],[-40.31029,-22.80259],[-40.31029,-22.79998],[-40.31029,-22.79738],[-40.31029,-22.79477],[-40.31029,-22.79217],[-40.31029,-22.78957],[-40.31029,-22.78696],[-40.31029,-22.78436],[-40.31029,-22.78175],[-40.31029,-22.77915],[-40.31029,-22.77654],[-40.31029,-22.77394],[-40.31029,-22.77134],[-40.31029,-22.76873],[-40.31029,-22.76613],[-40.31029,-22.76352],[-40.31029,-22.76092],[-40.31029,-22.75832],[-40.31029,-22.75571],[-40.31029,-22.75311],[-40.31029,-22.7505],[-40.31029,-22.7479],[-40.31029,-22.74529],[-40.31029,-22.74269],[-40.31029,-22.74009],[-40.31029,-22.73748],[-40.31029,-22.73488],[-40.31029,-22.73227],[-40.31029,-22.72967],[-40.31029,-22.72706],[-40.31029,-22.72446],[-40.31029,-22.72186],[-40.31029,-22.71925],[-40.31029,-22.71665],[-40.31029,-22.71404],[-40.31029,-22.71144],[-40.30769,-22.71144],[-40.30508,-22.71144],[-40.30248,-22.71144],[-40.29987,-22.71144],[-40.29727,-22.71144],[-40.29467,-22.71144],[-40.29206,-22.71144],[-40.28946,-22.71144],[-40.28685,-22.71144],[-40.28425,-22.71144],[-40.28165,-22.71144],[-40.27904,-22.71144],[-40.27644,-22.71144],[-40.27383,-22.71144],[-40.27123,-22.71144],[-40.26862,-22.71144],[-40.26602,-22.71144],[-40.26342,-22.71144],[-40.26081,-22.71144],[-40.25821,-22.71144],[-40.2556,-22.71144],[-40.253,-22.71144],[-40.25039,-22.71144],[-40.24779,-22.71144],[-40.24519,-22.71144],[-40.24258,-22.71144],[-40.23998,-22.71144],[-40.23737,-22.71144],[-40.23477,-22.71144],[-40.23217,-22.71144],[-40.22956,-22.71144],[-40.22696,-22.71144],[-40.22435,-22.71144],[-40.22175,-22.71144],[-40.21914,-22.71144],[-40.21654,-22.71144],[-40.21394,-22.71144],[-40.21133,-22.71144],[-40.20873,-22.71144],[-40.20612,-22.71144],[-40.20352,-22.71144],[-40.20092,-22.71144],[-40.19831,-22.71144],[-40.19571,-22.71144],[-40.1931,-22.71144],[-40.1905,-22.71144],[-40.18789,-22.71144],[-40.18529,-22.71144],[-40.18529,-22.71404],[-40.18529,-22.71665],[-40.18529,-22.71925],[-40.18529,-22.72186],[-40.18529,-22.72446],[-40.18529,-22.72707],[-40.18529,-22.72967],[-40.18529,-22.73227],[-40.18529,-22.73488],[-40.18529,-22.73748],[-40.18529,-22.74009],[-40.18529,-22.74269],[-40.18529,-22.74529],[-40.18529,-22.7479],[-40.18529,-22.7505],[-40.18529,-22.75311],[-40.18529,-22.75311]]]}},{"type":"Feature","properties":{"projeto":"Norte de Brava","fonte":"bloco_exploratorio","bacia":"Campos","operador":"Petróleo Brasileiro S.A. - PETROBRAS","rodada":"OPP1","assinatura":"31-05-2023","area_km2":139.0},"geometry":{"type":"Polygon","coordinates":[[[-39.99258,-22.33644],[-39.99518,-22.33644],[-39.99779,-22.33644],[-40.00039,-22.33644],[-40.003,-22.33644],[-40.0056,-22.33644],[-40.0082,-22.33644],[-40.01081,-22.33644],[-40.01341,-22.33644],[-40.01602,-22.33644],[-40.01862,-22.33644],[-40.02122,-22.33644],[-40.02383,-22.33644],[-40.02643,-22.33644],[-40.02904,-22.33644],[-40.03164,-22.33644],[-40.03425,-22.33644],[-40.03685,-22.33644],[-40.03945,-22.33644],[-40.04206,-22.33644],[-40.04466,-22.33644],[-40.04727,-22.33644],[-40.04987,-22.33644],[-40.05248,-22.33644],[-40.05508,-22.33644],[-40.05768,-22.33644],[-40.06029,-22.33644],[-40.0625,-22.33644],[-40.0625,-22.33333],[-40.07292,-22.33333],[-40.07292,-22.32812],[-40.07812,-22.32812],[-40.07812,-22.32292],[-40.08854,-22.32292],[-40.08854,-22.32552],[-40.09896,-22.32552],[-40.09896,-22.33333],[-40.10417,-22.33333],[-40.10417,-22.33644],[-40.10677,-22.33644],[-40.10938,-22.33644],[-40.11198,-22.33644],[-40.11458,-22.33644],[-40.11719,-22.33644],[-40.11979,-22.33644],[-40.1224,-22.33644],[-40.125,-22.33644],[-40.1276,-22.33644],[-40.13021,-22.33644],[-40.13281,-22.33644],[-40.13542,-22.33644],[-40.13802,-22.33644],[-40.14062,-22.33644],[-40.14323,-22.33644],[-40.14583,-22.33644],[-40.14844,-22.33644],[-40.15104,-22.33644],[-40.15365,-22.33644],[-40.15625,-22.33644],[-40.15885,-22.33644],[-40.16146,-22.33644],[-40.16406,-22.33644],[-40.16667,-22.33644],[-40.16927,-22.33644],[-40.17188,-22.33644],[-40.17448,-22.33644],[-40.17708,-22.33644],[-40.17969,-22.33644],[-40.18229,-22.33644],[-40.18529,-22.33644],[-40.18529,-22.33383],[-40.18529,-22.33123],[-40.18529,-22.32863],[-40.18529,-22.32602],[-40.18529,-22.32342],[-40.18529,-22.32081],[-40.18529,-22.31821],[-40.18529,-22.3156],[-40.18529,-22.313],[-40.18529,-22.3104],[-40.18529,-22.30779],[-40.18529,-22.30519],[-40.18529,-22.30258],[-40.18529,-22.29998],[-40.18529,-22.29738],[-40.18529,-22.29477],[-40.18268,-22.29477],[-40.18008,-22.29477],[-40.17748,-22.29477],[-40.17487,-22.29477],[-40.17227,-22.29477],[-40.16966,-22.29477],[-40.16706,-22.29477],[-40.16446,-22.29477],[-40.16185,-22.29477],[-40.15925,-22.29477],[-40.15664,-22.29477],[-40.15404,-22.29477],[-40.15143,-22.29477],[-40.14883,-22.29477],[-40.14623,-22.29477],[-40.14362,-22.29477],[-40.14102,-22.29477],[-40.13841,-22.29477],[-40.13581,-22.29477],[-40.1332,-22.29477],[-40.1306,-22.29477],[-40.128,-22.29477],[-40.12539,-22.29477],[-40.12279,-22.29477],[-40.12018,-22.29477],[-40.11758,-22.29477],[-40.11498,-22.29477],[-40.11237,-22.29477],[-40.10977,-22.29477],[-40.10716,-22.29477],[-40.10456,-22.29477],[-40.10195,-22.29477],[-40.09935,-22.29477],[-40.09675,-22.29477],[-40.09414,-22.29477],[-40.09154,-22.29477],[-40.08893,-22.29477],[-40.08633,-22.29477],[-40.08373,-22.29477],[-40.08112,-22.29477],[-40.07852,-22.29477],[-40.07591,-22.29477],[-40.07331,-22.29477],[-40.0707,-22.29477],[-40.0681,-22.29477],[-40.0655,-22.29477],[-40.06289,-22.29477],[-40.06029,-22.29477],[-40.06029,-22.29217],[-40.06029,-22.28956],[-40.06029,-22.28696],[-40.06029,-22.28435],[-40.06029,-22.28175],[-40.06029,-22.27915],[-40.06029,-22.27654],[-40.06029,-22.27394],[-40.06029,-22.27133],[-40.06029,-22.26873],[-40.06029,-22.26613],[-40.06029,-22.26352],[-40.06029,-22.26092],[-40.06029,-22.25831],[-40.06029,-22.25571],[-40.06029,-22.2531],[-40.0599,-22.2531],[-40.0599,-22.26042],[-40.0026,-22.26042],[-40.0026,-22.2531],[-40.0,-22.2531],[-39.9974,-22.2531],[-39.99479,-22.2531],[-39.99219,-22.2531],[-39.98958,-22.2531],[-39.98698,-22.2531],[-39.98438,-22.2531],[-39.98177,-22.2531],[-39.97917,-22.2531],[-39.97656,-22.2531],[-39.97396,-22.2531],[-39.97135,-22.2531],[-39.96875,-22.2531],[-39.96615,-22.2531],[-39.96354,-22.2531],[-39.96094,-22.2531],[-39.95833,-22.2531],[-39.95573,-22.2531],[-39.95312,-22.2531],[-39.95052,-22.2531],[-39.94792,-22.2531],[-39.94531,-22.2531],[-39.94271,-22.2531],[-39.9401,-22.2531],[-39.9375,-22.2531],[-39.93529,-22.2531],[-39.93529,-22.25571],[-39.93529,-22.25831],[-39.93529,-22.26092],[-39.93529,-22.26352],[-39.93529,-22.26613],[-39.93529,-22.26873],[-39.93529,-22.27133],[-39.93529,-22.27394],[-39.93529,-22.27654],[-39.93529,-22.27915],[-39.93529,-22.28175],[-39.93529,-22.28436],[-39.93529,-22.28696],[-39.93529,-22.28956],[-39.93789,-22.28956],[-39.94049,-22.28956],[-39.9431,-22.28956],[-39.9457,-22.28956],[-39.94831,-22.28956],[-39.95091,-22.28956],[-39.95352,-22.28956],[-39.95612,-22.28956],[-39.95872,-22.28956],[-39.96133,-22.28956],[-39.96393,-22.28956],[-39.96654,-22.28956],[-39.96914,-22.28956],[-39.97175,-22.28956],[-39.97435,-22.28956],[-39.97695,-22.28956],[-39.97956,-22.28956],[-39.98216,-22.28956],[-39.98477,-22.28956],[-39.98737,-22.28956],[-39.98997,-22.28956],[-39.99258,-22.28956],[-39.99258,-22.29217],[-39.99258,-22.29477],[-39.99258,-22.29738],[-39.99258,-22.29998],[-39.99258,-22.30258],[-39.99258,-22.30519],[-39.99258,-22.30779],[-39.99258,-22.3104],[-39.99258,-22.313],[-39.99258,-22.31561],[-39.99258,-22.31821],[-39.99258,-22.32081],[-39.99258,-22.32342],[-39.99258,-22.32602],[-39.99258,-22.32863],[-39.99258,-22.33123],[-39.99258,-22.33383],[-39.99258,-22.33644],[-39.99258,-22.33644]]]}},{"type":"Feature","properties":{"projeto":"Bumerangue","fonte":"bloco_exploratorio","bacia":"Santos","operador":"BP Energy do Brasil Ltda.","rodada":"OPP1","assinatura":"01-06-2023","area_km2":1119.0},"geometry":{"type":"Polygon","coordinates":[[[-43.53385,-26.5026],[-43.53385,-26.4974],[-43.52344,-26.4974],[-43.52344,-26.49219],[-43.51823,-26.49219],[-43.51823,-26.48438],[-43.51302,-26.48438],[-43.51302,-26.47917],[-43.50781,-26.47917],[-43.50781,-26.47396],[-43.48698,-26.47396],[-43.48698,-26.46875],[-43.47917,-26.46875],[-43.47917,-26.46354],[-43.47396,-26.46354],[-43.47396,-26.45833],[-43.46354,-26.45833],[-43.46354,-26.45312],[-43.45312,-26.45312],[-43.45312,-26.44792],[-43.44271,-26.44792],[-43.44271,-26.44271],[-43.36979,-26.44271],[-43.36979,-26.40104],[-43.26302,-26.40104],[-43.26302,-26.42969],[-43.22656,-26.42969],[-43.22656,-26.46094],[-43.17448,-26.46094],[-43.17448,-26.58594],[-43.26302,-26.58594],[-43.26302,-26.58854],[-43.28125,-26.58854],[-43.28125,-26.59115],[-43.29948,-26.59115],[-43.29948,-26.59375],[-43.30469,-26.59375],[-43.30469,-26.77083],[-43.40885,-26.77083],[-43.40885,-26.73177],[-43.52865,-26.73177],[-43.52865,-26.67708],[-43.60677,-26.67708],[-43.60677,-26.55208],[-43.58854,-26.55208],[-43.58854,-26.52604],[-43.55469,-26.52604],[-43.55469,-26.5026],[-43.53385,-26.5026],[-43.53385,-26.5026]]]}},{"type":"Feature","properties":{"projeto":"Sudoeste de Sagitário","fonte":"bloco_exploratorio","bacia":"Santos","operador":"Petróleo Brasileiro S.A. - PETROBRAS","rodada":"OPP1","assinatura":"31-05-2023","area_km2":1036.0},"geometry":{"type":"Polygon","coordinates":[[[-44.37544,-25.45833],[-44.41927,-25.45833],[-44.41927,-25.25],[-44.40365,-25.25],[-44.40365,-25.13542],[-44.31771,-25.13542],[-44.31771,-25.08854],[-44.25044,-25.08854],[-44.25044,-25.09115],[-44.25044,-25.09375],[-44.25044,-25.09635],[-44.25044,-25.09896],[-44.25044,-25.10156],[-44.25044,-25.10417],[-44.25044,-25.10677],[-44.25044,-25.10938],[-44.25044,-25.11198],[-44.25044,-25.11458],[-44.25044,-25.11719],[-44.25044,-25.11979],[-44.25044,-25.1224],[-44.25044,-25.125],[-44.25044,-25.1276],[-44.25044,-25.13021],[-44.25044,-25.13281],[-44.25044,-25.13542],[-44.25044,-25.13802],[-44.25044,-25.14062],[-44.25044,-25.14323],[-44.25044,-25.14583],[-44.25044,-25.14844],[-44.25044,-25.15104],[-44.25044,-25.15365],[-44.25044,-25.15625],[-44.25044,-25.15885],[-44.25044,-25.16146],[-44.25044,-25.16406],[-44.25044,-25.16667],[-44.25044,-25.16927],[-44.25044,-25.17188],[-44.25044,-25.17448],[-44.25044,-25.17708],[-44.25044,-25.17969],[-44.25044,-25.18229],[-44.25044,-25.1849],[-44.25044,-25.1875],[-44.25044,-25.1901],[-44.25044,-25.19271],[-44.25044,-25.19531],[-44.25044,-25.19792],[-44.25044,-25.20052],[-44.25044,-25.20312],[-44.25044,-25.20573],[-44.25044,-25.20833],[-44.25044,-25.21094],[-44.25044,-25.21354],[-44.25044,-25.21615],[-44.25044,-25.21875],[-44.25044,-25.22135],[-44.25044,-25.22396],[-44.25044,-25.22656],[-44.25044,-25.22917],[-44.25044,-25.23177],[-44.25044,-25.23438],[-44.25044,-25.23698],[-44.25044,-25.23958],[-44.25044,-25.24219],[-44.25044,-25.24479],[-44.25044,-25.2474],[-44.25044,-25.2505],[-44.24783,-25.2505],[-44.24523,-25.2505],[-44.24263,-25.2505],[-44.24002,-25.2505],[-44.23742,-25.2505],[-44.23481,-25.2505],[-44.23221,-25.2505],[-44.22961,-25.2505],[-44.227,-25.2505],[-44.2244,-25.2505],[-44.22179,-25.2505],[-44.21919,-25.2505],[-44.21658,-25.2505],[-44.21398,-25.2505],[-44.21138,-25.2505],[-44.20877,-25.2505],[-44.20617,-25.2505],[-44.20356,-25.2505],[-44.20096,-25.2505],[-44.19836,-25.2505],[-44.19575,-25.2505],[-44.19315,-25.2505],[-44.19054,-25.2505],[-44.18794,-25.2505],[-44.18533,-25.2505],[-44.18273,-25.2505],[-44.18013,-25.2505],[-44.17752,-25.2505],[-44.17492,-25.2505],[-44.17231,-25.2505],[-44.16971,-25.2505],[-44.1671,-25.2505],[-44.1645,-25.2505],[-44.1619,-25.2505],[-44.15929,-25.2505],[-44.15669,-25.2505],[-44.15408,-25.2505],[-44.15148,-25.2505],[-44.14888,-25.2505],[-44.14627,-25.2505],[-44.14367,-25.2505],[-44.14106,-25.2505],[-44.13846,-25.2505],[-44.13585,-25.2505],[-44.13325,-25.2505],[-44.13065,-25.2505],[-44.12804,-25.2505],[-44.12544,-25.2505],[-44.12283,-25.2505],[-44.12023,-25.2505],[-44.11763,-25.2505],[-44.11502,-25.2505],[-44.11242,-25.2505],[-44.10981,-25.2505],[-44.10721,-25.2505],[-44.1046,-25.2505],[-44.102,-25.2505],[-44.0994,-25.2505],[-44.09679,-25.2505],[-44.09419,-25.2505],[-44.09158,-25.2505],[-44.08898,-25.2505],[-44.08637,-25.2505],[-44.08377,-25.2505],[-44.08117,-25.2505],[-44.08117,-25.25],[-44.07552,-25.25],[-44.07552,-25.42188],[-44.06294,-25.42188],[-44.06294,-25.42448],[-44.06294,-25.42708],[-44.06294,-25.42969],[-44.06294,-25.43229],[-44.06294,-25.4349],[-44.06294,-25.4375],[-44.06294,-25.4401],[-44.06294,-25.44271],[-44.06294,-25.44531],[-44.06294,-25.44792],[-44.06294,-25.45052],[-44.06294,-25.45312],[-44.06294,-25.45573],[-44.06294,-25.45884],[-44.06554,-25.45884],[-44.06815,-25.45884],[-44.07075,-25.45884],[-44.07335,-25.45884],[-44.07596,-25.45884],[-44.07856,-25.45884],[-44.08117,-25.45884],[-44.08377,-25.45884],[-44.08638,-25.45884],[-44.08898,-25.45884],[-44.09158,-25.45884],[-44.09419,-25.45884],[-44.09679,-25.45884],[-44.0994,-25.45884],[-44.102,-25.45884],[-44.10461,-25.45884],[-44.10721,-25.45884],[-44.10981,-25.45884],[-44.11242,-25.45884],[-44.11502,-25.45884],[-44.11763,-25.45884],[-44.12023,-25.45884],[-44.12283,-25.45884],[-44.12544,-25.45884],[-44.12804,-25.45884],[-44.13065,-25.45884],[-44.13325,-25.45884],[-44.13586,-25.45884],[-44.13846,-25.45884],[-44.14106,-25.45884],[-44.14367,-25.45884],[-44.14627,-25.45884],[-44.14888,-25.45884],[-44.15148,-25.45884],[-44.15408,-25.45884],[-44.15669,-25.45884],[-44.15929,-25.45884],[-44.1619,-25.45884],[-44.1645,-25.45884],[-44.16711,-25.45884],[-44.16971,-25.45884],[-44.17231,-25.45884],[-44.17492,-25.45884],[-44.17752,-25.45884],[-44.18013,-25.45884],[-44.18273,-25.45884],[-44.18533,-25.45884],[-44.18794,-25.45884],[-44.19054,-25.45884],[-44.19315,-25.45884],[-44.19575,-25.45884],[-44.19836,-25.45884],[-44.20096,-25.45884],[-44.20356,-25.45884],[-44.20617,-25.45884],[-44.20877,-25.45884],[-44.21138,-25.45884],[-44.21398,-25.45884],[-44.21659,-25.45884],[-44.21919,-25.45884],[-44.22179,-25.45884],[-44.2244,-25.45884],[-44.227,-25.45884],[-44.22961,-25.45884],[-44.23221,-25.45884],[-44.23481,-25.45884],[-44.23742,-25.45884],[-44.24002,-25.45884],[-44.24263,-25.45884],[-44.24523,-25.45884],[-44.24784,-25.45884],[-44.25044,-25.45884],[-44.25304,-25.45884],[-44.25565,-25.45884],[-44.25825,-25.45884],[-44.26086,-25.45884],[-44.26346,-25.45884],[-44.26606,-25.45884],[-44.26867,-25.45884],[-44.27127,-25.45884],[-44.27388,-25.45884],[-44.27648,-25.45884],[-44.27909,-25.45884],[-44.28169,-25.45884],[-44.28429,-25.45884],[-44.2869,-25.45884],[-44.2895,-25.45884],[-44.29211,-25.45884],[-44.29471,-25.45884],[-44.29732,-25.45884],[-44.29992,-25.45884],[-44.30252,-25.45884],[-44.30513,-25.45884],[-44.30773,-25.45884],[-44.31034,-25.45884],[-44.31294,-25.45884],[-44.31554,-25.45884],[-44.31815,-25.45884],[-44.32075,-25.45884],[-44.32336,-25.45884],[-44.32596,-25.45884],[-44.32857,-25.45884],[-44.33117,-25.45884],[-44.33377,-25.45884],[-44.33638,-25.45884],[-44.33898,-25.45884],[-44.34159,-25.45884],[-44.34419,-25.45884],[-44.34679,-25.45884],[-44.3494,-25.45884],[-44.352,-25.45884],[-44.35461,-25.45884],[-44.35721,-25.45884],[-44.35982,-25.45884],[-44.36242,-25.45884],[-44.36502,-25.45884],[-44.36763,-25.45884],[-44.37023,-25.45884],[-44.37284,-25.45884],[-44.37544,-25.45884],[-44.37544,-25.45833]]]}},{"type":"Feature","properties":{"projeto":"Tupinambá","fonte":"bloco_exploratorio","bacia":"Santos","operador":"BP Energy do Brasil Ltda.","rodada":"OPP2","assinatura":"27-05-2024","area_km2":3056.0},"geometry":{"type":"Polygon","coordinates":[[[-43.45573,-26.45312],[-43.46354,-26.45312],[-43.46354,-26.45833],[-43.47396,-26.45833],[-43.47396,-26.46354],[-43.47917,-26.46354],[-43.47917,-26.46875],[-43.48698,-26.46875],[-43.48698,-26.47396],[-43.50781,-26.47396],[-43.50781,-26.47917],[-43.51302,-26.47917],[-43.51302,-26.48438],[-43.51823,-26.48438],[-43.51823,-26.49219],[-43.52344,-26.49219],[-43.52344,-26.4974],[-43.53385,-26.4974],[-43.53385,-26.5026],[-43.55469,-26.5026],[-43.55469,-26.52604],[-43.58854,-26.52604],[-43.58854,-26.55208],[-43.60677,-26.55208],[-43.60677,-26.76042],[-44.0,-26.76042],[-44.0,-26.17969],[-43.45573,-26.17969],[-43.45573,-26.45312]]]}},{"type":"Feature","properties":{"projeto":"Esmeralda","fonte":"bloco_exploratorio","bacia":"Santos","operador":"Karoon Petróleo & Gás Ltda.","rodada":"OPP3","assinatura":"27-05-2026","area_km2":3655.564},"geometry":{"type":"Polygon","coordinates":[[[-44.8724,-26.16667],[-44.8724,-26.04688],[-44.58333,-26.04688],[-44.58333,-26.22396],[-44.39583,-26.22396],[-44.39583,-26.61979],[-44.78906,-26.61979],[-44.78906,-26.48698],[-45.1901,-26.48698],[-45.1901,-26.16667],[-44.8724,-26.16667],[-44.8724,-26.16667]]]}},{"type":"Feature","properties":{"projeto":"Ametista","fonte":"bloco_exploratorio","bacia":"Santos","operador":"CNOOC Petroleum Brasil Ltda.","rodada":"OPP3","assinatura":"25-06-2026","area_km2":1555.31},"geometry":{"type":"Polygon","coordinates":[[[-45.125,-26.69531],[-44.71094,-26.69531],[-44.71094,-27.03646],[-45.125,-27.03646],[-45.125,-26.69531]]]}},{"type":"Feature","properties":{"projeto":"Citrino","fonte":"bloco_exploratorio","bacia":"Campos","operador":"Petróleo Brasileiro S.A. - PETROBRAS","rodada":"OPP3","assinatura":"25-06-2026","area_km2":1251.27},"geometry":{"type":"Polygon","coordinates":[[[-39.6224,-22.67969],[-39.8099,-22.67969],[-39.8099,-22.58594],[-39.8724,-22.58594],[-39.8724,-22.50521],[-39.8099,-22.50521],[-39.8099,-22.41927],[-39.82812,-22.41927],[-39.82812,-22.35677],[-39.8724,-22.35677],[-39.8724,-22.28906],[-39.9349,-22.28906],[-39.9349,-22.21354],[-39.8724,-22.21354],[-39.8724,-22.17188],[-39.8125,-22.17188],[-39.8125,-22.21354],[-39.6224,-22.21354],[-39.6224,-22.67969]]]}},{"type":"Feature","properties":{"projeto":"Itaimbezinho","fonte":"bloco_exploratorio","bacia":"Campos","operador":"Equinor Brasil Energia Ltda.","rodada":"OPP3","assinatura":"27-05-2026","area_km2":710.54},"geometry":{"type":"Polygon","coordinates":[[[-40.5,-23.5],[-40.5,-23.40365],[-40.5026,-23.40365],[-40.5026,-23.26823],[-40.5,-23.26823],[-40.5,-23.25],[-40.25,-23.25],[-40.25,-23.25051],[-40.2504,-23.25051],[-40.2504,-23.25311],[-40.2504,-23.25571],[-40.2504,-23.25832],[-40.2504,-23.26092],[-40.2504,-23.26353],[-40.2504,-23.26613],[-40.2504,-23.26873],[-40.2504,-23.27134],[-40.2504,-23.27394],[-40.2504,-23.27655],[-40.2504,-23.27915],[-40.2504,-23.28176],[-40.2504,-23.28436],[-40.2504,-23.28696],[-40.2504,-23.28957],[-40.2504,-23.29217],[-40.2504,-23.29478],[-40.2504,-23.29738],[-40.2504,-23.29998],[-40.2504,-23.30259],[-40.2504,-23.30519],[-40.2504,-23.3078],[-40.2504,-23.3104],[-40.2504,-23.31301],[-40.2504,-23.31561],[-40.2504,-23.31821],[-40.2504,-23.32082],[-40.2504,-23.32342],[-40.2504,-23.32603],[-40.2504,-23.32863],[-40.2504,-23.33123],[-40.2504,-23.33384],[-40.2504,-23.33644],[-40.2504,-23.33905],[-40.2504,-23.34165],[-40.2504,-23.34426],[-40.2504,-23.34686],[-40.2504,-23.34946],[-40.2504,-23.35207],[-40.2504,-23.35467],[-40.2504,-23.35728],[-40.2504,-23.35988],[-40.2504,-23.36249],[-40.2504,-23.36509],[-40.2504,-23.36769],[-40.2504,-23.3703],[-40.2504,-23.3729],[-40.2504,-23.37551],[-40.2504,-23.37811],[-40.2504,-23.38071],[-40.2504,-23.38332],[-40.2504,-23.38592],[-40.2504,-23.38853],[-40.2504,-23.39113],[-40.2504,-23.39374],[-40.2504,-23.39634],[-40.2504,-23.39894],[-40.2504,-23.40155],[-40.2504,-23.40415],[-40.2504,-23.40676],[-40.2504,-23.40936],[-40.2504,-23.41196],[-40.2504,-23.41457],[-40.2504,-23.41717],[-40.2504,-23.41978],[-40.2504,-23.42238],[-40.2504,-23.42499],[-40.2504,-23.42759],[-40.2504,-23.43019],[-40.2504,-23.4328],[-40.2504,-23.4354],[-40.2504,-23.43801],[-40.2504,-23.44061],[-40.2504,-23.44321],[-40.2504,-23.44582],[-40.2504,-23.44842],[-40.2504,-23.45103],[-40.2504,-23.45363],[-40.2504,-23.45624],[-40.2504,-23.45884],[-40.2504,-23.46144],[-40.2504,-23.46405],[-40.2504,-23.46665],[-40.2504,-23.46926],[-40.2504,-23.47186],[-40.2504,-23.47446],[-40.2504,-23.47707],[-40.2504,-23.47967],[-40.2504,-23.48228],[-40.2504,-23.48488],[-40.2504,-23.48749],[-40.2504,-23.49009],[-40.2504,-23.49269],[-40.2504,-23.4953],[-40.2504,-23.4979],[-40.2504,-23.5],[-40.5,-23.5],[-40.5,-23.5]]]}},{"type":"Feature","properties":{"projeto":"Jaspe","fonte":"bloco_exploratorio","bacia":"Campos","operador":"Petróleo Brasileiro S.A. - PETROBRAS","rodada":"OPP3","assinatura":"25-06-2026","area_km2":1008.97},"geometry":{"type":"Polygon","coordinates":[[[-40.09635,-23.5],[-40.09635,-23.50781],[-40.10156,-23.50781],[-40.10156,-23.51562],[-40.10677,-23.51562],[-40.10677,-23.52344],[-40.11198,-23.52344],[-40.11198,-23.53125],[-40.11719,-23.53125],[-40.11719,-23.53646],[-40.1224,-23.53646],[-40.1224,-23.54427],[-40.1276,-23.54427],[-40.1276,-23.55208],[-40.13281,-23.55208],[-40.13281,-23.55729],[-40.13802,-23.55729],[-40.13802,-23.5651],[-40.14323,-23.5651],[-40.14323,-23.57031],[-40.14844,-23.57031],[-40.14844,-23.57812],[-40.15365,-23.57812],[-40.15365,-23.58333],[-40.15885,-23.58333],[-40.15885,-23.59115],[-40.16406,-23.59115],[-40.16406,-23.59635],[-40.16927,-23.59635],[-40.16927,-23.60417],[-40.17448,-23.60417],[-40.17448,-23.61198],[-40.17708,-23.61198],[-40.17708,-23.66406],[-40.14323,-23.66406],[-40.14323,-23.71615],[-40.1875,-23.71615],[-40.1875,-23.75],[-40.20052,-23.75],[-40.20052,-23.78385],[-40.21094,-23.78385],[-40.21094,-23.79948],[-40.22656,-23.79948],[-40.22656,-23.80469],[-40.25,-23.80469],[-40.25,-23.75],[-40.5,-23.75],[-40.5,-23.5],[-40.2504,-23.5],[-40.2504,-23.50051],[-40.24779,-23.50051],[-40.24519,-23.50051],[-40.24258,-23.50051],[-40.23998,-23.50051],[-40.23738,-23.50051],[-40.23477,-23.50051],[-40.23217,-23.50051],[-40.22956,-23.50051],[-40.22696,-23.50051],[-40.22436,-23.50051],[-40.22175,-23.50051],[-40.21915,-23.50051],[-40.21654,-23.50051],[-40.21394,-23.50051],[-40.21133,-23.50051],[-40.20873,-23.50051],[-40.20613,-23.50051],[-40.20352,-23.50051],[-40.20052,-23.50051],[-40.20052,-23.5],[-40.09635,-23.5],[-40.09635,-23.5]]]}}]}